{
"type": "FeatureCollection",
"name": "current",
"crs": { "type": "name", "properties": { "name": "urn:ogc:def:crs:OGC:1.3:CRS84" } },
"features": [
{ "type": "Feature", "properties": { "hex_id": 487862, "centroid_lon": -74.472472530546426, "centroid_lat": 45.911812199321858, "is_current": true, "last_reading": "2026-10-03 22:47:04", "total_occurrences": 477.0, "days_affected": 22 }, "geometry": { "type": "Polygon", "coordinates": [ [ [ -74.472521754054185, 45.906615985649474 ], [ -74.478943592460951, 45.909243669054192 ], [ -74.478894963758194, 45.914439885664741 ], [ -74.472423293525509, 45.917008408207124 ], [ -74.46600087382923, 45.914380359360109 ], [ -74.466050705650545, 45.90918415347857 ], [ -74.472521754054185, 45.906615985649474 ] ] ] } },
{ "type": "Feature", "properties": { "hex_id": 535471, "centroid_lon": -73.972539416148521, "centroid_lat": 45.752514739613019, "is_current": true, "last_reading": "2026-10-03 22:47:04", "total_occurrences": 79.0, "days_affected": 10 }, "geometry": { "type": "Polygon", "coordinates": [ [ [ -73.972634753666284, 45.747318996630739 ], [ -73.979014416006137, 45.74997448999553 ], [ -73.978919661674738, 45.755170240912349 ], [ -73.972444052512728, 45.75771047769458 ], [ -73.966063833108961, 45.755054616050685 ], [ -73.966159779922293, 45.74985888596877 ], [ -73.972634753666284, 45.747318996630739 ] ] ] } },
{ "type": "Feature", "properties": { "hex_id": 560486, "centroid_lon": -73.714559992961327, "centroid_lat": 45.508255884705484, "is_current": true, "last_reading": "2026-10-03 22:47:04", "total_occurrences": 296.0, "days_affected": 14 }, "geometry": { "type": "Polygon", "coordinates": [ [ [ -73.714678253535524, 45.50306039158739 ], [ -73.721018019786698, 45.505729974765984 ], [ -73.720900331478234, 45.510925478334549 ], [ -73.714441700088358, 45.513451372837132 ], [ -73.708101393875637, 45.510781422032231 ], [ -73.708220259003497, 45.505585944415564 ], [ -73.714678253535524, 45.50306039158739 ] ] ] } },
{ "type": "Feature", "properties": { "hex_id": 562924, "centroid_lon": -73.690408684619271, "centroid_lat": 45.445619312816802, "is_current": true, "last_reading": "2026-10-03 22:47:04", "total_occurrences": 312.0, "days_affected": 32 }, "geometry": { "type": "Polygon", "coordinates": [ [ [ -73.690528904013888, 45.44042381216714 ], [ -73.696860545250132, 45.443094674288503 ], [ -73.696740895910679, 45.448290185613565 ], [ -73.690288432415898, 45.450814808471286 ], [ -73.683956253938746, 45.448143579288889 ], [ -73.684077076186298, 45.442948094374181 ], [ -73.690528904013888, 45.44042381216714 ] ] ] } },
{ "type": "Feature", "properties": { "hex_id": 563534, "centroid_lon": -73.684197865470679, "centroid_lat": 45.437752604461927, "is_current": true, "last_reading": "2026-10-03 22:47:04", "total_occurrences": 330.0, "days_affected": 34 }, "geometry": { "type": "Polygon", "coordinates": [ [ [ -73.684318621802973, 45.432557109552171 ], [ -73.690649090610719, 45.435228306522369 ], [ -73.690528904013888, 45.44042381216714 ], [ -73.684077076186298, 45.442948094374181 ], [ -73.677746070600705, 45.440276530384111 ], [ -73.67786742960952, 45.435081051271233 ], [ -73.684318621802973, 45.432557109552171 ] ] ] } },
{ "type": "Feature", "properties": { "hex_id": 567207, "centroid_lon": -73.642107565011855, "centroid_lat": 45.593164457876355, "is_current": true, "last_reading": "2026-10-03 22:47:04", "total_occurrences": 402.0, "days_affected": 32 }, "geometry": { "type": "Polygon", "coordinates": [ [ [ -73.642232860244263, 45.587969194112347 ], [ -73.648578564248467, 45.590642829957524 ], [ -73.648453842868662, 45.595838104909063 ], [ -73.641982235525305, 45.598359716625893 ], [ -73.635635991928439, 45.595685711398296 ], [ -73.635761895256081, 45.590490463900984 ], [ -73.642232860244263, 45.587969194112347 ] ] ] } },
{ "type": "Feature", "properties": { "hex_id": 567208, "centroid_lon": -73.641731473743548, "centroid_lat": 45.60875021908133, "is_current": true, "last_reading": "2026-10-03 22:47:04", "total_occurrences": 126.0, "days_affected": 19 }, "geometry": { "type": "Polygon", "coordinates": [ [ [ -73.64185687177303, 45.603554970360918 ], [ -73.648204297802124, 45.606228639776113 ], [ -73.648079474092441, 45.611423899691474 ], [ -73.641606041425291, 45.613945462787065 ], [ -73.635258075370913, 45.611271423787848 ], [ -73.635384081997444, 45.606076191341806 ], [ -73.64185687177303, 45.603554970360918 ] ] ] } },
{ "type": "Feature", "properties": { "hex_id": 567817, "centroid_lon": -73.635887764173916, "centroid_lat": 45.585295211386736, "is_current": true, "last_reading": "2026-10-03 22:47:04", "total_occurrences": 467.0, "days_affected": 36 }, "geometry": { "type": "Polygon", "coordinates": [ [ [ -73.636013598693509, 45.580099953855616 ], [ -73.642358121233997, 45.582773925333967 ], [ -73.642232860244263, 45.587969194112347 ], [ -73.635761895256081, 45.590490463900984 ], [ -73.629416833589744, 45.58781612308195 ], [ -73.629543276025871, 45.582620881879663 ], [ -73.636013598693509, 45.580099953855616 ] ] ] } },
{ "type": "Feature", "properties": { "hex_id": 567818, "centroid_lon": -73.63551005417942, "centroid_lat": 45.600880953878601, "is_current": true, "last_reading": "2026-10-03 22:47:04", "total_occurrences": 314.0, "days_affected": 31 }, "geometry": { "type": "Polygon", "coordinates": [ [ [ -73.635635991928439, 45.595685711398296 ], [ -73.641982235525305, 45.598359716625893 ], [ -73.64185687177303, 45.603554970360918 ], [ -73.635384081997444, 45.606076191341806 ], [ -73.62903729884259, 45.603401816571932 ], [ -73.629163845009728, 45.598206590428155 ], [ -73.635635991928439, 45.595685711398296 ] ] ] } },
{ "type": "Feature", "properties": { "hex_id": 567819, "centroid_lon": -73.635132034288262, "centroid_lat": 45.616466651216669, "is_current": true, "last_reading": "2026-10-03 22:47:04", "total_occurrences": 129.0, "days_affected": 14 }, "geometry": { "type": "Polygon", "coordinates": [ [ [ -73.635258075370913, 45.611271423787848 ], [ -73.641606041425291, 45.613945462787065 ], [ -73.641480574806749, 45.619140701478045 ], [ -73.635005958737878, 45.621661873628156 ], [ -73.62865745269292, 45.618987464885009 ], [ -73.628784102695818, 45.613792253800433 ], [ -73.635258075370913, 45.611271423787848 ] ] ] } },
{ "type": "Feature", "properties": { "hex_id": 568428, "centroid_lon": -73.629290356588243, "centroid_lat": 45.593011359264793, "is_current": true, "last_reading": "2026-10-03 22:47:04", "total_occurrences": 431.0, "days_affected": 38 }, "geometry": { "type": "Polygon", "coordinates": [ [ [ -73.629416833589744, 45.58781612308195 ], [ -73.635761895256081, 45.590490463900984 ], [ -73.635635991928439, 45.595685711398296 ], [ -73.629163845009728, 45.598206590428155 ], [ -73.622818244252343, 45.595531880108638 ], [ -73.622945329493106, 45.590336660324432 ], [ -73.629416833589744, 45.58781612308195 ] ] ] } },
{ "type": "Feature", "properties": { "hex_id": 568429, "centroid_lon": -73.628910718075161, "centroid_lat": 45.608597037696057, "is_current": true, "last_reading": "2026-10-03 22:47:04", "total_occurrences": 304.0, "days_affected": 32 }, "geometry": { "type": "Polygon", "coordinates": [ [ [ -73.62903729884259, 45.603401816571932 ], [ -73.635384081997444, 45.606076191341806 ], [ -73.635258075370913, 45.611271423787848 ], [ -73.628784102695818, 45.613792253800433 ], [ -73.622436780017793, 45.611117509328437 ], [ -73.622563969526396, 45.605922304610722 ], [ -73.62903729884259, 45.603401816571932 ] ] ] } },
{ "type": "Feature", "properties": { "hex_id": 568430, "centroid_lon": -73.628530768054802, "centroid_lat": 45.624182670949693, "is_current": true, "last_reading": "2026-10-03 22:47:04", "total_occurrences": 124.0, "days_affected": 19 }, "geometry": { "type": "Polygon", "coordinates": [ [ [ -73.62865745269292, 45.618987464885009 ], [ -73.635005958737878, 45.621661873628156 ], [ -73.634879848708152, 45.626857091022252 ], [ -73.628404048769795, 45.629377871994414 ], [ -73.622055002769159, 45.626703093347381 ], [ -73.622182296650891, 45.621507903696838 ], [ -73.62865745269292, 45.618987464885009 ] ] ] } },
{ "type": "Feature", "properties": { "hex_id": 569038, "centroid_lon": -73.62307238000129, "centroid_lat": 45.58514143551821, "is_current": true, "last_reading": "2026-10-03 22:47:04", "total_occurrences": 1076.0, "days_affected": 62 }, "geometry": { "type": "Polygon", "coordinates": [ [ [ -73.623199395788561, 45.579946205690064 ], [ -73.629543276025871, 45.582620881879663 ], [ -73.629416833589744, 45.58781612308195 ], [ -73.622945329493106, 45.590336660324432 ], [ -73.616600910631377, 45.587661614676158 ], [ -73.616728534479023, 45.582466401308771 ], [ -73.623199395788561, 45.579946205690064 ] ] ] } },
{ "type": "Feature", "properties": { "hex_id": 569039, "centroid_lon": -73.622691124267348, "centroid_lat": 45.600727094870763, "is_current": true, "last_reading": "2026-10-03 22:47:04", "total_occurrences": 649.0, "days_affected": 51 }, "geometry": { "type": "Polygon", "coordinates": [ [ [ -73.622818244252343, 45.595531880108638 ], [ -73.629163845009728, 45.598206590428155 ], [ -73.62903729884259, 45.603401816571932 ], [ -73.622563969526396, 45.605922304610722 ], [ -73.616217829712951, 45.603247224630898 ], [ -73.616345558260065, 45.598052026337299 ], [ -73.622818244252343, 45.595531880108638 ] ] ] } },
{ "type": "Feature", "properties": { "hex_id": 569040, "centroid_lon": -73.622309555729871, "centroid_lat": 45.616312709023838, "is_current": true, "last_reading": "2026-10-03 22:47:04", "total_occurrences": 579.0, "days_affected": 38 }, "geometry": { "type": "Polygon", "coordinates": [ [ [ -73.622436780017793, 45.611117509328437 ], [ -73.628784102695818, 45.613792253800433 ], [ -73.62865745269292, 45.618987464885009 ], [ -73.622182296650891, 45.621507903696838 ], [ -73.615834434484725, 45.618832789362827 ], [ -73.615962267837034, 45.613637606143733 ], [ -73.622436780017793, 45.611117509328437 ] ] ] } },
{ "type": "Feature", "properties": { "hex_id": 569649, "centroid_lon": -73.616473251895627, "centroid_lat": 45.592856823019027, "is_current": true, "last_reading": "2026-10-03 22:47:04", "total_occurrences": 678.0, "days_affected": 44 }, "geometry": { "type": "Polygon", "coordinates": [ [ [ -73.616600910631377, 45.587661614676158 ], [ -73.622945329493106, 45.590336660324432 ], [ -73.622818244252343, 45.595531880108638 ], [ -73.616345558260065, 45.598052026337299 ], [ -73.61000060080903, 45.595376611070606 ], [ -73.610128867927855, 45.590181419258364 ], [ -73.616600910631377, 45.587661614676158 ] ] ] } },
{ "type": "Feature", "properties": { "hex_id": 569650, "centroid_lon": -73.616090066242521, "centroid_lat": 45.608442417899731, "is_current": true, "last_reading": "2026-10-03 22:47:04", "total_occurrences": 470.0, "days_affected": 37 }, "geometry": { "type": "Polygon", "coordinates": [ [ [ -73.616217829712951, 45.603247224630898 ], [ -73.622563969526396, 45.605922304610722 ], [ -73.622436780017793, 45.611117509328437 ], [ -73.615962267837034, 45.613637606143733 ], [ -73.609615589002686, 45.610962156343781 ], [ -73.609743961358248, 45.605766979613392 ], [ -73.616217829712951, 45.603247224630898 ] ] ] } },
{ "type": "Feature", "properties": { "hex_id": 570254, "centroid_lon": -73.612176382305179, "centroid_lat": 45.507057666627183, "is_current": true, "last_reading": "2026-10-03 22:47:04", "total_occurrences": 308.0, "days_affected": 26 }, "geometry": { "type": "Polygon", "coordinates": [ [ [ -73.612304055082475, 45.501862389364604 ], [ -73.618638713585625, 45.50453759790841 ], [ -73.618511611654952, 45.509732886634225 ], [ -73.612048674660471, 45.512252938863924 ], [ -73.605713480183979, 45.50957736175021 ], [ -73.605841758663601, 45.504382101041195 ], [ -73.612304055082475, 45.501862389364604 ] ] ] } },
{ "type": "Feature", "properties": { "hex_id": 570260, "centroid_lon": -73.609872298623117, "centroid_lat": 45.600571797855643, "is_current": true, "last_reading": "2026-10-03 22:47:04", "total_occurrences": 423.0, "days_affected": 31 }, "geometry": { "type": "Polygon", "coordinates": [ [ [ -73.61000060080903, 45.595376611070606 ], [ -73.616345558260065, 45.598052026337299 ], [ -73.616217829712951, 45.603247224630898 ], [ -73.609743961358248, 45.605766979613392 ], [ -73.603398465353237, 45.603091194568492 ], [ -73.603527376245083, 45.597896024384013 ], [ -73.61000060080903, 45.595376611070606 ] ] ] } },
{ "type": "Feature", "properties": { "hex_id": 598346, "centroid_lon": -73.31366905880833, "centroid_lat": 45.643353165765653, "is_current": true, "last_reading": "2026-10-03 22:47:04", "total_occurrences": 384.0, "days_affected": 19 }, "geometry": { "type": "Polygon", "coordinates": [ [ [ -73.313824924225386, 45.638158740316271 ], [ -73.320160088069088, 45.640850458984929 ], [ -73.320004793519487, 45.646044898881158 ], [ -73.313513150760059, 45.648547586055749 ], [ -73.307177458687278, 45.645855494317985 ], [ -73.307333937588623, 45.640661088539474 ], [ -73.313824924225386, 45.638158740316271 ] ] ] } },
{ "type": "Feature", "properties": { "hex_id": 630677, "centroid_lon": -72.987984838398987, "centroid_lat": 45.240516224923326, "is_current": true, "last_reading": "2026-10-03 22:47:04", "total_occurrences": 109.0, "days_affected": 5 }, "geometry": { "type": "Polygon", "coordinates": [ [ [ -72.98816820264598, 45.235322386383416 ], [ -72.994442977247743, 45.238031322638051 ], [ -72.994260167411269, 45.243225178689279 ], [ -72.987801424249895, 45.245710058136581 ], [ -72.981526145148024, 45.243000750979327 ], [ -72.981710113691022, 45.237806935341133 ], [ -72.98816820264598, 45.235322386383416 ] ] ] } },
{ "type": "Feature", "properties": { "hex_id": 631288, "centroid_lon": -72.981342126537214, "centroid_lat": 45.248194561287107, "is_current": true, "last_reading": "2026-10-03 22:47:04", "total_occurrences": 100.0, "days_affected": 4 }, "geometry": { "type": "Polygon", "coordinates": [ [ [ -72.981526145148024, 45.243000750979327 ], [ -72.987801424249895, 45.245710058136581 ], [ -72.987617960182078, 45.250903886022996 ], [ -72.981158057841881, 45.253388366264282 ], [ -72.974882274289882, 45.250678688047884 ], [ -72.975066897511525, 45.245484900713073 ], [ -72.981526145148024, 45.243000750979327 ] ] ] } },
{ "type": "Feature", "properties": { "hex_id": 651442, "centroid_lon": -72.766648846159683, "centroid_lat": 45.361129438497869, "is_current": true, "last_reading": "2026-10-03 22:47:04", "total_occurrences": 14.0, "days_affected": 4 }, "geometry": { "type": "Polygon", "coordinates": [ [ [ -72.766853229373027, 45.355936454820821 ], [ -72.773130094167342, 45.358657556214709 ], [ -72.772926265810653, 45.363850559600067 ], [ -72.766444407252649, 45.366322416711675 ], [ -72.760167043304676, 45.363600940916697 ], [ -72.760372037049763, 45.358407982475157 ], [ -72.766853229373027, 45.355936454820821 ] ] ] } },
{ "type": "Feature", "properties": { "hex_id": 652053, "centroid_lon": -72.759961993698141, "centroid_lat": 45.36879389389081, "is_current": true, "last_reading": "2026-10-03 22:47:04", "total_occurrences": 8.0, "days_affected": 2 }, "geometry": { "type": "Polygon", "coordinates": [ [ [ -72.760167043304676, 45.363600940916697 ], [ -72.766444407252649, 45.366322416711675 ], [ -72.766239912633324, 45.371515389461997 ], [ -72.759756888211498, 45.373986841397219 ], [ -72.753479025165774, 45.371264991044491 ], [ -72.753684685620939, 45.366072063378262 ], [ -72.760167043304676, 45.363600940916697 ] ] ] } },
{ "type": "Feature", "properties": { "hex_id": 740782, "centroid_lon": -71.639795969873532, "centroid_lat": 48.560286028902979, "is_current": true, "last_reading": "2026-10-03 22:47:04", "total_occurrences": 54.0, "days_affected": 6 }, "geometry": { "type": "Polygon", "coordinates": [ [ [ -71.640139740835167, 48.55510094692491 ], [ -71.64673241163878, 48.557890918963473 ], [ -71.646389280830618, 48.563076033459232 ], [ -71.639452101163329, 48.565471104363418 ], [ -71.632858887972603, 48.562680704543169 ], [ -71.633203396800752, 48.557495661671886 ], [ -71.640139740835167, 48.55510094692491 ] ] ] } },
{ "type": "Feature", "properties": { "hex_id": 741392, "centroid_lon": -71.633547807703181, "centroid_lat": 48.552310612275988, "is_current": true, "last_reading": "2026-10-03 22:47:04", "total_occurrences": 168.0, "days_affected": 17 }, "geometry": { "type": "Polygon", "coordinates": [ [ [ -71.633892120715515, 48.547125556356086 ], [ -71.640483414083704, 48.549915858429785 ], [ -71.640139740835167, 48.55510094692491 ], [ -71.633203396800752, 48.557495661671886 ], [ -71.626611561576695, 48.554704931878668 ], [ -71.626956612207366, 48.549519915129437 ], [ -71.633892120715515, 48.547125556356086 ] ] ] } }
]
}
