{
"type": "FeatureCollection",
"name": "daily_2026-01-01",
"crs": { "type": "name", "properties": { "name": "urn:ogc:def:crs:OGC:1.3:CRS84" } },
"features": [
{ "type": "Feature", "properties": { "hex_id": 525704, "centroid_lon": -74.075126162974357, "centroid_lat": 45.768981051189449, "occurrences_today": 22, "datetimes_today": "2026-01-01 00:42:56, 2026-01-01 01:50:42, 2026-01-01 02:34:19, 2026-01-01 03:45:12, 2026-01-01 04:38:37, 2026-01-01 05:38:47, 2026-01-01 06:29:59, 2026-01-01 08:03:43, 2026-01-01 08:46:14, 2026-01-01 09:35:37, 2026-01-01 10:33:51, 2026-01-01 11:42:17, 2026-01-01 12:34:02, 2026-01-01 13:46:45, 2026-01-01 14:28:35, 2026-01-01 15:36:11, 2026-01-01 16:31:31, 2026-01-01 17:35:42, 2026-01-01 18:31:47, 2026-01-01 21:27:59, 2026-01-01 23:11:11, 2026-01-01 23:53:18", "cumulative_total": 220 }, "geometry": { "type": "Polygon", "coordinates": [ [ [ -74.075212031664705, 45.763785164494649 ], [ -74.08159851433156, 45.76643497329264 ], [ -74.081513230712119, 45.771630866899443 ], [ -74.075040270754485, 45.774176933012619 ], [ -74.068653226550211, 45.771526756711424 ], [ -74.068739703833018, 45.766330881865457 ], [ -74.075212031664705, 45.763785164494649 ] ] ] } },
{ "type": "Feature", "properties": { "hex_id": 526315, "centroid_lon": -74.06856672557042, "centroid_lat": 45.776722626684027, "occurrences_today": 22, "datetimes_today": "2026-01-01 00:42:56, 2026-01-01 01:50:42, 2026-01-01 02:34:19, 2026-01-01 03:45:12, 2026-01-01 04:38:37, 2026-01-01 05:38:47, 2026-01-01 06:29:59, 2026-01-01 08:03:43, 2026-01-01 08:46:14, 2026-01-01 09:35:37, 2026-01-01 10:33:51, 2026-01-01 11:42:17, 2026-01-01 12:34:02, 2026-01-01 13:46:45, 2026-01-01 14:28:35, 2026-01-01 15:36:11, 2026-01-01 16:31:31, 2026-01-01 17:35:42, 2026-01-01 18:31:47, 2026-01-01 21:27:59, 2026-01-01 23:11:11, 2026-01-01 23:53:18", "cumulative_total": 203 }, "geometry": { "type": "Polygon", "coordinates": [ [ [ -74.068653226550211, 45.771526756711424 ], [ -74.075040270754485, 45.774176933012619 ], [ -74.074954354997175, 45.779372809964137 ], [ -74.068480200885659, 45.781918491783252 ], [ -74.062092595167897, 45.779267947817232 ], [ -74.062179705067123, 45.774072089762136 ], [ -74.068653226550211, 45.771526756711424 ] ] ] } },
{ "type": "Feature", "properties": { "hex_id": 526925, "centroid_lon": -74.062266791101848, "centroid_lat": 45.768876226831907, "occurrences_today": 22, "datetimes_today": "2026-01-01 00:42:56, 2026-01-01 01:50:42, 2026-01-01 02:34:19, 2026-01-01 03:45:12, 2026-01-01 04:38:37, 2026-01-01 05:38:47, 2026-01-01 06:29:59, 2026-01-01 08:03:43, 2026-01-01 08:46:14, 2026-01-01 09:35:37, 2026-01-01 10:33:51, 2026-01-01 11:42:17, 2026-01-01 12:34:02, 2026-01-01 13:46:45, 2026-01-01 14:28:35, 2026-01-01 15:36:11, 2026-01-01 16:31:31, 2026-01-01 17:35:42, 2026-01-01 18:31:47, 2026-01-01 21:27:59, 2026-01-01 23:11:11, 2026-01-01 23:53:18", "cumulative_total": 220 }, "geometry": { "type": "Polygon", "coordinates": [ [ [ -74.062353853280158, 45.763680359026573 ], [ -74.068739703833018, 45.766330881865457 ], [ -74.068653226550211, 45.771526756711424 ], [ -74.062179705067123, 45.774072089762136 ], [ -74.055793293479212, 45.771421199297521 ], [ -74.055880964401368, 45.766225343473117 ], [ -74.062353853280158, 45.763680359026573 ] ] ] } },
{ "type": "Feature", "properties": { "hex_id": 527536, "centroid_lon": -74.055705598533109, "centroid_lat": 45.776617050245058, "occurrences_today": 22, "datetimes_today": "2026-01-01 00:42:56, 2026-01-01 01:50:42, 2026-01-01 02:34:19, 2026-01-01 03:45:12, 2026-01-01 04:38:37, 2026-01-01 05:38:47, 2026-01-01 06:29:59, 2026-01-01 08:03:43, 2026-01-01 08:46:14, 2026-01-01 09:35:37, 2026-01-01 10:33:51, 2026-01-01 11:42:17, 2026-01-01 12:34:02, 2026-01-01 13:46:45, 2026-01-01 14:28:35, 2026-01-01 15:36:11, 2026-01-01 16:31:31, 2026-01-01 17:35:42, 2026-01-01 18:31:47, 2026-01-01 21:27:59, 2026-01-01 23:11:11, 2026-01-01 23:53:18", "cumulative_total": 209 }, "geometry": { "type": "Polygon", "coordinates": [ [ [ -74.055793293479212, 45.771421199297521 ], [ -74.062179705067123, 45.774072089762136 ], [ -74.062092595167897, 45.779267947817232 ], [ -74.055617879554958, 45.781812896315699 ], [ -74.049230906956282, 45.779161638063762 ], [ -74.049319210973209, 45.773965799165879 ], [ -74.055793293479212, 45.771421199297521 ] ] ] } },
{ "type": "Feature", "properties": { "hex_id": 511642, "centroid_lon": -74.227413975132976, "centroid_lat": 45.450514281925408, "occurrences_today": 22, "datetimes_today": "2026-01-01 00:42:56, 2026-01-01 01:50:42, 2026-01-01 02:34:19, 2026-01-01 03:45:12, 2026-01-01 04:38:37, 2026-01-01 05:38:47, 2026-01-01 06:29:59, 2026-01-01 08:03:43, 2026-01-01 08:46:14, 2026-01-01 09:35:37, 2026-01-01 10:33:51, 2026-01-01 11:42:17, 2026-01-01 12:34:02, 2026-01-01 13:46:45, 2026-01-01 14:28:35, 2026-01-01 15:36:11, 2026-01-01 16:31:31, 2026-01-01 17:35:42, 2026-01-01 18:31:47, 2026-01-01 21:27:59, 2026-01-01 23:11:11, 2026-01-01 23:53:18", "cumulative_total": 97 }, "geometry": { "type": "Polygon", "coordinates": [ [ [ -74.227484913993578, 45.445317899397594 ], [ -74.233842832062663, 45.447959155399033 ], [ -74.233772470527967, 45.453155543270078 ], [ -74.227343016908208, 45.455710659618639 ], [ -74.220984540880636, 45.453069041606163 ], [ -74.221056076424844, 45.447872669320631 ], [ -74.227484913993578, 45.445317899397594 ] ] ] } },
{ "type": "Feature", "properties": { "hex_id": 512252, "centroid_lon": -74.221127592447985, "centroid_lat": 45.442676292199096, "occurrences_today": 22, "datetimes_today": "2026-01-01 00:42:56, 2026-01-01 01:50:42, 2026-01-01 02:34:19, 2026-01-01 03:45:12, 2026-01-01 04:38:37, 2026-01-01 05:38:47, 2026-01-01 06:29:59, 2026-01-01 08:03:43, 2026-01-01 08:46:14, 2026-01-01 09:35:37, 2026-01-01 10:33:51, 2026-01-01 11:42:17, 2026-01-01 12:34:02, 2026-01-01 13:46:45, 2026-01-01 14:28:35, 2026-01-01 15:36:11, 2026-01-01 16:31:31, 2026-01-01 17:35:42, 2026-01-01 18:31:47, 2026-01-01 21:27:59, 2026-01-01 23:11:11, 2026-01-01 23:53:18", "cumulative_total": 93 }, "geometry": { "type": "Polygon", "coordinates": [ [ [ -74.221199088956581, 45.437479910241592 ], [ -74.22755583349651, 45.440121512035212 ], [ -74.227484913993578, 45.445317899397594 ], [ -74.221056076424844, 45.447872669320631 ], [ -74.21469877439705, 45.445230705553513 ], [ -74.214770867419318, 45.440034333901295 ], [ -74.221199088956581, 45.437479910241592 ] ] ] } },
{ "type": "Feature", "properties": { "hex_id": 512862, "centroid_lon": -74.214842940770254, "centroid_lat": 45.434837957411652, "occurrences_today": 22, "datetimes_today": "2026-01-01 00:42:56, 2026-01-01 01:50:42, 2026-01-01 02:34:19, 2026-01-01 03:45:12, 2026-01-01 04:38:37, 2026-01-01 05:38:47, 2026-01-01 06:29:59, 2026-01-01 08:03:43, 2026-01-01 08:46:14, 2026-01-01 09:35:37, 2026-01-01 10:33:51, 2026-01-01 11:42:17, 2026-01-01 12:34:02, 2026-01-01 13:46:45, 2026-01-01 14:28:35, 2026-01-01 15:36:11, 2026-01-01 16:31:31, 2026-01-01 17:35:42, 2026-01-01 18:31:47, 2026-01-01 21:27:59, 2026-01-01 23:11:11, 2026-01-01 23:53:18", "cumulative_total": 130 }, "geometry": { "type": "Polygon", "coordinates": [ [ [ -74.21491499445645, 45.429641576084606 ], [ -74.22127056595717, 45.432283523448092 ], [ -74.221199088956581, 45.437479910241592 ], [ -74.214770867419318, 45.440034333901295 ], [ -74.208414738901041, 45.437392024601941 ], [ -74.20848738893099, 45.432195653643177 ], [ -74.21491499445645, 45.429641576084606 ] ] ] } },
{ "type": "Feature", "properties": { "hex_id": 512863, "centroid_lon": -74.21462666169684, "centroid_lat": 45.450427072368328, "occurrences_today": 22, "datetimes_today": "2026-01-01 00:42:56, 2026-01-01 01:50:42, 2026-01-01 02:34:19, 2026-01-01 03:45:12, 2026-01-01 04:38:37, 2026-01-01 05:38:47, 2026-01-01 06:29:59, 2026-01-01 08:03:43, 2026-01-01 08:46:14, 2026-01-01 09:35:37, 2026-01-01 10:33:51, 2026-01-01 11:42:17, 2026-01-01 12:34:02, 2026-01-01 13:46:45, 2026-01-01 14:28:35, 2026-01-01 15:36:11, 2026-01-01 16:31:31, 2026-01-01 17:35:42, 2026-01-01 18:31:47, 2026-01-01 21:27:59, 2026-01-01 23:11:11, 2026-01-01 23:53:18", "cumulative_total": 121 }, "geometry": { "type": "Polygon", "coordinates": [ [ [ -74.21469877439705, 45.445230705553513 ], [ -74.221056076424844, 45.447872669320631 ], [ -74.220984540880636, 45.453069041606163 ], [ -74.214554529312124, 45.455623434345675 ], [ -74.208196669816161, 45.452981108445044 ], [ -74.208269379350256, 45.447784752002889 ], [ -74.21469877439705, 45.445230705553513 ] ] ] } },
{ "type": "Feature", "properties": { "hex_id": 535479, "centroid_lon": -73.970243459961594, "centroid_lat": 45.877211100908298, "occurrences_today": 22, "datetimes_today": "2026-01-01 00:42:56, 2026-01-01 01:50:42, 2026-01-01 02:34:19, 2026-01-01 03:45:12, 2026-01-01 04:38:37, 2026-01-01 05:38:47, 2026-01-01 06:29:59, 2026-01-01 08:03:43, 2026-01-01 08:46:14, 2026-01-01 09:35:37, 2026-01-01 10:33:51, 2026-01-01 11:42:17, 2026-01-01 12:34:02, 2026-01-01 13:46:45, 2026-01-01 14:28:35, 2026-01-01 15:36:11, 2026-01-01 16:31:31, 2026-01-01 17:35:42, 2026-01-01 18:31:47, 2026-01-01 21:27:59, 2026-01-01 23:11:11, 2026-01-01 23:53:18", "cumulative_total": 126 }, "geometry": { "type": "Polygon", "coordinates": [ [ [ -73.97033942675634, 45.872015475550832 ], [ -73.976733129523424, 45.874671159869791 ], [ -73.976637749742494, 45.879866793207569 ], [ -73.97014746683584, 45.882406721364426 ], [ -73.963753203390382, 45.879750667153964 ], [ -73.963849783521042, 45.874555054743567 ], [ -73.97033942675634, 45.872015475550832 ] ] ] } },
{ "type": "Feature", "properties": { "hex_id": 536089, "centroid_lon": -73.963946337160607, "centroid_lat": 45.869359437429857, "occurrences_today": 22, "datetimes_today": "2026-01-01 00:42:56, 2026-01-01 01:50:42, 2026-01-01 02:34:19, 2026-01-01 03:45:12, 2026-01-01 04:38:37, 2026-01-01 05:38:47, 2026-01-01 06:29:59, 2026-01-01 08:03:43, 2026-01-01 08:46:14, 2026-01-01 09:35:37, 2026-01-01 10:33:51, 2026-01-01 11:42:17, 2026-01-01 12:34:02, 2026-01-01 13:46:45, 2026-01-01 14:28:35, 2026-01-01 15:36:11, 2026-01-01 16:31:31, 2026-01-01 17:35:42, 2026-01-01 18:31:47, 2026-01-01 21:27:59, 2026-01-01 23:11:11, 2026-01-01 23:53:18", "cumulative_total": 126 }, "geometry": { "type": "Polygon", "coordinates": [ [ [ -73.964042864318088, 45.864163815212905 ], [ -73.97043536722903, 45.866819845292014 ], [ -73.97033942675634, 45.872015475550832 ], [ -73.963849783521042, 45.874555054743567 ], [ -73.957456720411912, 45.871898654812931 ], [ -73.957553860727288, 45.866703045606485 ], [ -73.964042864318088, 45.864163815212905 ] ] ] } },
{ "type": "Feature", "properties": { "hex_id": 742505, "centroid_lon": -71.727075931491214, "centroid_lat": 46.871640176637761, "occurrences_today": 22, "datetimes_today": "2026-01-01 00:42:56, 2026-01-01 01:50:42, 2026-01-01 02:34:19, 2026-01-01 03:45:12, 2026-01-01 04:38:37, 2026-01-01 05:38:47, 2026-01-01 06:29:59, 2026-01-01 08:03:43, 2026-01-01 08:46:14, 2026-01-01 09:35:37, 2026-01-01 10:33:51, 2026-01-01 11:42:17, 2026-01-01 12:34:02, 2026-01-01 13:46:45, 2026-01-01 14:28:35, 2026-01-01 15:36:11, 2026-01-01 16:31:31, 2026-01-01 17:35:42, 2026-01-01 18:31:47, 2026-01-01 21:27:59, 2026-01-01 23:11:11, 2026-01-01 23:53:18", "cumulative_total": 103 }, "geometry": { "type": "Polygon", "coordinates": [ [ [ -71.727391561219747, 46.866453104539374 ], [ -71.733783795800008, 46.869233919092402 ], [ -71.733468751315655, 46.874421021771191 ], [ -71.726760214166092, 46.876827242382085 ], [ -71.72036748195346, 46.874046024558915 ], [ -71.720683784492337, 46.868858989462076 ], [ -71.727391561219747, 46.866453104539374 ] ] ] } },
{ "type": "Feature", "properties": { "hex_id": 743115, "centroid_lon": -71.720999999276117, "centroid_lat": 46.863671948004949, "occurrences_today": 22, "datetimes_today": "2026-01-01 00:42:56, 2026-01-01 01:50:42, 2026-01-01 02:34:19, 2026-01-01 03:45:12, 2026-01-01 04:38:37, 2026-01-01 05:38:47, 2026-01-01 06:29:59, 2026-01-01 08:03:43, 2026-01-01 08:46:14, 2026-01-01 09:35:37, 2026-01-01 10:33:51, 2026-01-01 11:42:17, 2026-01-01 12:34:02, 2026-01-01 13:46:45, 2026-01-01 14:28:35, 2026-01-01 15:36:11, 2026-01-01 16:31:31, 2026-01-01 17:35:42, 2026-01-01 18:31:47, 2026-01-01 21:27:59, 2026-01-01 23:11:11, 2026-01-01 23:53:18", "cumulative_total": 186 }, "geometry": { "type": "Polygon", "coordinates": [ [ [ -71.721316126335253, 46.858484900188124 ], [ -71.727707103382087, 46.861266026087428 ], [ -71.727391561219747, 46.866453104539374 ], [ -71.720683784492337, 46.868858989462076 ], [ -71.714292310288599, 46.866077460349771 ], [ -71.714609109938706, 46.860890449594812 ], [ -71.721316126335253, 46.858484900188124 ] ] ] } }
]
}
