{
"type": "FeatureCollection",
"name": "daily_2026-02-20",
"crs": { "type": "name", "properties": { "name": "urn:ogc:def:crs:OGC:1.3:CRS84" } },
"features": [
{ "type": "Feature", "properties": { "hex_id": 761312, "centroid_lon": -71.637554749214715, "centroid_lat": 45.021619347333839, "occurrences_today": 5, "datetimes_today": "2026-02-20 06:46:22, 2026-02-20 07:01:40, 2026-02-20 07:16:41, 2026-02-20 07:31:42, 2026-02-20 07:46:42", "cumulative_total": 21 }, "geometry": { "type": "Polygon", "coordinates": [ [ [ -71.637858744413165, 45.016431061046006 ], [ -71.644041892515475, 45.01921175271216 ], [ -71.643738426336469, 45.0244000693869 ], [ -71.637250671586486, 45.026807627273364 ], [ -71.63106707690811, 45.024026555931847 ], [ -71.631371683528528, 45.018838306441971 ], [ -71.637858744413165, 45.016431061046006 ] ] ] } },
{ "type": "Feature", "properties": { "hex_id": 554990, "centroid_lon": -73.772661631732859, "centroid_lat": 45.485509292593896, "occurrences_today": 2, "datetimes_today": "2026-02-20 07:31:42, 2026-02-20 07:46:42", "cumulative_total": 42 }, "geometry": { "type": "Polygon", "coordinates": [ [ [ -73.772774458305392, 45.480313662971909 ], [ -73.77911450773567, 45.482980033415892 ], [ -73.779002253523885, 45.48817567290785 ], [ -73.77254877435341, 45.490704917250518 ], [ -73.766208183374474, 45.488038180014428 ], [ -73.766321613104338, 45.482842565292273 ], [ -73.772774458305392, 45.480313662971909 ] ] ] } },
{ "type": "Feature", "properties": { "hex_id": 556211, "centroid_lon": -73.759868195713224, "centroid_lat": 45.48537109582692, "occurrences_today": 2, "datetimes_today": "2026-02-20 07:31:42, 2026-02-20 07:46:42", "cumulative_total": 19 }, "geometry": { "type": "Polygon", "coordinates": [ [ [ -73.759982197627963, 45.480175491101463 ], [ -73.766321613104338, 45.482842565292273 ], [ -73.766208183374474, 45.488038180014428 ], [ -73.759754162670859, 45.490566695582473 ], [ -73.753414206142466, 45.487899254480794 ], [ -73.753528811359274, 45.48270366478642 ], [ -73.759982197627963, 45.480175491101463 ] ] ] } },
{ "type": "Feature", "properties": { "hex_id": 725903, "centroid_lon": -72.005107575004132, "centroid_lat": 45.03185985555146, "occurrences_today": 8, "datetimes_today": "2026-02-20 00:17:11, 2026-02-20 00:32:13, 2026-02-20 00:47:02, 2026-02-20 01:02:01, 2026-02-20 01:31:31, 2026-02-20 01:46:34, 2026-02-20 02:01:52, 2026-02-20 02:13:54", "cumulative_total": 93 }, "geometry": { "type": "Polygon", "coordinates": [ [ [ -72.005378468734605, 45.026669726948015 ], [ -72.011581553884255, 45.029430977589961 ], [ -72.011311194763493, 45.03462113309245 ], [ -72.00483660778464, 45.037049978136196 ], [ -71.998633061526462, 45.034288350724964 ], [ -71.998904563331351, 45.029098255102198 ], [ -72.005378468734605, 45.026669726948015 ] ] ] } },
{ "type": "Feature", "properties": { "hex_id": 726513, "centroid_lon": -71.999175991504998, "centroid_lat": 45.023908153455587, "occurrences_today": 8, "datetimes_today": "2026-02-20 00:17:11, 2026-02-20 00:32:13, 2026-02-20 00:47:02, 2026-02-20 01:02:01, 2026-02-20 01:31:31, 2026-02-20 01:46:34, 2026-02-20 02:01:52, 2026-02-20 02:13:54", "cumulative_total": 77 }, "geometry": { "type": "Polygon", "coordinates": [ [ [ -71.999447346071761, 45.018718045785576 ], [ -72.00564928900036, 45.021479592326308 ], [ -72.005378468734605, 45.026669726948015 ], [ -71.998904563331351, 45.029098255102198 ], [ -71.992702159720821, 45.026336331843375 ], [ -71.992974122171134, 45.021146257211399 ], [ -71.999447346071761, 45.018718045785576 ] ] ] } },
{ "type": "Feature", "properties": { "hex_id": 726514, "centroid_lon": -71.998361486065946, "centroid_lat": 45.039478440323407, "occurrences_today": 8, "datetimes_today": "2026-02-20 00:17:11, 2026-02-20 00:32:13, 2026-02-20 00:47:02, 2026-02-20 01:02:01, 2026-02-20 01:31:31, 2026-02-20 01:46:34, 2026-02-20 02:01:52, 2026-02-20 02:13:54", "cumulative_total": 77 }, "geometry": { "type": "Polygon", "coordinates": [ [ [ -71.998633061526462, 45.034288350724964 ], [ -72.00483660778464, 45.037049978136196 ], [ -72.004565567051799, 45.042240094701768 ], [ -71.998089836925459, 45.044668523897109 ], [ -71.991885829631769, 45.041906519563547 ], [ -71.992158013475546, 45.036716463019914 ], [ -71.998633061526462, 45.034288350724964 ] ] ] } },
{ "type": "Feature", "properties": { "hex_id": 727123, "centroid_lon": -71.993246010872426, "centroid_lat": 45.015956176550858, "occurrences_today": 8, "datetimes_today": "2026-02-20 00:17:11, 2026-02-20 00:32:13, 2026-02-20 00:47:02, 2026-02-20 01:02:01, 2026-02-20 01:31:31, 2026-02-20 01:46:34, 2026-02-20 02:01:52, 2026-02-20 02:13:54", "cumulative_total": 77 }, "geometry": { "type": "Polygon", "coordinates": [ [ [ -71.993517825849068, 45.010766089862258 ], [ -71.999718627055955, 45.013527932092629 ], [ -71.999447346071761, 45.018718045785576 ], [ -71.992974122171134, 45.021146257211399 ], [ -71.986772860708626, 45.018384038314132 ], [ -71.987045283377995, 45.013193984720843 ], [ -71.993517825849068, 45.010766089862258 ] ] ] } },
{ "type": "Feature", "properties": { "hex_id": 727124, "centroid_lon": -71.992430123497101, "centroid_lat": 45.031526400446374, "occurrences_today": 8, "datetimes_today": "2026-02-20 00:17:11, 2026-02-20 00:32:13, 2026-02-20 00:47:02, 2026-02-20 01:02:01, 2026-02-20 01:31:31, 2026-02-20 01:46:34, 2026-02-20 02:01:52, 2026-02-20 02:13:54", "cumulative_total": 77 }, "geometry": { "type": "Polygon", "coordinates": [ [ [ -71.992702159720821, 45.026336331843375 ], [ -71.998904563331351, 45.029098255102198 ], [ -71.998633061526462, 45.034288350724964 ], [ -71.992158013475546, 45.036716463019914 ], [ -71.985955149256228, 45.033954162890034 ], [ -71.986227793672185, 45.028764127399178 ], [ -71.992702159720821, 45.026336331843375 ] ] ] } },
{ "type": "Feature", "properties": { "hex_id": 727734, "centroid_lon": -71.986500364148171, "centroid_lat": 45.02357408587374, "occurrences_today": 8, "datetimes_today": "2026-02-20 00:17:11, 2026-02-20 00:32:13, 2026-02-20 00:47:02, 2026-02-20 01:02:01, 2026-02-20 01:31:31, 2026-02-20 01:46:34, 2026-02-20 02:01:52, 2026-02-20 02:13:54", "cumulative_total": 77 }, "geometry": { "type": "Polygon", "coordinates": [ [ [ -71.986772860708626, 45.018384038314132 ], [ -71.992974122171134, 45.021146257211399 ], [ -71.992702159720821, 45.026336331843375 ], [ -71.986227793672185, 45.028764127399178 ], [ -71.980026072027272, 45.026001531682141 ], [ -71.980299176588957, 45.020811517291996 ], [ -71.986772860708626, 45.018384038314132 ] ] ] } },
{ "type": "Feature", "properties": { "hex_id": 727735, "centroid_lon": -71.985682430875826, "centroid_lat": 45.039144192345795, "occurrences_today": 8, "datetimes_today": "2026-02-20 00:17:11, 2026-02-20 00:32:13, 2026-02-20 00:47:02, 2026-02-20 01:02:01, 2026-02-20 01:31:31, 2026-02-20 01:46:34, 2026-02-20 02:01:52, 2026-02-20 02:13:54", "cumulative_total": 77 }, "geometry": { "type": "Polygon", "coordinates": [ [ [ -71.985955149256228, 45.033954162890034 ], [ -71.992158013475546, 45.036716463019914 ], [ -71.991885829631769, 45.041906519563547 ], [ -71.985409638506511, 45.044334215766035 ], [ -71.979206313751718, 45.041571538612082 ], [ -71.979479640633159, 45.036381542342653 ], [ -71.985955149256228, 45.033954162890034 ] ] ] } },
{ "type": "Feature", "properties": { "hex_id": 728344, "centroid_lon": -71.980572207093061, "centroid_lat": 45.015621496862522, "occurrences_today": 8, "datetimes_today": "2026-02-20 00:17:11, 2026-02-20 00:32:13, 2026-02-20 00:47:02, 2026-02-20 01:02:01, 2026-02-20 01:31:31, 2026-02-20 01:46:34, 2026-02-20 02:01:52, 2026-02-20 02:13:54", "cumulative_total": 77 }, "geometry": { "type": "Polygon", "coordinates": [ [ [ -71.980845163564055, 45.010431470394209 ], [ -71.987045283377995, 45.013193984720843 ], [ -71.986772860708626, 45.018384038314132 ], [ -71.980299176588957, 45.020811517291996 ], [ -71.974098597018738, 45.018048626196865 ], [ -71.974372161299996, 45.012858632955272 ], [ -71.980845163564055, 45.010431470394209 ] ] ] } },
{ "type": "Feature", "properties": { "hex_id": 728345, "centroid_lon": -71.97975289338352, "centroid_lat": 45.031191540032516, "occurrences_today": 8, "datetimes_today": "2026-02-20 00:17:11, 2026-02-20 00:32:13, 2026-02-20 00:47:02, 2026-02-20 01:02:01, 2026-02-20 01:31:31, 2026-02-20 01:46:34, 2026-02-20 02:01:52, 2026-02-20 02:13:54", "cumulative_total": 77 }, "geometry": { "type": "Polygon", "coordinates": [ [ [ -71.980026072027272, 45.026001531682141 ], [ -71.986227793672185, 45.028764127399178 ], [ -71.985955149256228, 45.033954162890034 ], [ -71.979479640633159, 45.036381542342653 ], [ -71.973277458879309, 45.03361856965288 ], [ -71.973551245832937, 45.028428594546128 ], [ -71.980026072027272, 45.026001531682141 ] ] ] } },
{ "type": "Feature", "properties": { "hex_id": 728346, "centroid_lon": -71.978932912714626, "centroid_lat": 45.046761528840356, "occurrences_today": 8, "datetimes_today": "2026-02-20 00:17:11, 2026-02-20 00:32:13, 2026-02-20 00:47:02, 2026-02-20 01:02:01, 2026-02-20 01:31:31, 2026-02-20 01:46:34, 2026-02-20 02:01:52, 2026-02-20 02:13:54", "cumulative_total": 77 }, "geometry": { "type": "Polygon", "coordinates": [ [ [ -71.979206313751718, 45.041571538612082 ], [ -71.985409638506511, 45.044334215766035 ], [ -71.985136772123795, 45.049524233150279 ], [ -71.97865943749737, 45.051951513026999 ], [ -71.972455652280658, 45.049188458695959 ], [ -71.972729662127747, 45.043998501728254 ], [ -71.979206313751718, 45.041571538612082 ] ] ] } },
{ "type": "Feature", "properties": { "hex_id": 728955, "centroid_lon": -71.973824958537904, "centroid_lat": 45.023238613393971, "occurrences_today": 8, "datetimes_today": "2026-02-20 00:17:11, 2026-02-20 00:32:13, 2026-02-20 00:47:02, 2026-02-20 01:02:01, 2026-02-20 01:31:31, 2026-02-20 01:46:34, 2026-02-20 02:01:52, 2026-02-20 02:13:54", "cumulative_total": 77 }, "geometry": { "type": "Polygon", "coordinates": [ [ [ -71.974098597018738, 45.018048626196865 ], [ -71.980299176588957, 45.020811517291996 ], [ -71.980026072027272, 45.026001531682141 ], [ -71.973551245832937, 45.028428594546128 ], [ -71.967350206579965, 45.025665326529626 ], [ -71.967624453179539, 45.02047537263342 ], [ -71.974098597018738, 45.018048626196865 ] ] ] } },
{ "type": "Feature", "properties": { "hex_id": 728956, "centroid_lon": -71.973003597652436, "centroid_lat": 45.038808538713738, "occurrences_today": 8, "datetimes_today": "2026-02-20 00:17:11, 2026-02-20 00:32:13, 2026-02-20 00:47:02, 2026-02-20 01:02:01, 2026-02-20 01:31:31, 2026-02-20 01:46:34, 2026-02-20 02:01:52, 2026-02-20 02:13:54", "cumulative_total": 77 }, "geometry": { "type": "Polygon", "coordinates": [ [ [ -71.973277458879309, 45.03361856965288 ], [ -71.979479640633159, 45.036381542342653 ], [ -71.979206313751718, 45.041571538612082 ], [ -71.972729662127747, 45.043998501728254 ], [ -71.96652702033856, 45.04123515191278 ], [ -71.966801490184096, 45.036045216169768 ], [ -71.973277458879309, 45.03361856965288 ] ] ] } },
{ "type": "Feature", "properties": { "hex_id": 728957, "centroid_lon": -71.972181568086583, "centroid_lat": 45.054378409616383, "occurrences_today": 8, "datetimes_today": "2026-02-20 00:17:11, 2026-02-20 00:32:13, 2026-02-20 00:47:02, 2026-02-20 01:02:01, 2026-02-20 01:31:31, 2026-02-20 01:46:34, 2026-02-20 02:01:52, 2026-02-20 02:13:54", "cumulative_total": 77 }, "geometry": { "type": "Polygon", "coordinates": [ [ [ -71.972455652280658, 45.049188458695959 ], [ -71.97865943749737, 45.051951513026999 ], [ -71.97838588807538, 45.057141491171556 ], [ -71.971907409520895, 45.059568354489073 ], [ -71.965703163916004, 45.056804922827915 ], [ -71.965977857229163, 45.051615005242304 ], [ -71.972455652280658, 45.049188458695959 ] ] ] } },
{ "type": "Feature", "properties": { "hex_id": 729565, "centroid_lon": -71.967898625412985, "centroid_lat": 45.015285412687064, "occurrences_today": 8, "datetimes_today": "2026-02-20 00:17:11, 2026-02-20 00:32:13, 2026-02-20 00:47:02, 2026-02-20 01:02:01, 2026-02-20 01:31:31, 2026-02-20 01:46:34, 2026-02-20 02:01:52, 2026-02-20 02:13:54", "cumulative_total": 77 }, "geometry": { "type": "Polygon", "coordinates": [ [ [ -71.968172723304932, 45.010095446691047 ], [ -71.974372161299996, 45.012858632955272 ], [ -71.974098597018738, 45.018048626196865 ], [ -71.967624453179539, 45.02047537263342 ], [ -71.961424555927593, 45.017711809499183 ], [ -71.961699261747142, 45.012521876861307 ], [ -71.968172723304932, 45.010095446691047 ] ] ] } },
{ "type": "Feature", "properties": { "hex_id": 729566, "centroid_lon": -71.967075885589693, "centroid_lat": 45.030855274375234, "occurrences_today": 8, "datetimes_today": "2026-02-20 00:17:11, 2026-02-20 00:32:13, 2026-02-20 00:47:02, 2026-02-20 01:02:01, 2026-02-20 01:31:31, 2026-02-20 01:46:34, 2026-02-20 02:01:52, 2026-02-20 02:13:54", "cumulative_total": 77 }, "geometry": { "type": "Polygon", "coordinates": [ [ [ -71.967350206579965, 45.025665326529626 ], [ -71.973551245832937, 45.028428594546128 ], [ -71.973277458879309, 45.03361856965288 ], [ -71.966801490184096, 45.036045216169768 ], [ -71.960599991322098, 45.033281571078973 ], [ -71.960874920739712, 45.028091656608481 ], [ -71.967350206579965, 45.025665326529626 ] ] ] } },
{ "type": "Feature", "properties": { "hex_id": 729567, "centroid_lon": -71.966252476028473, "centroid_lat": 45.046425081603779, "occurrences_today": 8, "datetimes_today": "2026-02-20 00:17:11, 2026-02-20 00:32:13, 2026-02-20 00:47:02, 2026-02-20 01:02:01, 2026-02-20 01:31:31, 2026-02-20 01:46:34, 2026-02-20 02:01:52, 2026-02-20 02:13:54", "cumulative_total": 77 }, "geometry": { "type": "Polygon", "coordinates": [ [ [ -71.96652702033856, 45.04123515191278 ], [ -71.972729662127747, 45.043998501728254 ], [ -71.972455652280658, 45.049188458695959 ], [ -71.965977857229163, 45.051615005242304 ], [ -71.959774755478506, 45.048851278148135 ], [ -71.960049908716172, 45.043661381849276 ], [ -71.96652702033856, 45.04123515191278 ] ] ] } },
{ "type": "Feature", "properties": { "hex_id": 729568, "centroid_lon": -71.965428396064297, "centroid_lat": 45.061994834360114, "occurrences_today": 8, "datetimes_today": "2026-02-20 00:17:11, 2026-02-20 00:32:13, 2026-02-20 00:47:02, 2026-02-20 01:02:01, 2026-02-20 01:31:31, 2026-02-20 01:46:34, 2026-02-20 02:01:52, 2026-02-20 02:13:54", "cumulative_total": 77 }, "geometry": { "type": "Polygon", "coordinates": [ [ [ -71.965703163916004, 45.056804922827915 ], [ -71.971907409520895, 45.059568354489073 ], [ -71.971633176558967, 45.06475829331356 ], [ -71.965153553649387, 45.067184739838432 ], [ -71.958948847730269, 45.064420930694034 ], [ -71.95922422501026, 45.059231052571 ], [ -71.965703163916004, 45.056804922827915 ] ] ] } },
{ "type": "Feature", "properties": { "hex_id": 730176, "centroid_lon": -71.961149775599992, "centroid_lat": 45.022901736081728, "occurrences_today": 8, "datetimes_today": "2026-02-20 00:17:11, 2026-02-20 00:32:13, 2026-02-20 00:47:02, 2026-02-20 01:02:01, 2026-02-20 01:31:31, 2026-02-20 01:46:34, 2026-02-20 02:01:52, 2026-02-20 02:13:54", "cumulative_total": 77 }, "geometry": { "type": "Polygon", "coordinates": [ [ [ -71.961424555927593, 45.017711809499183 ], [ -71.967624453179539, 45.02047537263342 ], [ -71.967350206579965, 45.025665326529626 ], [ -71.960874920739712, 45.028091656608481 ], [ -71.954674564304753, 45.025327716451407 ], [ -71.954949952868418, 45.020137823301219 ], [ -71.961424555927593, 45.017711809499183 ] ] ] } },
{ "type": "Feature", "properties": { "hex_id": 730177, "centroid_lon": -71.960324987322466, "centroid_lat": 45.038471479492728, "occurrences_today": 8, "datetimes_today": "2026-02-20 00:17:11, 2026-02-20 00:32:13, 2026-02-20 00:47:02, 2026-02-20 01:02:01, 2026-02-20 01:31:31, 2026-02-20 01:46:34, 2026-02-20 02:01:52, 2026-02-20 02:13:54", "cumulative_total": 77 }, "geometry": { "type": "Polygon", "coordinates": [ [ [ -71.960599991322098, 45.033281571078973 ], [ -71.966801490184096, 45.036045216169768 ], [ -71.96652702033856, 45.04123515191278 ], [ -71.960049908716172, 45.043661381849276 ], [ -71.953847950319087, 45.04089735953125 ], [ -71.954123563054807, 45.035707484566899 ], [ -71.960599991322098, 45.033281571078973 ] ] ] } },
{ "type": "Feature", "properties": { "hex_id": 730178, "centroid_lon": -71.959499527584782, "centroid_lat": 45.054041168388878, "occurrences_today": 8, "datetimes_today": "2026-02-20 00:17:11, 2026-02-20 00:32:13, 2026-02-20 00:47:02, 2026-02-20 01:02:01, 2026-02-20 01:31:31, 2026-02-20 01:46:34, 2026-02-20 02:01:52, 2026-02-20 02:13:54", "cumulative_total": 77 }, "geometry": { "type": "Polygon", "coordinates": [ [ [ -71.959774755478506, 45.048851278148135 ], [ -71.965977857229163, 45.051615005242304 ], [ -71.965703163916004, 45.056804922827915 ], [ -71.95922422501026, 45.059231052571 ], [ -71.953020663372186, 45.056466948045149 ], [ -71.953296500502532, 45.051277091270855 ], [ -71.959774755478506, 45.048851278148135 ] ] ] } },
{ "type": "Feature", "properties": { "hex_id": 578810, "centroid_lon": -73.518912648971465, "centroid_lat": 45.646199082531211, "occurrences_today": 28, "datetimes_today": "2026-02-20 00:17:11, 2026-02-20 00:32:13, 2026-02-20 00:47:02, 2026-02-20 01:02:01, 2026-02-20 01:31:31, 2026-02-20 01:46:34, 2026-02-20 02:01:52, 2026-02-20 02:13:54, 2026-02-20 02:31:32, 2026-02-20 02:46:54, 2026-02-20 03:16:26, 2026-02-20 03:31:52, 2026-02-20 03:46:28, 2026-02-20 03:58:50, 2026-02-20 04:16:26, 2026-02-20 04:31:37, 2026-02-20 04:46:58, 2026-02-20 04:57:06, 2026-02-20 05:16:40, 2026-02-20 05:31:55, 2026-02-20 05:46:29, 2026-02-20 05:57:21, 2026-02-20 06:16:21, 2026-02-20 06:31:47, 2026-02-20 06:46:22, 2026-02-20 07:01:40, 2026-02-20 07:16:41, 2026-02-20 07:31:42", "cumulative_total": 91 }, "geometry": { "type": "Polygon", "coordinates": [ [ [ -73.519049562060502, 45.641004144417828 ], [ -73.525395160331556, 45.643684601911673 ], [ -73.525258821022049, 45.648879552445365 ], [ -73.51877569842992, 45.651394015579307 ], [ -73.512429563838126, 45.64871318687802 ], [ -73.512567088146582, 45.643518266315013 ], [ -73.519049562060502, 45.641004144417828 ] ] ] } },
{ "type": "Feature", "properties": { "hex_id": 558650, "centroid_lon": -73.735327634920537, "centroid_lat": 45.438330238159857, "occurrences_today": 3, "datetimes_today": "2026-02-20 07:16:41, 2026-02-20 07:31:42, 2026-02-20 07:46:42", "cumulative_total": 73 }, "geometry": { "type": "Polygon", "coordinates": [ [ [ -73.735443701982788, 45.433134639192041 ], [ -73.74177670863034, 45.43580302830091 ], [ -73.741661212007628, 45.440998637498197 ], [ -73.73521153618492, 45.443525832149156 ], [ -73.728877990776496, 45.440857076492676 ], [ -73.728994659941037, 45.435661492797237 ], [ -73.735443701982788, 45.433134639192041 ] ] ] } },
{ "type": "Feature", "properties": { "hex_id": 765077, "centroid_lon": -71.501422737897812, "centroid_lat": 46.60774344322747, "occurrences_today": 3, "datetimes_today": "2026-02-20 00:17:11, 2026-02-20 00:32:13, 2026-02-20 00:47:02", "cumulative_total": 49 }, "geometry": { "type": "Polygon", "coordinates": [ [ [ -71.501757009006056, 46.602557341269907 ], [ -71.508106527667309, 46.605349724638018 ], [ -71.50777283000923, 46.610535859213556 ], [ -71.501088374367697, 46.6129295386148 ], [ -71.494738374694094, 46.610136753667803 ], [ -71.495073311642514, 46.604950690964777 ], [ -71.501757009006056, 46.602557341269907 ] ] ] } },
{ "type": "Feature", "properties": { "hex_id": 565371, "centroid_lon": -73.662998279253486, "centroid_lat": 45.523254374948849, "occurrences_today": 8, "datetimes_today": "2026-02-20 05:16:40, 2026-02-20 05:31:55, 2026-02-20 05:46:29, 2026-02-20 05:57:21, 2026-02-20 06:16:21, 2026-02-20 06:31:47, 2026-02-20 06:46:22, 2026-02-20 07:01:40", "cumulative_total": 40 }, "geometry": { "type": "Polygon", "coordinates": [ [ [ -73.663121346983118, 45.518059002711361 ], [ -73.669460278214558, 45.520731432601671 ], [ -73.669337782507284, 45.525926815803494 ], [ -73.662875177906784, 45.528449742180342 ], [ -73.656535708275698, 45.525776943990188 ], [ -73.65665938163346, 45.520581587787582 ], [ -73.663121346983118, 45.518059002711361 ] ] ] } },
{ "type": "Feature", "properties": { "hex_id": 500075, "centroid_lon": -74.342987810876934, "centroid_lat": 45.957908881539588, "occurrences_today": 18, "datetimes_today": "2026-02-20 00:17:11, 2026-02-20 00:32:13, 2026-02-20 00:47:02, 2026-02-20 01:02:01, 2026-02-20 01:31:31, 2026-02-20 01:46:34, 2026-02-20 02:01:52, 2026-02-20 02:13:54, 2026-02-20 02:31:32, 2026-02-20 02:46:54, 2026-02-20 03:16:26, 2026-02-20 03:31:52, 2026-02-20 03:46:28, 2026-02-20 03:58:50, 2026-02-20 04:16:26, 2026-02-20 04:31:37, 2026-02-20 04:46:58, 2026-02-20 04:57:06", "cumulative_total": 25 }, "geometry": { "type": "Polygon", "coordinates": [ [ [ -74.343049214715407, 45.952712831539415 ], [ -74.34947015649719, 45.955347765339894 ], [ -74.34940934719836, 45.960543819589084 ], [ -74.34292639017211, 45.963104926730423 ], [ -74.336504870719878, 45.960469625625414 ], [ -74.336566885958632, 45.955273584749236 ], [ -74.343049214715407, 45.952712831539415 ] ] ] } },
{ "type": "Feature", "properties": { "hex_id": 500686, "centroid_lon": -74.336442838446331, "centroid_lat": 45.965665661691027, "occurrences_today": 20, "datetimes_today": "2026-02-20 00:17:11, 2026-02-20 00:32:13, 2026-02-20 00:47:02, 2026-02-20 01:02:01, 2026-02-20 01:31:31, 2026-02-20 01:46:34, 2026-02-20 02:01:52, 2026-02-20 02:13:54, 2026-02-20 02:31:32, 2026-02-20 02:46:54, 2026-02-20 03:16:26, 2026-02-20 03:31:52, 2026-02-20 03:46:28, 2026-02-20 03:58:50, 2026-02-20 04:16:26, 2026-02-20 04:31:37, 2026-02-20 04:46:58, 2026-02-20 04:57:06, 2026-02-20 05:16:40, 2026-02-20 05:31:55", "cumulative_total": 42 }, "geometry": { "type": "Polygon", "coordinates": [ [ [ -74.336504870719878, 45.960469625625414 ], [ -74.34292639017211, 45.963104926730423 ], [ -74.342864952595221, 45.968300967111958 ], [ -74.336380789132193, 45.970861692946094 ], [ -74.329958692026793, 45.968226024373372 ], [ -74.330021336031805, 45.963029997499881 ], [ -74.336504870719878, 45.960469625625414 ] ] ] } },
{ "type": "Feature", "properties": { "hex_id": 501907, "centroid_lon": -74.323537206818514, "centroid_lat": 45.965589997065422, "occurrences_today": 20, "datetimes_today": "2026-02-20 00:17:11, 2026-02-20 00:32:13, 2026-02-20 00:47:02, 2026-02-20 01:02:01, 2026-02-20 01:31:31, 2026-02-20 01:46:34, 2026-02-20 02:01:52, 2026-02-20 02:13:54, 2026-02-20 02:31:32, 2026-02-20 02:46:54, 2026-02-20 03:16:26, 2026-02-20 03:31:52, 2026-02-20 03:46:28, 2026-02-20 03:58:50, 2026-02-20 04:16:26, 2026-02-20 04:31:37, 2026-02-20 04:46:58, 2026-02-20 04:57:06, 2026-02-20 05:16:40, 2026-02-20 05:31:55", "cumulative_total": 42 }, "geometry": { "type": "Polygon", "coordinates": [ [ [ -74.323600445345818, 45.960393974637917 ], [ -74.330021336031805, 45.963029997499881 ], [ -74.329958692026793, 45.968226024373372 ], [ -74.323473950919322, 45.970786014679845 ], [ -74.317052483085888, 45.968149624224537 ], [ -74.31711633350146, 45.96295361112174 ], [ -74.323600445345818, 45.960393974637917 ] ] ] } },
{ "type": "Feature", "properties": { "hex_id": 502517, "centroid_lon": -74.317180166382485, "centroid_lat": 45.95775759320459, "occurrences_today": 20, "datetimes_today": "2026-02-20 00:17:11, 2026-02-20 00:32:13, 2026-02-20 00:47:02, 2026-02-20 01:02:01, 2026-02-20 01:31:31, 2026-02-20 01:46:34, 2026-02-20 02:01:52, 2026-02-20 02:13:54, 2026-02-20 02:31:32, 2026-02-20 02:46:54, 2026-02-20 03:16:26, 2026-02-20 03:31:52, 2026-02-20 03:46:28, 2026-02-20 03:58:50, 2026-02-20 04:16:26, 2026-02-20 04:31:37, 2026-02-20 04:46:58, 2026-02-20 04:57:06, 2026-02-20 05:16:40, 2026-02-20 05:31:55", "cumulative_total": 37 }, "geometry": { "type": "Polygon", "coordinates": [ [ [ -74.317243981734904, 45.952561570473044 ], [ -74.32366366650713, 45.955197947397316 ], [ -74.323600445345818, 45.960393974637917 ], [ -74.31711633350146, 45.96295361112174 ], [ -74.310696072069732, 45.960316866641755 ], [ -74.31076049913591, 45.955120853299306 ], [ -74.317243981734904, 45.952561570473044 ] ] ] } },
{ "type": "Feature", "properties": { "hex_id": 503128, "centroid_lon": -74.310631627306364, "centroid_lat": 45.965512875168514, "occurrences_today": 20, "datetimes_today": "2026-02-20 00:17:11, 2026-02-20 00:32:13, 2026-02-20 00:47:02, 2026-02-20 01:02:01, 2026-02-20 01:31:31, 2026-02-20 01:46:34, 2026-02-20 02:01:52, 2026-02-20 02:13:54, 2026-02-20 02:31:32, 2026-02-20 02:46:54, 2026-02-20 03:16:26, 2026-02-20 03:31:52, 2026-02-20 03:46:28, 2026-02-20 03:58:50, 2026-02-20 04:16:26, 2026-02-20 04:31:37, 2026-02-20 04:46:58, 2026-02-20 04:57:06, 2026-02-20 05:16:40, 2026-02-20 05:31:55", "cumulative_total": 37 }, "geometry": { "type": "Polygon", "coordinates": [ [ [ -74.310696072069732, 45.960316866641755 ], [ -74.31711633350146, 45.96295361112174 ], [ -74.317052483085888, 45.968149624224537 ], [ -74.310567164839838, 45.970708878879627 ], [ -74.304146326766528, 45.968071766680765 ], [ -74.30421138357481, 45.962875767611315 ], [ -74.310696072069732, 45.960316866641755 ] ] ] } },
{ "type": "Feature", "properties": { "hex_id": 503738, "centroid_lon": -74.304276422517304, "centroid_lat": 45.957679763724911, "occurrences_today": 20, "datetimes_today": "2026-02-20 00:17:11, 2026-02-20 00:32:13, 2026-02-20 00:47:02, 2026-02-20 01:02:01, 2026-02-20 01:31:31, 2026-02-20 01:46:34, 2026-02-20 02:01:52, 2026-02-20 02:13:54, 2026-02-20 02:31:32, 2026-02-20 02:46:54, 2026-02-20 03:16:26, 2026-02-20 03:31:52, 2026-02-20 03:46:28, 2026-02-20 03:58:50, 2026-02-20 04:16:26, 2026-02-20 04:31:37, 2026-02-20 04:46:58, 2026-02-20 04:57:06, 2026-02-20 05:16:40, 2026-02-20 05:31:55", "cumulative_total": 37 }, "geometry": { "type": "Polygon", "coordinates": [ [ [ -74.304341443600066, 45.952483755021518 ], [ -74.31076049913591, 45.955120853299306 ], [ -74.310696072069732, 45.960316866641755 ], [ -74.30421138357481, 45.962875767611315 ], [ -74.297791751885157, 45.960238301652375 ], [ -74.297857384838167, 45.955042302470659 ], [ -74.304341443600066, 45.952483755021518 ] ] ] } },
{ "type": "Feature", "properties": { "hex_id": 504349, "centroid_lon": -74.297726100903802, "centroid_lat": 45.965434296015786, "occurrences_today": 20, "datetimes_today": "2026-02-20 00:17:11, 2026-02-20 00:32:13, 2026-02-20 00:47:02, 2026-02-20 01:02:01, 2026-02-20 01:31:31, 2026-02-20 01:46:34, 2026-02-20 02:01:52, 2026-02-20 02:13:54, 2026-02-20 02:31:32, 2026-02-20 02:46:54, 2026-02-20 03:16:26, 2026-02-20 03:31:52, 2026-02-20 03:46:28, 2026-02-20 03:58:50, 2026-02-20 04:16:26, 2026-02-20 04:31:37, 2026-02-20 04:46:58, 2026-02-20 04:57:06, 2026-02-20 05:16:40, 2026-02-20 05:31:55", "cumulative_total": 37 }, "geometry": { "type": "Polygon", "coordinates": [ [ [ -74.297791751885157, 45.960238301652375 ], [ -74.30421138357481, 45.962875767611315 ], [ -74.304146326766528, 45.968071766680765 ], [ -74.297660431887962, 45.970630285560901 ], [ -74.291240224062761, 45.967992451757667 ], [ -74.291306487245535, 45.96279646698423 ], [ -74.297791751885157, 45.960238301652375 ] ] ] } },
{ "type": "Feature", "properties": { "hex_id": 504959, "centroid_lon": -74.291372732231295, "centroid_lat": 45.957600477391161, "occurrences_today": 23, "datetimes_today": "2026-02-20 00:17:11, 2026-02-20 00:32:13, 2026-02-20 00:47:02, 2026-02-20 01:02:01, 2026-02-20 01:31:31, 2026-02-20 01:46:34, 2026-02-20 02:01:52, 2026-02-20 02:13:54, 2026-02-20 02:31:32, 2026-02-20 02:46:54, 2026-02-20 03:16:26, 2026-02-20 03:31:52, 2026-02-20 03:46:28, 2026-02-20 03:58:50, 2026-02-20 04:16:26, 2026-02-20 04:31:37, 2026-02-20 04:46:58, 2026-02-20 04:57:06, 2026-02-20 05:16:40, 2026-02-20 05:31:55, 2026-02-20 06:16:21, 2026-02-20 06:31:47, 2026-02-20 06:46:22", "cumulative_total": 40 }, "geometry": { "type": "Polygon", "coordinates": [ [ [ -74.291438959026209, 45.952404482978459 ], [ -74.297857384838167, 45.955042302470659 ], [ -74.297791751885157, 45.960238301652375 ], [ -74.291306487245535, 45.96279646698423 ], [ -74.284887485785617, 45.960158279685551 ], [ -74.284954324607099, 45.954962294927128 ], [ -74.291438959026209, 45.952404482978459 ] ] ] } },
{ "type": "Feature", "properties": { "hex_id": 506180, "centroid_lon": -74.27846909651781, "centroid_lat": 45.95751973421924, "occurrences_today": 20, "datetimes_today": "2026-02-20 00:17:11, 2026-02-20 00:32:13, 2026-02-20 00:47:02, 2026-02-20 01:02:01, 2026-02-20 01:31:31, 2026-02-20 01:46:34, 2026-02-20 02:01:52, 2026-02-20 02:13:54, 2026-02-20 02:31:32, 2026-02-20 02:46:54, 2026-02-20 03:16:26, 2026-02-20 03:31:52, 2026-02-20 03:46:28, 2026-02-20 03:58:50, 2026-02-20 04:16:26, 2026-02-20 04:31:37, 2026-02-20 04:46:58, 2026-02-20 04:57:06, 2026-02-20 05:16:40, 2026-02-20 05:31:55", "cumulative_total": 37 }, "geometry": { "type": "Polygon", "coordinates": [ [ [ -74.278536529006345, 45.952323754359753 ], [ -74.284954324607099, 45.954962294927128 ], [ -74.284887485785617, 45.960158279685551 ], [ -74.27840164550733, 45.962715709256365 ], [ -74.271983274764608, 45.960076800757307 ], [ -74.272051319435846, 45.954880830684758 ], [ -74.278536529006345, 45.952323754359753 ] ] ] } },
{ "type": "Feature", "properties": { "hex_id": 667377, "centroid_lon": -72.558907023156607, "centroid_lat": 46.323449420179045, "occurrences_today": 1, "datetimes_today": "2026-02-20 07:46:42", "cumulative_total": 24 }, "geometry": { "type": "Polygon", "coordinates": [ [ [ -72.559138028222421, 46.318258083819067 ], [ -72.56551155133721, 46.320992175548703 ], [ -72.565281127126894, 46.32618353404046 ], [ -72.558675954396548, 46.328640750913259 ], [ -72.552301914131391, 46.325906270464259 ], [ -72.552533563725163, 46.320714961927912 ], [ -72.559138028222421, 46.318258083819067 ] ] ] } },
{ "type": "Feature", "properties": { "hex_id": 562323, "centroid_lon": -73.693377416645788, "centroid_lat": 45.593762475376842, "occurrences_today": 1, "datetimes_today": "2026-02-20 07:46:42", "cumulative_total": 207 }, "geometry": { "type": "Polygon", "coordinates": [ [ [ -73.693497984459469, 45.588567103876883 ], [ -73.699846253144159, 45.591237918382923 ], [ -73.699726259896423, 45.596433300562502 ], [ -73.693256815869418, 45.59895784188209 ], [ -73.686908005587014, 45.596286658466937 ], [ -73.687029180918231, 45.591091302706012 ], [ -73.693497984459469, 45.588567103876883 ] ] ] } },
{ "type": "Feature", "properties": { "hex_id": 562933, "centroid_lon": -73.687150323130879, "centroid_lat": 45.585895941947967, "occurrences_today": 1, "datetimes_today": "2026-02-20 07:46:42", "cumulative_total": 107 }, "geometry": { "type": "Polygon", "coordinates": [ [ [ -73.687271432236116, 45.580700576192854 ], [ -73.693618519321561, 45.583371727382236 ], [ -73.693497984459469, 45.588567103876883 ], [ -73.687029180918231, 45.591091302706012 ], [ -73.680681552702637, 45.588419782648913 ], [ -73.68080326914729, 45.583224432695104 ], [ -73.687271432236116, 45.580700576192854 ] ] ] } },
{ "type": "Feature", "properties": { "hex_id": 564154, "centroid_lon": -73.674334531987839, "centroid_lat": 45.585747915304466, "occurrences_today": 1, "datetimes_today": "2026-02-20 07:46:42", "cumulative_total": 139 }, "geometry": { "type": "Polygon", "coordinates": [ [ [ -73.674456822497561, 45.580552576217158 ], [ -73.68080326914729, 45.583224432695104 ], [ -73.680681552702637, 45.588419782648913 ], [ -73.674212208047962, 45.590943249389845 ], [ -73.667865220768945, 45.588271023925778 ], [ -73.667988118762636, 45.583075700771616 ], [ -73.674456822497561, 45.580552576217158 ] ] ] } },
{ "type": "Feature", "properties": { "hex_id": 366954, "centroid_lon": -75.742957634682043, "centroid_lat": 45.458506129524665, "occurrences_today": 4, "datetimes_today": "2026-02-20 07:01:40, 2026-02-20 07:16:41, 2026-02-20 07:31:42, 2026-02-20 07:46:42", "cumulative_total": 59 }, "geometry": { "type": "Polygon", "coordinates": [ [ [ -75.742889397143003, 45.453309718702918 ], [ -75.749317831241882, 45.455866155328202 ], [ -75.749386665359438, 45.461062556208617 ], [ -75.743025890849808, 45.463702535518287 ], [ -75.736596841540575, 45.461145752058435 ], [ -75.736529181957593, 45.45594933618797 ], [ -75.742889397143003, 45.453309718702918 ] ] ] } },
{ "type": "Feature", "properties": { "hex_id": 730788, "centroid_lon": -71.953572262809914, "centroid_lat": 45.046087228432725, "occurrences_today": 8, "datetimes_today": "2026-02-20 00:17:11, 2026-02-20 00:32:13, 2026-02-20 00:47:02, 2026-02-20 01:02:01, 2026-02-20 01:31:31, 2026-02-20 01:46:34, 2026-02-20 02:01:52, 2026-02-20 02:13:54", "cumulative_total": 72 }, "geometry": { "type": "Polygon", "coordinates": [ [ [ -71.953847950319087, 45.04089735953125 ], [ -71.960049908716172, 45.043661381849276 ], [ -71.959774755478506, 45.048851278148135 ], [ -71.953296500502532, 45.051277091270855 ], [ -71.947094082644526, 45.048512691572647 ], [ -71.947370379198674, 45.043322856194891 ], [ -71.953847950319087, 45.04089735953125 ] ] ] } },
{ "type": "Feature", "properties": { "hex_id": 742463, "centroid_lon": -71.766165441410607, "centroid_lat": 46.218019234166427, "occurrences_today": 7, "datetimes_today": "2026-02-20 00:32:13, 2026-02-20 00:47:02, 2026-02-20 01:02:01, 2026-02-20 01:31:31, 2026-02-20 01:46:34, 2026-02-20 02:01:52, 2026-02-20 02:13:54", "cumulative_total": 142 }, "geometry": { "type": "Polygon", "coordinates": [ [ [ -71.766470272440387, 46.212831365770768 ], [ -71.772790017386441, 46.215608375823138 ], [ -71.772485752031812, 46.220796274039401 ], [ -71.765860526502365, 46.223207096275686 ], [ -71.759540299773946, 46.220429692066908 ], [ -71.759845780328703, 46.215241859843765 ], [ -71.766470272440387, 46.212831365770768 ] ] ] } },
{ "type": "Feature", "properties": { "hex_id": 495805, "centroid_lon": -74.387550294611458, "centroid_lat": 46.012718323067119, "occurrences_today": 18, "datetimes_today": "2026-02-20 00:17:11, 2026-02-20 00:32:13, 2026-02-20 00:47:02, 2026-02-20 01:02:01, 2026-02-20 01:31:31, 2026-02-20 01:46:34, 2026-02-20 02:01:52, 2026-02-20 02:13:54, 2026-02-20 02:31:32, 2026-02-20 02:46:54, 2026-02-20 03:16:26, 2026-02-20 03:31:52, 2026-02-20 03:46:28, 2026-02-20 03:58:50, 2026-02-20 04:16:26, 2026-02-20 04:31:37, 2026-02-20 04:46:58, 2026-02-20 04:57:06", "cumulative_total": 36 }, "geometry": { "type": "Polygon", "coordinates": [ [ [ -74.387607643329943, 46.007522278283155 ], [ -74.394037037369145, 46.010154725174182 ], [ -74.39398028551237, 46.015350773763977 ], [ -74.387492930129511, 46.017914363050302 ], [ -74.381062954994746, 46.015281548593173 ], [ -74.381120916333032, 46.010085512481595 ], [ -74.387607643329943, 46.007522278283155 ] ] ] } },
{ "type": "Feature", "properties": { "hex_id": 497026, "centroid_lon": -74.374633592645978, "centroid_lat": 46.0126483742823, "occurrences_today": 18, "datetimes_today": "2026-02-20 00:17:11, 2026-02-20 00:32:13, 2026-02-20 00:47:02, 2026-02-20 01:02:01, 2026-02-20 01:31:31, 2026-02-20 01:46:34, 2026-02-20 02:01:52, 2026-02-20 02:13:54, 2026-02-20 02:31:32, 2026-02-20 02:46:54, 2026-02-20 03:16:26, 2026-02-20 03:31:52, 2026-02-20 03:46:28, 2026-02-20 03:58:50, 2026-02-20 04:16:26, 2026-02-20 04:31:37, 2026-02-20 04:46:58, 2026-02-20 04:57:06", "cumulative_total": 32 }, "geometry": { "type": "Polygon", "coordinates": [ [ [ -74.374692150671706, 46.007452342106937 ], [ -74.381120916333032, 46.010085512481595 ], [ -74.381062954994746, 46.015281548593173 ], [ -74.374575018524425, 46.017844401654536 ], [ -74.368145672274196, 46.015210863587491 ], [ -74.36820484307772, 46.010014840217245 ], [ -74.374692150671706, 46.007452342106937 ] ] ] } },
{ "type": "Feature", "properties": { "hex_id": 504965, "centroid_lon": -74.290177533288698, "centroid_lat": 46.051127552670089, "occurrences_today": 18, "datetimes_today": "2026-02-20 00:17:11, 2026-02-20 00:32:13, 2026-02-20 00:47:02, 2026-02-20 01:02:01, 2026-02-20 01:31:31, 2026-02-20 01:46:34, 2026-02-20 02:01:52, 2026-02-20 02:13:54, 2026-02-20 02:31:32, 2026-02-20 02:46:54, 2026-02-20 03:16:26, 2026-02-20 03:31:52, 2026-02-20 03:46:28, 2026-02-20 03:58:50, 2026-02-20 04:16:26, 2026-02-20 04:31:37, 2026-02-20 04:46:58, 2026-02-20 04:57:06", "cumulative_total": 71 }, "geometry": { "type": "Polygon", "coordinates": [ [ [ -74.290244088466793, 46.045931645009546 ], [ -74.296673228339188, 46.048569550548727 ], [ -74.296607269936274, 46.053765463002406 ], [ -74.290110959808061, 46.056323455511155 ], [ -74.283681241466155, 46.053685180957714 ], [ -74.283748411715735, 46.048489282975645 ], [ -74.290244088466793, 46.045931645009546 ] ] ] } },
{ "type": "Feature", "properties": { "hex_id": 368175, "centroid_lon": -75.730168370347698, "centroid_lat": 45.458588601975691, "occurrences_today": 4, "datetimes_today": "2026-02-20 07:01:40, 2026-02-20 07:16:41, 2026-02-20 07:31:42, 2026-02-20 07:46:42", "cumulative_total": 18 }, "geometry": { "type": "Polygon", "coordinates": [ [ [ -75.730101307192314, 45.453392176294251 ], [ -75.736529181957593, 45.45594933618797 ], [ -75.736596841540575, 45.461145752058435 ], [ -75.730235451811239, 45.463785022831701 ], [ -75.723806962307108, 45.461227515968297 ], [ -75.723740477277289, 45.45603108536578 ], [ -75.730101307192314, 45.453392176294251 ] ] ] } },
{ "type": "Feature", "properties": { "hex_id": 656407, "centroid_lon": -72.66308252011531, "centroid_lat": 46.621806966194455, "occurrences_today": 13, "datetimes_today": "2026-02-20 00:17:11, 2026-02-20 00:32:13, 2026-02-20 00:47:02, 2026-02-20 01:02:01, 2026-02-20 01:31:31, 2026-02-20 01:46:34, 2026-02-20 02:01:52, 2026-02-20 02:13:54, 2026-02-20 02:31:32, 2026-02-20 02:46:54, 2026-02-20 03:16:26, 2026-02-20 03:31:52, 2026-02-20 03:46:28", "cumulative_total": 50 }, "geometry": { "type": "Polygon", "coordinates": [ [ [ -72.663305986741975, 46.61661550737734 ], [ -72.66971932810462, 46.619344397534135 ], [ -72.669496453243482, 46.624535877582204 ], [ -72.662858991627346, 46.626998419453784 ], [ -72.656445120371174, 46.624269137543358 ], [ -72.656669240603293, 46.619077705581851 ], [ -72.663305986741975, 46.61661550737734 ] ] ] } },
{ "type": "Feature", "properties": { "hex_id": 500687, "centroid_lon": -74.336256639358965, "centroid_lat": 45.981253741024609, "occurrences_today": 20, "datetimes_today": "2026-02-20 00:17:11, 2026-02-20 00:32:13, 2026-02-20 00:47:02, 2026-02-20 01:02:01, 2026-02-20 01:31:31, 2026-02-20 01:46:34, 2026-02-20 02:01:52, 2026-02-20 02:13:54, 2026-02-20 02:31:32, 2026-02-20 02:46:54, 2026-02-20 03:16:26, 2026-02-20 03:31:52, 2026-02-20 03:46:28, 2026-02-20 03:58:50, 2026-02-20 04:16:26, 2026-02-20 04:31:37, 2026-02-20 04:46:58, 2026-02-20 04:57:06, 2026-02-20 05:16:40, 2026-02-20 05:31:55", "cumulative_total": 36 }, "geometry": { "type": "Polygon", "coordinates": [ [ [ -74.336318722771665, 45.97605771939061 ], [ -74.34274202680227, 45.978693033447129 ], [ -74.342680538574754, 45.983889059400788 ], [ -74.336194538888279, 45.986449757848071 ], [ -74.329770656733373, 45.983814076123011 ], [ -74.329833352383432, 45.97861806368492 ], [ -74.336318722771665, 45.97605771939061 ] ] ] } },
{ "type": "Feature", "properties": { "hex_id": 501297, "centroid_lon": -74.32989603081262, "centroid_lat": 45.97342204643504, "occurrences_today": 20, "datetimes_today": "2026-02-20 00:17:11, 2026-02-20 00:32:13, 2026-02-20 00:47:02, 2026-02-20 01:02:01, 2026-02-20 01:31:31, 2026-02-20 01:46:34, 2026-02-20 02:01:52, 2026-02-20 02:13:54, 2026-02-20 02:31:32, 2026-02-20 02:46:54, 2026-02-20 03:16:26, 2026-02-20 03:31:52, 2026-02-20 03:46:28, 2026-02-20 03:58:50, 2026-02-20 04:16:26, 2026-02-20 04:31:37, 2026-02-20 04:46:58, 2026-02-20 04:57:06, 2026-02-20 05:16:40, 2026-02-20 05:31:55", "cumulative_total": 36 }, "geometry": { "type": "Polygon", "coordinates": [ [ [ -74.329958692026793, 45.968226024373372 ], [ -74.336380789132193, 45.970861692946094 ], [ -74.336318722771665, 45.97605771939061 ], [ -74.329833352383432, 45.97861806368492 ], [ -74.323410677642329, 45.975982027481194 ], [ -74.323473950919322, 45.970786014679845 ], [ -74.329958692026793, 45.968226024373372 ] ] ] } },
{ "type": "Feature", "properties": { "hex_id": 501908, "centroid_lon": -74.323347386981624, "centroid_lat": 45.981178035469483, "occurrences_today": 20, "datetimes_today": "2026-02-20 00:17:11, 2026-02-20 00:32:13, 2026-02-20 00:47:02, 2026-02-20 01:02:01, 2026-02-20 01:31:31, 2026-02-20 01:46:34, 2026-02-20 02:01:52, 2026-02-20 02:13:54, 2026-02-20 02:31:32, 2026-02-20 02:46:54, 2026-02-20 03:16:26, 2026-02-20 03:31:52, 2026-02-20 03:46:28, 2026-02-20 03:58:50, 2026-02-20 04:16:26, 2026-02-20 04:31:37, 2026-02-20 04:46:58, 2026-02-20 04:57:06, 2026-02-20 05:16:40, 2026-02-20 05:31:55", "cumulative_total": 36 }, "geometry": { "type": "Polygon", "coordinates": [ [ [ -74.323410677642329, 45.975982027481194 ], [ -74.329833352383432, 45.97861806368492 ], [ -74.329770656733373, 45.983814076123011 ], [ -74.323284078931323, 45.986374038644712 ], [ -74.316860826572153, 45.983737634646722 ], [ -74.316924729627175, 45.978541635987 ], [ -74.323410677642329, 45.975982027481194 ] ] ] } },
{ "type": "Feature", "properties": { "hex_id": 502518, "centroid_lon": -74.316988615129773, "centroid_lat": 45.973345632512952, "occurrences_today": 20, "datetimes_today": "2026-02-20 00:17:11, 2026-02-20 00:32:13, 2026-02-20 00:47:02, 2026-02-20 01:02:01, 2026-02-20 01:31:31, 2026-02-20 01:46:34, 2026-02-20 02:01:52, 2026-02-20 02:13:54, 2026-02-20 02:31:32, 2026-02-20 02:46:54, 2026-02-20 03:16:26, 2026-02-20 03:31:52, 2026-02-20 03:46:28, 2026-02-20 03:58:50, 2026-02-20 04:16:26, 2026-02-20 04:31:37, 2026-02-20 04:46:58, 2026-02-20 04:57:06, 2026-02-20 05:16:40, 2026-02-20 05:31:55", "cumulative_total": 59 }, "geometry": { "type": "Polygon", "coordinates": [ [ [ -74.317052483085888, 45.968149624224537 ], [ -74.323473950919322, 45.970786014679845 ], [ -74.323410677642329, 45.975982027481194 ], [ -74.316924729627175, 45.978541635987 ], [ -74.310502684664101, 45.975904877775072 ], [ -74.310567164839838, 45.970708878879627 ], [ -74.317052483085888, 45.968149624224537 ] ] ] } },
{ "type": "Feature", "properties": { "hex_id": 503129, "centroid_lon": -74.310438186773141, "centroid_lat": 45.981100871854892, "occurrences_today": 20, "datetimes_today": "2026-02-20 00:17:11, 2026-02-20 00:32:13, 2026-02-20 00:47:02, 2026-02-20 01:02:01, 2026-02-20 01:31:31, 2026-02-20 01:46:34, 2026-02-20 02:01:52, 2026-02-20 02:13:54, 2026-02-20 02:31:32, 2026-02-20 02:46:54, 2026-02-20 03:16:26, 2026-02-20 03:31:52, 2026-02-20 03:46:28, 2026-02-20 03:58:50, 2026-02-20 04:16:26, 2026-02-20 04:31:37, 2026-02-20 04:46:58, 2026-02-20 04:57:06, 2026-02-20 05:16:40, 2026-02-20 05:31:55", "cumulative_total": 36 }, "geometry": { "type": "Polygon", "coordinates": [ [ [ -74.310502684664101, 45.975904877775072 ], [ -74.316924729627175, 45.978541635987 ], [ -74.316860826572153, 45.983737634646722 ], [ -74.310373671160917, 45.986296861119058 ], [ -74.303951049086152, 45.983659734987278 ], [ -74.304016159528274, 45.978463750368718 ], [ -74.310502684664101, 45.975904877775072 ] ] ] } },
{ "type": "Feature", "properties": { "hex_id": 503739, "centroid_lon": -74.304081252086377, "centroid_lat": 45.973267760933226, "occurrences_today": 20, "datetimes_today": "2026-02-20 00:17:11, 2026-02-20 00:32:13, 2026-02-20 00:47:02, 2026-02-20 01:02:01, 2026-02-20 01:31:31, 2026-02-20 01:46:34, 2026-02-20 02:01:52, 2026-02-20 02:13:54, 2026-02-20 02:31:32, 2026-02-20 02:46:54, 2026-02-20 03:16:26, 2026-02-20 03:31:52, 2026-02-20 03:46:28, 2026-02-20 03:58:50, 2026-02-20 04:16:26, 2026-02-20 04:31:37, 2026-02-20 04:46:58, 2026-02-20 04:57:06, 2026-02-20 05:16:40, 2026-02-20 05:31:55", "cumulative_total": 36 }, "geometry": { "type": "Polygon", "coordinates": [ [ [ -74.304146326766528, 45.968071766680765 ], [ -74.310567164839838, 45.970708878879627 ], [ -74.310502684664101, 45.975904877775072 ], [ -74.304016159528274, 45.978463750368718 ], [ -74.297594744831528, 45.97582627028774 ], [ -74.297660431887962, 45.970630285560901 ], [ -74.304146326766528, 45.968071766680765 ] ] ] } },
{ "type": "Feature", "properties": { "hex_id": 504350, "centroid_lon": -74.297529039728374, "centroid_lat": 45.981022250196311, "occurrences_today": 20, "datetimes_today": "2026-02-20 00:17:11, 2026-02-20 00:32:13, 2026-02-20 00:47:02, 2026-02-20 01:02:01, 2026-02-20 01:31:31, 2026-02-20 01:46:34, 2026-02-20 02:01:52, 2026-02-20 02:13:54, 2026-02-20 02:31:32, 2026-02-20 02:46:54, 2026-02-20 03:16:26, 2026-02-20 03:31:52, 2026-02-20 03:46:28, 2026-02-20 03:58:50, 2026-02-20 04:16:26, 2026-02-20 04:31:37, 2026-02-20 04:46:58, 2026-02-20 04:57:06, 2026-02-20 05:16:40, 2026-02-20 05:31:55", "cumulative_total": 36 }, "geometry": { "type": "Polygon", "coordinates": [ [ [ -74.297594744831528, 45.97582627028774 ], [ -74.304016159528274, 45.978463750368718 ], [ -74.303951049086152, 45.983659734987278 ], [ -74.297463316572333, 45.986218225286613 ], [ -74.29104132527047, 45.983580377160301 ], [ -74.291107643081432, 45.978384406845692 ], [ -74.297594744831528, 45.97582627028774 ] ] ] } },
{ "type": "Feature", "properties": { "hex_id": 504960, "centroid_lon": -74.291173942676792, "centroid_lat": 45.973188431711499, "occurrences_today": 20, "datetimes_today": "2026-02-20 00:17:11, 2026-02-20 00:32:13, 2026-02-20 00:47:02, 2026-02-20 01:02:01, 2026-02-20 01:31:31, 2026-02-20 01:46:34, 2026-02-20 02:01:52, 2026-02-20 02:13:54, 2026-02-20 02:31:32, 2026-02-20 02:46:54, 2026-02-20 03:16:26, 2026-02-20 03:31:52, 2026-02-20 03:46:28, 2026-02-20 03:58:50, 2026-02-20 04:16:26, 2026-02-20 04:31:37, 2026-02-20 04:46:58, 2026-02-20 04:57:06, 2026-02-20 05:16:40, 2026-02-20 05:31:55", "cumulative_total": 36 }, "geometry": { "type": "Polygon", "coordinates": [ [ [ -74.291240224062761, 45.967992451757667 ], [ -74.297660431887962, 45.970630285560901 ], [ -74.297594744831528, 45.97582627028774 ], [ -74.291107643081432, 45.978384406845692 ], [ -74.284686859139171, 45.975746205034959 ], [ -74.284753753057885, 45.970550234739456 ], [ -74.291240224062761, 45.967992451757667 ] ] ] } },
{ "type": "Feature", "properties": { "hex_id": 505570, "centroid_lon": -74.284820628604621, "centroid_lat": 45.965354259622977, "occurrences_today": 20, "datetimes_today": "2026-02-20 00:17:11, 2026-02-20 00:32:13, 2026-02-20 00:47:02, 2026-02-20 01:02:01, 2026-02-20 01:31:31, 2026-02-20 01:46:34, 2026-02-20 02:01:52, 2026-02-20 02:13:54, 2026-02-20 02:31:32, 2026-02-20 02:46:54, 2026-02-20 03:16:26, 2026-02-20 03:31:52, 2026-02-20 03:46:28, 2026-02-20 03:58:50, 2026-02-20 04:16:26, 2026-02-20 04:31:37, 2026-02-20 04:46:58, 2026-02-20 04:57:06, 2026-02-20 05:16:40, 2026-02-20 05:31:55", "cumulative_total": 38 }, "geometry": { "type": "Polygon", "coordinates": [ [ [ -74.284887485785617, 45.960158279685551 ], [ -74.291306487245535, 45.96279646698423 ], [ -74.291240224062761, 45.967992451757667 ], [ -74.284753753057885, 45.970550234739456 ], [ -74.27833417596861, 45.967911679471186 ], [ -74.27840164550733, 45.962715709256365 ], [ -74.284887485785617, 45.960158279685551 ] ] ] } },
{ "type": "Feature", "properties": { "hex_id": 505575, "centroid_lon": -74.283815563499346, "centroid_lat": 46.043293380172734, "occurrences_today": 18, "datetimes_today": "2026-02-20 00:17:11, 2026-02-20 00:32:13, 2026-02-20 00:47:02, 2026-02-20 01:02:01, 2026-02-20 01:31:31, 2026-02-20 01:46:34, 2026-02-20 02:01:52, 2026-02-20 02:13:54, 2026-02-20 02:31:32, 2026-02-20 02:46:54, 2026-02-20 03:16:26, 2026-02-20 03:31:52, 2026-02-20 03:46:28, 2026-02-20 03:58:50, 2026-02-20 04:16:26, 2026-02-20 04:31:37, 2026-02-20 04:46:58, 2026-02-20 04:57:06", "cumulative_total": 47 }, "geometry": { "type": "Polygon", "coordinates": [ [ [ -74.283882696823284, 46.038097472549005 ], [ -74.290310625348567, 46.040735732529512 ], [ -74.290244088466793, 46.045931645009546 ], [ -74.283748411715735, 46.048489282975645 ], [ -74.277319905211115, 46.045850654018849 ], [ -74.277387653430594, 46.040654756138075 ], [ -74.283882696823284, 46.038097472549005 ] ] ] } },
{ "type": "Feature", "properties": { "hex_id": 763856, "centroid_lon": -71.51445671203021, "centroid_lat": 46.608141771684537, "occurrences_today": 3, "datetimes_today": "2026-02-20 00:17:11, 2026-02-20 00:32:13, 2026-02-20 00:47:02", "cumulative_total": 48 }, "geometry": { "type": "Polygon", "coordinates": [ [ [ -71.514789743970766, 46.602955597994217 ], [ -71.521140020398832, 46.605747276122493 ], [ -71.520807562126478, 46.610933482304617 ], [ -71.514123588008587, 46.613327938818209 ], [ -71.50777283000923, 46.610535859213556 ], [ -71.508106527667309, 46.605349724638018 ], [ -71.514789743970766, 46.602955597994217 ] ] ] } },
{ "type": "Feature", "properties": { "hex_id": 450659, "centroid_lon": -74.864306386444497, "centroid_lat": 46.497517754924658, "occurrences_today": 4, "datetimes_today": "2026-02-20 00:17:11, 2026-02-20 00:32:13, 2026-02-20 00:47:02, 2026-02-20 01:02:01", "cumulative_total": 21 }, "geometry": { "type": "Polygon", "coordinates": [ [ [ -74.864319309475761, 46.492321870038651 ], [ -74.870828420316315, 46.494927356669351 ], [ -74.870816116131479, 46.50012324054412 ], [ -74.864293459838677, 46.502713635066186 ], [ -74.857783733726862, 46.500107779420141 ], [ -74.857797279177873, 46.494911898334344 ], [ -74.864319309475761, 46.492321870038651 ] ] ] } },
{ "type": "Feature", "properties": { "hex_id": 493361, "centroid_lon": -74.4137131934514, "centroid_lat": 45.981677354276457, "occurrences_today": 18, "datetimes_today": "2026-02-20 00:17:11, 2026-02-20 00:32:13, 2026-02-20 00:47:02, 2026-02-20 01:02:01, 2026-02-20 01:31:31, 2026-02-20 01:46:34, 2026-02-20 02:01:52, 2026-02-20 02:13:54, 2026-02-20 02:31:32, 2026-02-20 02:46:54, 2026-02-20 03:16:26, 2026-02-20 03:31:52, 2026-02-20 03:46:28, 2026-02-20 03:58:50, 2026-02-20 04:16:26, 2026-02-20 04:31:37, 2026-02-20 04:46:58, 2026-02-20 04:57:06", "cumulative_total": 24 }, "geometry": { "type": "Polygon", "coordinates": [ [ [ -74.413768033022762, 45.976481256286739 ], [ -74.420195102521575, 45.979112234548801 ], [ -74.420140859179199, 45.984308336076829 ], [ -74.413658338812056, 45.986873447469833 ], [ -74.407230688154783, 45.984242102295767 ], [ -74.407286139017984, 45.979046012706419 ], [ -74.413768033022762, 45.976481256286739 ] ] ] } },
{ "type": "Feature", "properties": { "hex_id": 493362, "centroid_lon": -74.413548584309012, "centroid_lat": 45.997265619467612, "occurrences_today": 18, "datetimes_today": "2026-02-20 00:17:11, 2026-02-20 00:32:13, 2026-02-20 00:47:02, 2026-02-20 01:02:01, 2026-02-20 01:31:31, 2026-02-20 01:46:34, 2026-02-20 02:01:52, 2026-02-20 02:13:54, 2026-02-20 02:31:32, 2026-02-20 02:46:54, 2026-02-20 03:16:26, 2026-02-20 03:31:52, 2026-02-20 03:46:28, 2026-02-20 03:58:50, 2026-02-20 04:16:26, 2026-02-20 04:31:37, 2026-02-20 04:46:58, 2026-02-20 04:57:06", "cumulative_total": 24 }, "geometry": { "type": "Polygon", "coordinates": [ [ [ -74.413603469099641, 45.992069535866875 ], [ -74.420032327775417, 45.994700524747202 ], [ -74.419978039703878, 45.999896611889582 ], [ -74.413493684435039, 46.002461698272064 ], [ -74.407064244126062, 45.999830342279211 ], [ -74.407119740714009, 45.994634267082155 ], [ -74.413603469099641, 45.992069535866875 ] ] ] } },
{ "type": "Feature", "properties": { "hex_id": 493363, "centroid_lon": -74.413383839416511, "centroid_lat": 46.012853841492131, "occurrences_today": 18, "datetimes_today": "2026-02-20 00:17:11, 2026-02-20 00:32:13, 2026-02-20 00:47:02, 2026-02-20 01:02:01, 2026-02-20 01:31:31, 2026-02-20 01:46:34, 2026-02-20 02:01:52, 2026-02-20 02:13:54, 2026-02-20 02:31:32, 2026-02-20 02:46:54, 2026-02-20 03:16:26, 2026-02-20 03:31:52, 2026-02-20 03:46:28, 2026-02-20 03:58:50, 2026-02-20 04:16:26, 2026-02-20 04:31:37, 2026-02-20 04:46:58, 2026-02-20 04:57:06", "cumulative_total": 24 }, "geometry": { "type": "Polygon", "coordinates": [ [ [ -74.413438769472577, 46.007657772280233 ], [ -74.419869418796139, 46.010288771788801 ], [ -74.419815085949764, 46.015484844545696 ], [ -74.413328894261724, 46.018049905907809 ], [ -74.406897662829778, 46.015418539086028 ], [ -74.40695320518914, 46.010222478281122 ], [ -74.413438769472577, 46.007657772280233 ] ] ] } },
{ "type": "Feature", "properties": { "hex_id": 493971, "centroid_lon": -74.407341574649962, "centroid_lat": 45.973849918319608, "occurrences_today": 18, "datetimes_today": "2026-02-20 00:17:11, 2026-02-20 00:32:13, 2026-02-20 00:47:02, 2026-02-20 01:02:01, 2026-02-20 01:31:31, 2026-02-20 01:46:34, 2026-02-20 02:01:52, 2026-02-20 02:13:54, 2026-02-20 02:31:32, 2026-02-20 02:46:54, 2026-02-20 03:16:26, 2026-02-20 03:31:52, 2026-02-20 03:46:28, 2026-02-20 03:58:50, 2026-02-20 04:16:26, 2026-02-20 04:31:37, 2026-02-20 04:46:58, 2026-02-20 04:57:06", "cumulative_total": 24 }, "geometry": { "type": "Polygon", "coordinates": [ [ [ -74.40739699505589, 45.968653819135305 ], [ -74.413822857531287, 45.971285153500659 ], [ -74.413768033022762, 45.976481256286739 ], [ -74.407286139017984, 45.979046012706419 ], [ -74.40085969587382, 45.976414311466108 ], [ -74.400915727398029, 45.971218220746756 ], [ -74.40739699505589, 45.968653819135305 ] ] ] } },
{ "type": "Feature", "properties": { "hex_id": 493972, "centroid_lon": -74.407175222055187, "centroid_lat": 45.989438187087671, "occurrences_today": 18, "datetimes_today": "2026-02-20 00:17:11, 2026-02-20 00:32:13, 2026-02-20 00:47:02, 2026-02-20 01:02:01, 2026-02-20 01:31:31, 2026-02-20 01:46:34, 2026-02-20 02:01:52, 2026-02-20 02:13:54, 2026-02-20 02:31:32, 2026-02-20 02:46:54, 2026-02-20 03:16:26, 2026-02-20 03:31:52, 2026-02-20 03:46:28, 2026-02-20 03:58:50, 2026-02-20 04:16:26, 2026-02-20 04:31:37, 2026-02-20 04:46:58, 2026-02-20 04:57:06", "cumulative_total": 24 }, "geometry": { "type": "Polygon", "coordinates": [ [ [ -74.407230688154783, 45.984242102295767 ], [ -74.413658338812056, 45.986873447469833 ], [ -74.413603469099641, 45.992069535866875 ], [ -74.407119740714009, 45.994634267082155 ], [ -74.400691508913724, 45.992002554832631 ], [ -74.400747586636911, 45.986806478509024 ], [ -74.407230688154783, 45.984242102295767 ] ] ] } },
{ "type": "Feature", "properties": { "hex_id": 493973, "centroid_lon": -74.407008732286172, "centroid_lat": 46.005026412678866, "occurrences_today": 18, "datetimes_today": "2026-02-20 00:17:11, 2026-02-20 00:32:13, 2026-02-20 00:47:02, 2026-02-20 01:02:01, 2026-02-20 01:31:31, 2026-02-20 01:46:34, 2026-02-20 02:01:52, 2026-02-20 02:13:54, 2026-02-20 02:31:32, 2026-02-20 02:46:54, 2026-02-20 03:16:26, 2026-02-20 03:31:52, 2026-02-20 03:46:28, 2026-02-20 03:58:50, 2026-02-20 04:16:26, 2026-02-20 04:31:37, 2026-02-20 04:46:58, 2026-02-20 04:57:06", "cumulative_total": 24 }, "geometry": { "type": "Polygon", "coordinates": [ [ [ -74.407064244126062, 45.999830342279211 ], [ -74.413493684435039, 46.002461698272064 ], [ -74.413438769472577, 46.007657772280233 ], [ -74.40695320518914, 46.010222478281122 ], [ -74.400523183262479, 46.00759075501216 ], [ -74.400579307231752, 46.002394693084184 ], [ -74.407064244126062, 45.999830342279211 ] ] ] } },
{ "type": "Feature", "properties": { "hex_id": 493974, "centroid_lon": -74.406842105202898, "centroid_lat": 46.020614595093569, "occurrences_today": 18, "datetimes_today": "2026-02-20 00:17:11, 2026-02-20 00:32:13, 2026-02-20 00:47:02, 2026-02-20 01:02:01, 2026-02-20 01:31:31, 2026-02-20 01:46:34, 2026-02-20 02:01:52, 2026-02-20 02:13:54, 2026-02-20 02:31:32, 2026-02-20 02:46:54, 2026-02-20 03:16:26, 2026-02-20 03:31:52, 2026-02-20 03:46:28, 2026-02-20 03:58:50, 2026-02-20 04:16:26, 2026-02-20 04:31:37, 2026-02-20 04:46:58, 2026-02-20 04:57:06", "cumulative_total": 24 }, "geometry": { "type": "Polygon", "coordinates": [ [ [ -74.406897662829778, 46.015418539086028 ], [ -74.413328894261724, 46.018049905907809 ], [ -74.413273934003044, 46.023245965527245 ], [ -74.4067865323033, 46.025810646303803 ], [ -74.400354718778473, 46.023178912005164 ], [ -74.400410889041083, 46.017982864472657 ], [ -74.406897662829778, 46.015418539086028 ] ] ] } },
{ "type": "Feature", "properties": { "hex_id": 494582, "centroid_lon": -74.40080364895519, "centroid_lat": 45.981610397386852, "occurrences_today": 18, "datetimes_today": "2026-02-20 00:17:11, 2026-02-20 00:32:13, 2026-02-20 00:47:02, 2026-02-20 01:02:01, 2026-02-20 01:31:31, 2026-02-20 01:46:34, 2026-02-20 02:01:52, 2026-02-20 02:13:54, 2026-02-20 02:31:32, 2026-02-20 02:46:54, 2026-02-20 03:16:26, 2026-02-20 03:31:52, 2026-02-20 03:46:28, 2026-02-20 03:58:50, 2026-02-20 04:16:26, 2026-02-20 04:31:37, 2026-02-20 04:46:58, 2026-02-20 04:57:06", "cumulative_total": 24 }, "geometry": { "type": "Polygon", "coordinates": [ [ [ -74.40085969587382, 45.976414311466108 ], [ -74.407286139017984, 45.979046012706419 ], [ -74.407230688154783, 45.984242102295767 ], [ -74.400747586636911, 45.986806478509024 ], [ -74.394320562839567, 45.984174410230338 ], [ -74.39437722120806, 45.978978332842487 ], [ -74.40085969587382, 45.976414311466108 ] ] ] } },
{ "type": "Feature", "properties": { "hex_id": 494583, "centroid_lon": -74.400635415780428, "centroid_lat": 45.997198626357658, "occurrences_today": 18, "datetimes_today": "2026-02-20 00:17:11, 2026-02-20 00:32:13, 2026-02-20 00:47:02, 2026-02-20 01:02:01, 2026-02-20 01:31:31, 2026-02-20 01:46:34, 2026-02-20 02:01:52, 2026-02-20 02:13:54, 2026-02-20 02:31:32, 2026-02-20 02:46:54, 2026-02-20 03:16:26, 2026-02-20 03:31:52, 2026-02-20 03:46:28, 2026-02-20 03:58:50, 2026-02-20 04:16:26, 2026-02-20 04:31:37, 2026-02-20 04:46:58, 2026-02-20 04:57:06", "cumulative_total": 24 }, "geometry": { "type": "Polygon", "coordinates": [ [ [ -74.400691508913724, 45.992002554832631 ], [ -74.407119740714009, 45.994634267082155 ], [ -74.407064244126062, 45.999830342279211 ], [ -74.400579307231752, 46.002394693084184 ], [ -74.3941504943041, 45.999762613595685 ], [ -74.394207199392895, 45.994566550606912 ], [ -74.400691508913724, 45.992002554832631 ] ] ] } },
{ "type": "Feature", "properties": { "hex_id": 494584, "centroid_lon": -74.400467043867337, "centroid_lat": 46.012786812141641, "occurrences_today": 18, "datetimes_today": "2026-02-20 00:17:11, 2026-02-20 00:32:13, 2026-02-20 00:47:02, 2026-02-20 01:02:01, 2026-02-20 01:31:31, 2026-02-20 01:46:34, 2026-02-20 02:01:52, 2026-02-20 02:13:54, 2026-02-20 02:31:32, 2026-02-20 02:46:54, 2026-02-20 03:16:26, 2026-02-20 03:31:52, 2026-02-20 03:46:28, 2026-02-20 03:58:50, 2026-02-20 04:16:26, 2026-02-20 04:31:37, 2026-02-20 04:46:58, 2026-02-20 04:57:06", "cumulative_total": 28 }, "geometry": { "type": "Polygon", "coordinates": [ [ [ -74.400523183262479, 46.00759075501216 ], [ -74.40695320518914, 46.010222478281122 ], [ -74.406897662829778, 46.015418539086028 ], [ -74.400410889041083, 46.017982864472657 ], [ -74.39398028551237, 46.015350773763977 ], [ -74.394037037369145, 46.010154725174182 ], [ -74.400523183262479, 46.00759075501216 ] ] ] } },
{ "type": "Feature", "properties": { "hex_id": 495192, "centroid_lon": -74.394433864013692, "centroid_lat": 45.973782250654921, "occurrences_today": 18, "datetimes_today": "2026-02-20 00:17:11, 2026-02-20 00:32:13, 2026-02-20 00:47:02, 2026-02-20 01:02:01, 2026-02-20 01:31:31, 2026-02-20 01:46:34, 2026-02-20 02:01:52, 2026-02-20 02:13:54, 2026-02-20 02:31:32, 2026-02-20 02:46:54, 2026-02-20 03:16:26, 2026-02-20 03:31:52, 2026-02-20 03:46:28, 2026-02-20 03:58:50, 2026-02-20 04:16:26, 2026-02-20 04:31:37, 2026-02-20 04:46:58, 2026-02-20 04:57:06", "cumulative_total": 24 }, "geometry": { "type": "Polygon", "coordinates": [ [ [ -74.394490491261763, 45.968586163667588 ], [ -74.400915727398029, 45.971218220746756 ], [ -74.40085969587382, 45.976414311466108 ], [ -74.39437722120806, 45.978978332842487 ], [ -74.387951404908137, 45.976345908762063 ], [ -74.388008643432343, 45.971149830372198 ], [ -74.394490491261763, 45.968586163667588 ] ] ] } },
{ "type": "Feature", "properties": { "hex_id": 495193, "centroid_lon": -74.394263888902955, "centroid_lat": 45.98937048281848, "occurrences_today": 18, "datetimes_today": "2026-02-20 00:17:11, 2026-02-20 00:32:13, 2026-02-20 00:47:02, 2026-02-20 01:02:01, 2026-02-20 01:31:31, 2026-02-20 01:46:34, 2026-02-20 02:01:52, 2026-02-20 02:13:54, 2026-02-20 02:31:32, 2026-02-20 02:46:54, 2026-02-20 03:16:26, 2026-02-20 03:31:52, 2026-02-20 03:46:28, 2026-02-20 03:58:50, 2026-02-20 04:16:26, 2026-02-20 04:31:37, 2026-02-20 04:46:58, 2026-02-20 04:57:06", "cumulative_total": 24 }, "geometry": { "type": "Polygon", "coordinates": [ [ [ -74.394320562839567, 45.984174410230338 ], [ -74.400747586636911, 45.986806478509024 ], [ -74.400691508913724, 45.992002554832631 ], [ -74.394207199392895, 45.994566550606912 ], [ -74.387779594958204, 45.991934115126405 ], [ -74.387836880676403, 45.986738051139149 ], [ -74.394320562839567, 45.984174410230338 ] ] ] } },
{ "type": "Feature", "properties": { "hex_id": 495194, "centroid_lon": -74.394093773631297, "centroid_lat": 46.004958671784763, "occurrences_today": 18, "datetimes_today": "2026-02-20 00:17:11, 2026-02-20 00:32:13, 2026-02-20 00:47:02, 2026-02-20 01:02:01, 2026-02-20 01:31:31, 2026-02-20 01:46:34, 2026-02-20 02:01:52, 2026-02-20 02:13:54, 2026-02-20 02:31:32, 2026-02-20 02:46:54, 2026-02-20 03:16:26, 2026-02-20 03:31:52, 2026-02-20 03:46:28, 2026-02-20 03:58:50, 2026-02-20 04:16:26, 2026-02-20 04:31:37, 2026-02-20 04:46:58, 2026-02-20 04:57:06", "cumulative_total": 28 }, "geometry": { "type": "Polygon", "coordinates": [ [ [ -74.3941504943041, 45.999762613595685 ], [ -74.400579307231752, 46.002394693084184 ], [ -74.400523183262479, 46.00759075501216 ], [ -74.394037037369145, 46.010154725174182 ], [ -74.387607643329943, 46.007522278283155 ], [ -74.38766497629031, 46.002326228698387 ], [ -74.3941504943041, 45.999762613595685 ] ] ] } },
{ "type": "Feature", "properties": { "hex_id": 495195, "centroid_lon": -74.39392351805563, "centroid_lat": 46.020546817554155, "occurrences_today": 18, "datetimes_today": "2026-02-20 00:17:11, 2026-02-20 00:32:13, 2026-02-20 00:47:02, 2026-02-20 01:02:01, 2026-02-20 01:31:31, 2026-02-20 01:46:34, 2026-02-20 02:01:52, 2026-02-20 02:13:54, 2026-02-20 02:31:32, 2026-02-20 02:46:54, 2026-02-20 03:16:26, 2026-02-20 03:31:52, 2026-02-20 03:46:28, 2026-02-20 03:58:50, 2026-02-20 04:16:26, 2026-02-20 04:31:37, 2026-02-20 04:46:58, 2026-02-20 04:57:06", "cumulative_total": 25 }, "geometry": { "type": "Polygon", "coordinates": [ [ [ -74.39398028551237, 46.015350773763977 ], [ -74.400410889041083, 46.017982864472657 ], [ -74.400354718778473, 46.023178912005164 ], [ -74.393866734993679, 46.025742856544738 ], [ -74.387435549878745, 46.02311039823271 ], [ -74.387492930129511, 46.017914363050302 ], [ -74.39398028551237, 46.015350773763977 ] ] ] } },
{ "type": "Feature", "properties": { "hex_id": 495803, "centroid_lon": -74.387894150657942, "centroid_lat": 45.981541982351054, "occurrences_today": 18, "datetimes_today": "2026-02-20 00:17:11, 2026-02-20 00:32:13, 2026-02-20 00:47:02, 2026-02-20 01:02:01, 2026-02-20 01:31:31, 2026-02-20 01:46:34, 2026-02-20 02:01:52, 2026-02-20 02:13:54, 2026-02-20 02:31:32, 2026-02-20 02:46:54, 2026-02-20 03:16:26, 2026-02-20 03:31:52, 2026-02-20 03:46:28, 2026-02-20 03:58:50, 2026-02-20 04:16:26, 2026-02-20 04:31:37, 2026-02-20 04:46:58, 2026-02-20 04:57:06", "cumulative_total": 24 }, "geometry": { "type": "Polygon", "coordinates": [ [ [ -74.387951404908137, 45.976345908762063 ], [ -74.39437722120806, 45.978978332842487 ], [ -74.394320562839567, 45.984174410230338 ], [ -74.387836880676403, 45.986738051139149 ], [ -74.38141048422878, 45.984105259894108 ], [ -74.381468350086678, 45.978909194970583 ], [ -74.387951404908137, 45.976345908762063 ] ] ] } },
{ "type": "Feature", "properties": { "hex_id": 495804, "centroid_lon": -74.387722293497944, "centroid_lat": 45.997130174312808, "occurrences_today": 18, "datetimes_today": "2026-02-20 00:17:11, 2026-02-20 00:32:13, 2026-02-20 00:47:02, 2026-02-20 01:02:01, 2026-02-20 01:31:31, 2026-02-20 01:46:34, 2026-02-20 02:01:52, 2026-02-20 02:13:54, 2026-02-20 02:31:32, 2026-02-20 02:46:54, 2026-02-20 03:16:26, 2026-02-20 03:31:52, 2026-02-20 03:46:28, 2026-02-20 03:58:50, 2026-02-20 04:16:26, 2026-02-20 04:31:37, 2026-02-20 04:46:58, 2026-02-20 04:57:06", "cumulative_total": 24 }, "geometry": { "type": "Polygon", "coordinates": [ [ [ -74.387779594958204, 45.991934115126405 ], [ -74.394207199392895, 45.994566550606912 ], [ -74.3941504943041, 45.999762613595685 ], [ -74.38766497629031, 46.002326228698387 ], [ -74.38123679123423, 45.99969342585257 ], [ -74.381294704807956, 45.994497375335094 ], [ -74.387779594958204, 45.991934115126405 ] ] ] } },
{ "type": "Feature", "properties": { "hex_id": 496413, "centroid_lon": -74.381526200050104, "centroid_lat": 45.973713125245013, "occurrences_today": 18, "datetimes_today": "2026-02-20 00:17:11, 2026-02-20 00:32:13, 2026-02-20 00:47:02, 2026-02-20 01:02:01, 2026-02-20 01:31:31, 2026-02-20 01:46:34, 2026-02-20 02:01:52, 2026-02-20 02:13:54, 2026-02-20 02:31:32, 2026-02-20 02:46:54, 2026-02-20 03:16:26, 2026-02-20 03:31:52, 2026-02-20 03:46:28, 2026-02-20 03:58:50, 2026-02-20 04:16:26, 2026-02-20 04:31:37, 2026-02-20 04:46:58, 2026-02-20 04:57:06", "cumulative_total": 24 }, "geometry": { "type": "Polygon", "coordinates": [ [ [ -74.381584034124472, 45.968517050717381 ], [ -74.388008643432343, 45.971149830372198 ], [ -74.387951404908137, 45.976345908762063 ], [ -74.381468350086678, 45.978909194970583 ], [ -74.375043161120416, 45.976276048188339 ], [ -74.37510160662859, 45.971079982390698 ], [ -74.381584034124472, 45.968517050717381 ] ] ] } },
{ "type": "Feature", "properties": { "hex_id": 496414, "centroid_lon": -74.381352602471011, "centroid_lat": 45.989301320015599, "occurrences_today": 18, "datetimes_today": "2026-02-20 00:17:11, 2026-02-20 00:32:13, 2026-02-20 00:47:02, 2026-02-20 01:02:01, 2026-02-20 01:31:31, 2026-02-20 01:46:34, 2026-02-20 02:01:52, 2026-02-20 02:13:54, 2026-02-20 02:31:32, 2026-02-20 02:46:54, 2026-02-20 03:16:26, 2026-02-20 03:31:52, 2026-02-20 03:46:28, 2026-02-20 03:58:50, 2026-02-20 04:16:26, 2026-02-20 04:31:37, 2026-02-20 04:46:58, 2026-02-20 04:57:06", "cumulative_total": 24 }, "geometry": { "type": "Polygon", "coordinates": [ [ [ -74.38141048422878, 45.984105259894108 ], [ -74.387836880676403, 45.986738051139149 ], [ -74.387779594958204, 45.991934115126405 ], [ -74.381294704807956, 45.994497375335094 ], [ -74.37486772822875, 45.991864216761975 ], [ -74.374926221925961, 45.986668165373956 ], [ -74.38141048422878, 45.984105259894108 ] ] ] } },
{ "type": "Feature", "properties": { "hex_id": 496415, "centroid_lon": -74.381178861744388, "centroid_lat": 46.00488947156807, "occurrences_today": 18, "datetimes_today": "2026-02-20 00:17:11, 2026-02-20 00:32:13, 2026-02-20 00:47:02, 2026-02-20 01:02:01, 2026-02-20 01:31:31, 2026-02-20 01:46:34, 2026-02-20 02:01:52, 2026-02-20 02:13:54, 2026-02-20 02:31:32, 2026-02-20 02:46:54, 2026-02-20 03:16:26, 2026-02-20 03:31:52, 2026-02-20 03:46:28, 2026-02-20 03:58:50, 2026-02-20 04:16:26, 2026-02-20 04:31:37, 2026-02-20 04:46:58, 2026-02-20 04:57:06", "cumulative_total": 25 }, "geometry": { "type": "Polygon", "coordinates": [ [ [ -74.38123679123423, 45.99969342585257 ], [ -74.38766497629031, 46.002326228698387 ], [ -74.387607643329943, 46.007522278283155 ], [ -74.381120916333032, 46.010085512481595 ], [ -74.374692150671706, 46.007452342106937 ], [ -74.374750692607094, 46.002256305128441 ], [ -74.38123679123423, 45.99969342585257 ] ] ] } },
{ "type": "Feature", "properties": { "hex_id": 497023, "centroid_lon": -74.375160036084679, "centroid_lat": 45.96588391178981, "occurrences_today": 18, "datetimes_today": "2026-02-20 00:17:11, 2026-02-20 00:32:13, 2026-02-20 00:47:02, 2026-02-20 01:02:01, 2026-02-20 01:31:31, 2026-02-20 01:46:34, 2026-02-20 02:01:52, 2026-02-20 02:13:54, 2026-02-20 02:31:32, 2026-02-20 02:46:54, 2026-02-20 03:16:26, 2026-02-20 03:31:52, 2026-02-20 03:46:28, 2026-02-20 03:58:50, 2026-02-20 04:16:26, 2026-02-20 04:31:37, 2026-02-20 04:46:58, 2026-02-20 04:57:06", "cumulative_total": 24 }, "geometry": { "type": "Polygon", "coordinates": [ [ [ -74.375218449494142, 45.960687836385681 ], [ -74.38164185231517, 45.963320971387674 ], [ -74.381584034124472, 45.968517050717381 ], [ -74.37510160662859, 45.971079982390698 ], [ -74.368677624638167, 45.968446480298553 ], [ -74.368736649307579, 45.963250413688904 ], [ -74.375218449494142, 45.960687836385681 ] ] ] } },
{ "type": "Feature", "properties": { "hex_id": 497024, "centroid_lon": -74.374984699554687, "centroid_lat": 45.981472109182761, "occurrences_today": 18, "datetimes_today": "2026-02-20 00:17:11, 2026-02-20 00:32:13, 2026-02-20 00:47:02, 2026-02-20 01:02:01, 2026-02-20 01:31:31, 2026-02-20 01:46:34, 2026-02-20 02:01:52, 2026-02-20 02:13:54, 2026-02-20 02:31:32, 2026-02-20 02:46:54, 2026-02-20 03:16:26, 2026-02-20 03:31:52, 2026-02-20 03:46:28, 2026-02-20 03:58:50, 2026-02-20 04:16:26, 2026-02-20 04:31:37, 2026-02-20 04:46:58, 2026-02-20 04:57:06", "cumulative_total": 24 }, "geometry": { "type": "Polygon", "coordinates": [ [ [ -74.375043161120416, 45.976276048188339 ], [ -74.381468350086678, 45.978909194970583 ], [ -74.38141048422878, 45.984105259894108 ], [ -74.374926221925961, 45.986668165373956 ], [ -74.368500453317608, 45.984034651300938 ], [ -74.36855952664871, 45.978838599104556 ], [ -74.375043161120416, 45.976276048188339 ] ] ] } },
{ "type": "Feature", "properties": { "hex_id": 497025, "centroid_lon": -74.374809218457628, "centroid_lat": 45.997060263346775, "occurrences_today": 18, "datetimes_today": "2026-02-20 00:17:11, 2026-02-20 00:32:13, 2026-02-20 00:47:02, 2026-02-20 01:02:01, 2026-02-20 01:31:31, 2026-02-20 01:46:34, 2026-02-20 02:01:52, 2026-02-20 02:13:54, 2026-02-20 02:31:32, 2026-02-20 02:46:54, 2026-02-20 03:16:26, 2026-02-20 03:31:52, 2026-02-20 03:46:28, 2026-02-20 03:58:50, 2026-02-20 04:16:26, 2026-02-20 04:31:37, 2026-02-20 04:46:58, 2026-02-20 04:57:06", "cumulative_total": 27 }, "geometry": { "type": "Polygon", "coordinates": [ [ [ -74.37486772822875, 45.991864216761975 ], [ -74.381294704807956, 45.994497375335094 ], [ -74.38123679123423, 45.99969342585257 ], [ -74.374750692607094, 46.002256305128441 ], [ -74.368323135912632, 45.999622779063799 ], [ -74.368382257955091, 45.994426741280549 ], [ -74.37486772822875, 45.991864216761975 ] ] ] } },
{ "type": "Feature", "properties": { "hex_id": 497634, "centroid_lon": -74.368618583753729, "centroid_lat": 45.973642542103775, "occurrences_today": 18, "datetimes_today": "2026-02-20 00:17:11, 2026-02-20 00:32:13, 2026-02-20 00:47:02, 2026-02-20 01:02:01, 2026-02-20 01:31:31, 2026-02-20 01:46:34, 2026-02-20 02:01:52, 2026-02-20 02:13:54, 2026-02-20 02:31:32, 2026-02-20 02:46:54, 2026-02-20 03:16:26, 2026-02-20 03:31:52, 2026-02-20 03:46:28, 2026-02-20 03:58:50, 2026-02-20 04:16:26, 2026-02-20 04:31:37, 2026-02-20 04:46:58, 2026-02-20 04:57:06", "cumulative_total": 24 }, "geometry": { "type": "Polygon", "coordinates": [ [ [ -74.368677624638167, 45.968446480298553 ], [ -74.37510160662859, 45.971079982390698 ], [ -74.375043161120416, 45.976276048188339 ], [ -74.36855952664871, 45.978838599104556 ], [ -74.362134965505334, 45.976204729758926 ], [ -74.362194617981118, 45.971008676816254 ], [ -74.368677624638167, 45.968446480298553 ] ] ] } },
{ "type": "Feature", "properties": { "hex_id": 497635, "centroid_lon": -74.368441363754897, "centroid_lat": 45.989230698692928, "occurrences_today": 18, "datetimes_today": "2026-02-20 00:17:11, 2026-02-20 00:32:13, 2026-02-20 00:47:02, 2026-02-20 01:02:01, 2026-02-20 01:31:31, 2026-02-20 01:46:34, 2026-02-20 02:01:52, 2026-02-20 02:13:54, 2026-02-20 02:31:32, 2026-02-20 02:46:54, 2026-02-20 03:16:26, 2026-02-20 03:31:52, 2026-02-20 03:46:28, 2026-02-20 03:58:50, 2026-02-20 04:16:26, 2026-02-20 04:31:37, 2026-02-20 04:46:58, 2026-02-20 04:57:06", "cumulative_total": 24 }, "geometry": { "type": "Polygon", "coordinates": [ [ [ -74.368500453317608, 45.984034651300938 ], [ -74.374926221925961, 45.986668165373956 ], [ -74.37486772822875, 45.991864216761975 ], [ -74.368382257955091, 45.994426741280549 ], [ -74.361955909721104, 45.991792859753332 ], [ -74.362015611380897, 45.986596821227458 ], [ -74.368500453317608, 45.984034651300938 ] ] ] } },
{ "type": "Feature", "properties": { "hex_id": 497636, "centroid_lon": -74.368263997622023, "centroid_lat": 46.0048188120427, "occurrences_today": 18, "datetimes_today": "2026-02-20 00:17:11, 2026-02-20 00:32:13, 2026-02-20 00:47:02, 2026-02-20 01:02:01, 2026-02-20 01:31:31, 2026-02-20 01:46:34, 2026-02-20 02:01:52, 2026-02-20 02:13:54, 2026-02-20 02:31:32, 2026-02-20 02:46:54, 2026-02-20 03:16:26, 2026-02-20 03:31:52, 2026-02-20 03:46:28, 2026-02-20 03:58:50, 2026-02-20 04:16:26, 2026-02-20 04:31:37, 2026-02-20 04:46:58, 2026-02-20 04:57:06", "cumulative_total": 27 }, "geometry": { "type": "Polygon", "coordinates": [ [ [ -74.368323135912632, 45.999622779063799 ], [ -74.374750692607094, 46.002256305128441 ], [ -74.374692150671706, 46.007452342106937 ], [ -74.36820484307772, 46.010014840217245 ], [ -74.361776706284488, 46.00738094649757 ], [ -74.361836457178484, 46.002184922388373 ], [ -74.368323135912632, 45.999622779063799 ] ] ] } },
{ "type": "Feature", "properties": { "hex_id": 498244, "centroid_lon": -74.362254254073349, "centroid_lat": 45.965812619067968, "occurrences_today": 18, "datetimes_today": "2026-02-20 00:17:11, 2026-02-20 00:32:13, 2026-02-20 00:47:02, 2026-02-20 01:02:01, 2026-02-20 01:31:31, 2026-02-20 01:46:34, 2026-02-20 02:01:52, 2026-02-20 02:13:54, 2026-02-20 02:31:32, 2026-02-20 02:46:54, 2026-02-20 03:16:26, 2026-02-20 03:31:52, 2026-02-20 03:46:28, 2026-02-20 03:58:50, 2026-02-20 04:16:26, 2026-02-20 04:31:37, 2026-02-20 04:46:58, 2026-02-20 04:57:06", "cumulative_total": 24 }, "geometry": { "type": "Polygon", "coordinates": [ [ [ -74.362313873787642, 45.960616556514026 ], [ -74.368736649307579, 45.963250413688904 ], [ -74.368677624638167, 45.968446480298553 ], [ -74.362194617981118, 45.971008676816254 ], [ -74.355771263797052, 45.968374452425273 ], [ -74.355831494928623, 45.963178398798348 ], [ -74.362313873787642, 45.960616556514026 ] ] ] } },
{ "type": "Feature", "properties": { "hex_id": 498245, "centroid_lon": -74.362075296640455, "centroid_lat": 45.981400777895999, "occurrences_today": 18, "datetimes_today": "2026-02-20 00:17:11, 2026-02-20 00:32:13, 2026-02-20 00:47:02, 2026-02-20 01:02:01, 2026-02-20 01:31:31, 2026-02-20 01:46:34, 2026-02-20 02:01:52, 2026-02-20 02:13:54, 2026-02-20 02:31:32, 2026-02-20 02:46:54, 2026-02-20 03:16:26, 2026-02-20 03:31:52, 2026-02-20 03:46:28, 2026-02-20 03:58:50, 2026-02-20 04:16:26, 2026-02-20 04:31:37, 2026-02-20 04:46:58, 2026-02-20 04:57:06", "cumulative_total": 24 }, "geometry": { "type": "Polygon", "coordinates": [ [ [ -74.362134965505334, 45.976204729758926 ], [ -74.36855952664871, 45.978838599104556 ], [ -74.368500453317608, 45.984034651300938 ], [ -74.362015611380897, 45.986596821227458 ], [ -74.355590471101209, 45.983962584465012 ], [ -74.355650751888959, 45.97876654525858 ], [ -74.362134965505334, 45.976204729758926 ] ] ] } },
{ "type": "Feature", "properties": { "hex_id": 498246, "centroid_lon": -74.361896191655504, "centroid_lat": 45.996988893473628, "occurrences_today": 18, "datetimes_today": "2026-02-20 00:17:11, 2026-02-20 00:32:13, 2026-02-20 00:47:02, 2026-02-20 01:02:01, 2026-02-20 01:31:31, 2026-02-20 01:46:34, 2026-02-20 02:01:52, 2026-02-20 02:13:54, 2026-02-20 02:31:32, 2026-02-20 02:46:54, 2026-02-20 03:16:26, 2026-02-20 03:31:52, 2026-02-20 03:46:28, 2026-02-20 03:58:50, 2026-02-20 04:16:26, 2026-02-20 04:31:37, 2026-02-20 04:46:58, 2026-02-20 04:57:06", "cumulative_total": 27 }, "geometry": { "type": "Polygon", "coordinates": [ [ [ -74.361955909721104, 45.991792859753332 ], [ -74.368382257955091, 45.994426741280549 ], [ -74.368323135912632, 45.999622779063799 ], [ -74.361836457178484, 46.002184922388373 ], [ -74.355409529335532, 45.999550673243519 ], [ -74.355469859830123, 45.994354648457474 ], [ -74.361955909721104, 45.991792859753332 ] ] ] } },
{ "type": "Feature", "properties": { "hex_id": 498854, "centroid_lon": -74.355891709519383, "centroid_lat": 45.957982340364573, "occurrences_today": 18, "datetimes_today": "2026-02-20 00:17:11, 2026-02-20 00:32:13, 2026-02-20 00:47:02, 2026-02-20 01:02:01, 2026-02-20 01:31:31, 2026-02-20 01:46:34, 2026-02-20 02:01:52, 2026-02-20 02:13:54, 2026-02-20 02:31:32, 2026-02-20 02:46:54, 2026-02-20 03:16:26, 2026-02-20 03:31:52, 2026-02-20 03:46:28, 2026-02-20 03:58:50, 2026-02-20 04:16:26, 2026-02-20 04:31:37, 2026-02-20 04:46:58, 2026-02-20 04:57:06", "cumulative_total": 24 }, "geometry": { "type": "Polygon", "coordinates": [ [ [ -74.355951907574962, 45.95278627712392 ], [ -74.362373477129537, 45.955420489154449 ], [ -74.362313873787642, 45.960616556514026 ], [ -74.355831494928623, 45.963178398798348 ], [ -74.34940934719836, 45.960543819589084 ], [ -74.34947015649719, 45.955347765339894 ], [ -74.355951907574962, 45.95278627712392 ] ] ] } },
{ "type": "Feature", "properties": { "hex_id": 498855, "centroid_lon": -74.355711016119031, "centroid_lat": 45.973570501245348, "occurrences_today": 18, "datetimes_today": "2026-02-20 00:17:11, 2026-02-20 00:32:13, 2026-02-20 00:47:02, 2026-02-20 01:02:01, 2026-02-20 01:31:31, 2026-02-20 01:46:34, 2026-02-20 02:01:52, 2026-02-20 02:13:54, 2026-02-20 02:31:32, 2026-02-20 02:46:54, 2026-02-20 03:16:26, 2026-02-20 03:31:52, 2026-02-20 03:46:28, 2026-02-20 03:58:50, 2026-02-20 04:16:26, 2026-02-20 04:31:37, 2026-02-20 04:46:58, 2026-02-20 04:57:06", "cumulative_total": 24 }, "geometry": { "type": "Polygon", "coordinates": [ [ [ -74.355771263797052, 45.968374452425273 ], [ -74.362194617981118, 45.971008676816254 ], [ -74.362134965505334, 45.976204729758926 ], [ -74.355650751888959, 45.97876654525858 ], [ -74.349226819057534, 45.976131953488157 ], [ -74.349287678484217, 45.97093591366319 ], [ -74.355771263797052, 45.968374452425273 ] ] ] } },
{ "type": "Feature", "properties": { "hex_id": 498856, "centroid_lon": -74.35553017375014, "centroid_lat": 45.989158618864636, "occurrences_today": 18, "datetimes_today": "2026-02-20 00:17:11, 2026-02-20 00:32:13, 2026-02-20 00:47:02, 2026-02-20 01:02:01, 2026-02-20 01:31:31, 2026-02-20 01:46:34, 2026-02-20 02:01:52, 2026-02-20 02:13:54, 2026-02-20 02:31:32, 2026-02-20 02:46:54, 2026-02-20 03:16:26, 2026-02-20 03:31:52, 2026-02-20 03:46:28, 2026-02-20 03:58:50, 2026-02-20 04:16:26, 2026-02-20 04:31:37, 2026-02-20 04:46:58, 2026-02-20 04:57:06", "cumulative_total": 27 }, "geometry": { "type": "Polygon", "coordinates": [ [ [ -74.355590471101209, 45.983962584465012 ], [ -74.362015611380897, 45.986596821227458 ], [ -74.361955909721104, 45.991792859753332 ], [ -74.355469859830123, 45.994354648457474 ], [ -74.349044140430919, 45.991720044114821 ], [ -74.349105050036584, 45.986524018713958 ], [ -74.355590471101209, 45.983962584465012 ] ] ] } },
{ "type": "Feature", "properties": { "hex_id": 498857, "centroid_lon": -74.355349182260724, "centroid_lat": 46.00474669322282, "occurrences_today": 18, "datetimes_today": "2026-02-20 00:17:11, 2026-02-20 00:32:13, 2026-02-20 00:47:02, 2026-02-20 01:02:01, 2026-02-20 01:31:31, 2026-02-20 01:46:34, 2026-02-20 02:01:52, 2026-02-20 02:13:54, 2026-02-20 02:31:32, 2026-02-20 02:46:54, 2026-02-20 03:16:26, 2026-02-20 03:31:52, 2026-02-20 03:46:28, 2026-02-20 03:58:50, 2026-02-20 04:16:26, 2026-02-20 04:31:37, 2026-02-20 04:46:58, 2026-02-20 04:57:06", "cumulative_total": 27 }, "geometry": { "type": "Polygon", "coordinates": [ [ [ -74.355409529335532, 45.999550673243519 ], [ -74.361836457178484, 46.002184922388373 ], [ -74.361776706284488, 46.00738094649757 ], [ -74.355288818600059, 46.009942708395343 ], [ -74.348861311164967, 46.007308091469383 ], [ -74.348922271000802, 46.002112080492509 ], [ -74.355409529335532, 45.999550673243519 ] ] ] } },
{ "type": "Feature", "properties": { "hex_id": 499465, "centroid_lon": -74.349348521195935, "centroid_lat": 45.965739869030173, "occurrences_today": 18, "datetimes_today": "2026-02-20 00:17:11, 2026-02-20 00:32:13, 2026-02-20 00:47:02, 2026-02-20 01:02:01, 2026-02-20 01:31:31, 2026-02-20 01:46:34, 2026-02-20 02:01:52, 2026-02-20 02:13:54, 2026-02-20 02:31:32, 2026-02-20 02:46:54, 2026-02-20 03:16:26, 2026-02-20 03:31:52, 2026-02-20 03:46:28, 2026-02-20 03:58:50, 2026-02-20 04:16:26, 2026-02-20 04:31:37, 2026-02-20 04:46:58, 2026-02-20 04:57:06", "cumulative_total": 126 }, "geometry": { "type": "Polygon", "coordinates": [ [ [ -74.34940934719836, 45.960543819589084 ], [ -74.355831494928623, 45.963178398798348 ], [ -74.355771263797052, 45.968374452425273 ], [ -74.349287678484217, 45.97093591366319 ], [ -74.342864952595221, 45.968300967111958 ], [ -74.34292639017211, 45.963104926730423 ], [ -74.34940934719836, 45.960543819589084 ] ] ] } },
{ "type": "Feature", "properties": { "hex_id": 499466, "centroid_lon": -74.349165942910219, "centroid_lat": 45.981327988505072, "occurrences_today": 18, "datetimes_today": "2026-02-20 00:17:11, 2026-02-20 00:32:13, 2026-02-20 00:47:02, 2026-02-20 01:02:01, 2026-02-20 01:31:31, 2026-02-20 01:46:34, 2026-02-20 02:01:52, 2026-02-20 02:13:54, 2026-02-20 02:31:32, 2026-02-20 02:46:54, 2026-02-20 03:16:26, 2026-02-20 03:31:52, 2026-02-20 03:46:28, 2026-02-20 03:58:50, 2026-02-20 04:16:26, 2026-02-20 04:31:37, 2026-02-20 04:46:58, 2026-02-20 04:57:06", "cumulative_total": 51 }, "geometry": { "type": "Polygon", "coordinates": [ [ [ -74.349226819057534, 45.976131953488157 ], [ -74.355650751888959, 45.97876654525858 ], [ -74.355590471101209, 45.983962584465012 ], [ -74.349105050036584, 45.986524018713958 ], [ -74.342680538574754, 45.983889059400788 ], [ -74.34274202680227, 45.978693033447129 ], [ -74.349226819057534, 45.976131953488157 ] ] ] } },
{ "type": "Feature", "properties": { "hex_id": 499467, "centroid_lon": -74.348983214087568, "centroid_lat": 45.996916064707662, "occurrences_today": 18, "datetimes_today": "2026-02-20 00:17:11, 2026-02-20 00:32:13, 2026-02-20 00:47:02, 2026-02-20 01:02:01, 2026-02-20 01:31:31, 2026-02-20 01:46:34, 2026-02-20 02:01:52, 2026-02-20 02:13:54, 2026-02-20 02:31:32, 2026-02-20 02:46:54, 2026-02-20 03:16:26, 2026-02-20 03:31:52, 2026-02-20 03:46:28, 2026-02-20 03:58:50, 2026-02-20 04:16:26, 2026-02-20 04:31:37, 2026-02-20 04:46:58, 2026-02-20 04:57:06", "cumulative_total": 27 }, "geometry": { "type": "Polygon", "coordinates": [ [ [ -74.349044140430919, 45.991720044114821 ], [ -74.355469859830123, 45.994354648457474 ], [ -74.355409529335532, 45.999550673243519 ], [ -74.348922271000802, 46.002112080492509 ], [ -74.34249597249908, 45.999477108406239 ], [ -74.342557511428907, 45.994281096880329 ], [ -74.349044140430919, 45.991720044114821 ] ] ] } },
{ "type": "Feature", "properties": { "hex_id": 500076, "centroid_lon": -74.342803498140512, "centroid_lat": 45.973497002684198, "occurrences_today": 18, "datetimes_today": "2026-02-20 00:17:11, 2026-02-20 00:32:13, 2026-02-20 00:47:02, 2026-02-20 01:02:01, 2026-02-20 01:31:31, 2026-02-20 01:46:34, 2026-02-20 02:01:52, 2026-02-20 02:13:54, 2026-02-20 02:31:32, 2026-02-20 02:46:54, 2026-02-20 03:16:26, 2026-02-20 03:31:52, 2026-02-20 03:46:28, 2026-02-20 03:58:50, 2026-02-20 04:16:26, 2026-02-20 04:31:37, 2026-02-20 04:46:58, 2026-02-20 04:57:06", "cumulative_total": 27 }, "geometry": { "type": "Polygon", "coordinates": [ [ [ -74.342864952595221, 45.968300967111958 ], [ -74.349287678484217, 45.97093591366319 ], [ -74.349226819057534, 45.976131953488157 ], [ -74.34274202680227, 45.978693033447129 ], [ -74.336318722771665, 45.97605771939061 ], [ -74.336380789132193, 45.970861692946094 ], [ -74.342864952595221, 45.968300967111958 ] ] ] } },
{ "type": "Feature", "properties": { "hex_id": 500077, "centroid_lon": -74.342619033452209, "centroid_lat": 45.989085080545188, "occurrences_today": 18, "datetimes_today": "2026-02-20 00:17:11, 2026-02-20 00:32:13, 2026-02-20 00:47:02, 2026-02-20 01:02:01, 2026-02-20 01:31:31, 2026-02-20 01:46:34, 2026-02-20 02:01:52, 2026-02-20 02:13:54, 2026-02-20 02:31:32, 2026-02-20 02:46:54, 2026-02-20 03:16:26, 2026-02-20 03:31:52, 2026-02-20 03:46:28, 2026-02-20 03:58:50, 2026-02-20 04:16:26, 2026-02-20 04:31:37, 2026-02-20 04:46:58, 2026-02-20 04:57:06", "cumulative_total": 27 }, "geometry": { "type": "Polygon", "coordinates": [ [ [ -74.342680538574754, 45.983889059400788 ], [ -74.349105050036584, 45.986524018713958 ], [ -74.349044140430919, 45.991720044114821 ], [ -74.342557511428907, 45.994281096880329 ], [ -74.336132421353838, 45.991645769861037 ], [ -74.336194538888279, 45.986449757848071 ], [ -74.342680538574754, 45.983889059400788 ] ] ] } },
{ "type": "Feature", "properties": { "hex_id": 500688, "centroid_lon": -74.336070286749816, "centroid_lat": 45.996841777063501, "occurrences_today": 18, "datetimes_today": "2026-02-20 00:17:11, 2026-02-20 00:32:13, 2026-02-20 00:47:02, 2026-02-20 01:02:01, 2026-02-20 01:31:31, 2026-02-20 01:46:34, 2026-02-20 02:01:52, 2026-02-20 02:13:54, 2026-02-20 02:31:32, 2026-02-20 02:46:54, 2026-02-20 03:16:26, 2026-02-20 03:31:52, 2026-02-20 03:46:28, 2026-02-20 03:58:50, 2026-02-20 04:16:26, 2026-02-20 04:31:37, 2026-02-20 04:46:58, 2026-02-20 04:57:06", "cumulative_total": 27 }, "geometry": { "type": "Polygon", "coordinates": [ [ [ -74.336132421353838, 45.991645769861037 ], [ -74.342557511428907, 45.994281096880329 ], [ -74.34249597249908, 45.999477108406239 ], [ -74.336008135070401, 46.002037779455478 ], [ -74.329582466399415, 45.99940208456669 ], [ -74.329645213747227, 45.994206086563885 ], [ -74.336132421353838, 45.991645769861037 ] ] ] } },
{ "type": "Feature", "properties": { "hex_id": 506186, "centroid_lon": -74.2772521383623, "centroid_lat": 46.051046547077419, "occurrences_today": 16, "datetimes_today": "2026-02-20 00:17:11, 2026-02-20 00:32:13, 2026-02-20 00:47:02, 2026-02-20 01:02:01, 2026-02-20 01:31:31, 2026-02-20 01:46:34, 2026-02-20 02:01:52, 2026-02-20 02:13:54, 2026-02-20 02:31:32, 2026-02-20 02:46:54, 2026-02-20 03:16:26, 2026-02-20 03:31:52, 2026-02-20 03:46:28, 2026-02-20 03:58:50, 2026-02-20 04:16:26, 2026-02-20 04:31:37", "cumulative_total": 74 }, "geometry": { "type": "Polygon", "coordinates": [ [ [ -74.277319905211115, 46.045850654018849 ], [ -74.283748411715735, 46.048489282975645 ], [ -74.283681241466155, 46.053685180957714 ], [ -74.277184352877811, 46.056242435313798 ], [ -74.270755268412813, 46.053603437217127 ], [ -74.2708236504902, 46.048407553970115 ], [ -74.277319905211115, 46.045850654018849 ] ] ] } },
{ "type": "Feature", "properties": { "hex_id": 1428956, "centroid_lon": -63.607923239943254, "centroid_lat": 50.237156230631811, "occurrences_today": 3, "datetimes_today": "2026-02-20 06:16:21, 2026-02-20 06:31:47, 2026-02-20 06:46:22", "cumulative_total": 6 }, "geometry": { "type": "Polygon", "coordinates": [ [ [ -63.609152329580049, 50.232066125346826 ], [ -63.615410578461798, 50.235293712068028 ], [ -63.614182014690314, 50.240383926659511 ], [ -63.606693797667077, 50.24224630945411 ], [ -63.600435375624564, 50.239018220185926 ], [ -63.601665343635709, 50.233928250736298 ], [ -63.609152329580049, 50.232066125346826 ] ] ] } },
{ "type": "Feature", "properties": { "hex_id": 656931, "centroid_lon": -72.712688215150379, "centroid_lat": 45.274310282920119, "occurrences_today": 5, "datetimes_today": "2026-02-20 06:46:22, 2026-02-20 07:01:40, 2026-02-20 07:16:41, 2026-02-20 07:31:42, 2026-02-20 07:46:42", "cumulative_total": 5 }, "geometry": { "type": "Polygon", "coordinates": [ [ [ -72.712896901606555, 45.269117413344993 ], [ -72.719161645121247, 45.271841282258855 ], [ -72.718953510232623, 45.277034172033233 ], [ -72.712479471888386, 45.27950314699914 ], [ -72.706214233621409, 45.276778904311918 ], [ -72.706423528432012, 45.271586060495906 ], [ -72.712896901606555, 45.269117413344993 ] ] ] } },
{ "type": "Feature", "properties": { "hex_id": 657542, "centroid_lon": -72.706004881837998, "centroid_lat": 45.281971742627547, "occurrences_today": 5, "datetimes_today": "2026-02-20 06:46:22, 2026-02-20 07:01:40, 2026-02-20 07:16:41, 2026-02-20 07:31:42, 2026-02-20 07:46:42", "cumulative_total": 5 }, "geometry": { "type": "Polygon", "coordinates": [ [ [ -72.706214233621409, 45.276778904311918 ], [ -72.712479471888386, 45.27950314699914 ], [ -72.712270671801676, 45.284696005581772 ], [ -72.705795473062807, 45.287164575442503 ], [ -72.699529740100445, 45.284439958825857 ], [ -72.699739700553323, 45.27924714634166 ], [ -72.706214233621409, 45.276778904311918 ] ] ] } },
{ "type": "Feature", "properties": { "hex_id": 658152, "centroid_lon": -72.699949603866358, "centroid_lat": 45.27405432835279, "occurrences_today": 5, "datetimes_today": "2026-02-20 06:46:22, 2026-02-20 07:01:40, 2026-02-20 07:16:41, 2026-02-20 07:31:42, 2026-02-20 07:46:42", "cumulative_total": 5 }, "geometry": { "type": "Polygon", "coordinates": [ [ [ -72.700159450058578, 45.268861504859437 ], [ -72.706423528432012, 45.271586060495906 ], [ -72.706214233621409, 45.276778904311918 ], [ -72.699739700553323, 45.27924714634166 ], [ -72.693475127928593, 45.276522216823089 ], [ -72.693685582604203, 45.271329419220621 ], [ -72.700159450058578, 45.268861504859437 ] ] ] } },
{ "type": "Feature", "properties": { "hex_id": 1347006, "centroid_lon": -64.989279517894389, "centroid_lat": 48.132573514449824, "occurrences_today": 2, "datetimes_today": "2026-02-20 07:31:42, 2026-02-20 07:46:42", "cumulative_total": 8 }, "geometry": { "type": "Polygon", "coordinates": [ [ [ -64.990283896432032, 48.127458284523769 ], [ -64.996399134177224, 48.130598010222641 ], [ -64.995395252524077, 48.135713333835916 ], [ -64.988274859451181, 48.137688723991026 ], [ -64.982159404776283, 48.134548533861441 ], [ -64.983164560005591, 48.129433418070725 ], [ -64.990283896432032, 48.127458284523769 ] ] ] } },
{ "type": "Feature", "properties": { "hex_id": 550713, "centroid_lon": -73.818579383343604, "centroid_lat": 45.431426448456754, "occurrences_today": 1, "datetimes_today": "2026-02-20 07:46:42", "cumulative_total": 15 }, "geometry": { "type": "Polygon", "coordinates": [ [ [ -73.818687784891637, 45.426230681758227 ], [ -73.825024042626154, 45.428894489120268 ], [ -73.824916212424242, 45.434090265222586 ], [ -73.818470952215577, 45.436622210206004 ], [ -73.812134152719892, 45.433958037167343 ], [ -73.812243155184134, 45.428762284886261 ], [ -73.818687784891637, 45.426230681758227 ] ] ] } },
{ "type": "Feature", "properties": { "hex_id": 563543, "centroid_lon": -73.680924952328766, "centroid_lat": 45.578029077741803, "occurrences_today": 1, "datetimes_today": "2026-02-20 07:46:42", "cumulative_total": 54 }, "geometry": { "type": "Polygon", "coordinates": [ [ [ -73.68104660225822, 45.572833717789152 ], [ -73.68739250824504, 45.575505205440756 ], [ -73.687271432236116, 45.580700576192854 ], [ -73.68080326914729, 45.583224432695104 ], [ -73.674456822497561, 45.580552576217158 ], [ -73.674579079588369, 45.575357232127999 ], [ -73.68104660225822, 45.572833717789152 ] ] ] } },
{ "type": "Feature", "properties": { "hex_id": 650205, "centroid_lon": -72.78909990504232, "centroid_lat": 45.11210680628519, "occurrences_today": 1, "datetimes_today": "2026-02-20 07:46:42", "cumulative_total": 40 }, "geometry": { "type": "Polygon", "coordinates": [ [ [ -72.789300486498263, 45.106913516236013 ], [ -72.795551549545081, 45.109632992565608 ], [ -72.795351516025491, 45.11482630201246 ], [ -72.788899269087437, 45.117300090890922 ], [ -72.782647712612246, 45.11458024351338 ], [ -72.78284889648539, 45.109386978368725 ], [ -72.789300486498263, 45.106913516236013 ] ] ] } },
{ "type": "Feature", "properties": { "hex_id": 740023, "centroid_lon": -71.79023947945872, "centroid_lat": 46.249877272574523, "occurrences_today": 1, "datetimes_today": "2026-02-20 07:46:42", "cumulative_total": 82 }, "geometry": { "type": "Polygon", "coordinates": [ [ [ -71.790542379952086, 46.244689310309234 ], [ -71.796866989125093, 46.247465100132665 ], [ -71.796564655639784, 46.252653092003257 ], [ -71.789936495582069, 46.255065228574793 ], [ -71.783611402798556, 46.252289044373903 ], [ -71.783914953654786, 46.247101118044533 ], [ -71.790542379952086, 46.244689310309234 ] ] ] } },
{ "type": "Feature", "properties": { "hex_id": 788890, "centroid_lon": -71.243547571809771, "centroid_lat": 46.654118281423138, "occurrences_today": 1, "datetimes_today": "2026-02-20 07:46:42", "cumulative_total": 17 }, "geometry": { "type": "Polygon", "coordinates": [ [ [ -71.243907028985419, 46.648933703270913 ], [ -71.250247662768587, 46.651740172563869 ], [ -71.249888776368863, 46.656924785859594 ], [ -71.243188015215893, 46.659302852722924 ], [ -71.236846910092154, 46.656495979108705 ], [ -71.237207037427666, 46.65131144301872 ], [ -71.243907028985419, 46.648933703270913 ] ] ] } }
]
}
