{
"type": "FeatureCollection",
"name": "daily_2026-01-03",
"crs": { "type": "name", "properties": { "name": "urn:ogc:def:crs:OGC:1.3:CRS84" } },
"features": [
{ "type": "Feature", "properties": { "hex_id": 300431, "centroid_lon": -76.44846604324762, "centroid_lat": 45.786926954353312, "occurrences_today": 11, "datetimes_today": "2026-01-03 09:32:54, 2026-01-03 10:31:59, 2026-01-03 11:39:00, 2026-01-03 12:31:54, 2026-01-03 13:44:56, 2026-01-03 14:26:59, 2026-01-03 15:35:01, 2026-01-03 16:30:53, 2026-01-03 17:34:22, 2026-01-03 18:31:00, 2026-01-03 21:39:56", "cumulative_total": 94 }, "geometry": { "type": "Polygon", "coordinates": [ [ [ -76.448331486620731, 45.78173206899357 ], [ -76.45482899525345, 45.784247801966238 ], [ -76.454964167254545, 45.789442670075474 ], [ -76.448600636746534, 45.792121834660819 ], [ -76.442102475861361, 45.789605758370357 ], [ -76.441968497749116, 45.784410860877479 ], [ -76.448331486620731, 45.78173206899357 ] ] ] } },
{ "type": "Feature", "properties": { "hex_id": 301652, "centroid_lon": -76.435604893654272, "centroid_lat": 45.787089304354055, "occurrences_today": 11, "datetimes_today": "2026-01-03 09:32:54, 2026-01-03 10:31:59, 2026-01-03 11:39:00, 2026-01-03 12:31:54, 2026-01-03 13:44:56, 2026-01-03 14:26:59, 2026-01-03 15:35:01, 2026-01-03 16:30:53, 2026-01-03 17:34:22, 2026-01-03 18:31:00, 2026-01-03 21:39:56", "cumulative_total": 95 }, "geometry": { "type": "Polygon", "coordinates": [ [ [ -76.43547153077148, 45.78189438974367 ], [ -76.441968497749116, 45.784410860877479 ], [ -76.442102475861361, 45.789605758370357 ], [ -76.435738293082238, 45.792284213917611 ], [ -76.429240674323808, 45.789767399323573 ], [ -76.429107890137644, 45.784572472707644 ], [ -76.43547153077148, 45.78189438974367 ] ] ] } },
{ "type": "Feature", "properties": { "hex_id": 302262, "centroid_lon": -76.428975142327062, "centroid_lat": 45.779377541047594, "occurrences_today": 11, "datetimes_today": "2026-01-03 09:32:54, 2026-01-03 10:31:59, 2026-01-03 11:39:00, 2026-01-03 12:31:54, 2026-01-03 13:44:56, 2026-01-03 14:26:59, 2026-01-03 15:35:01, 2026-01-03 16:30:53, 2026-01-03 17:34:22, 2026-01-03 18:31:00, 2026-01-03 21:39:56", "cumulative_total": 92 }, "geometry": { "type": "Polygon", "coordinates": [ [ [ -76.428842430879783, 45.774182604343487 ], [ -76.435338204421512, 45.776699470086513 ], [ -76.43547153077148, 45.78189438974367 ], [ -76.429107890137644, 45.784572472707644 ], [ -76.422611465323754, 45.782055263526829 ], [ -76.422479332428182, 45.776860314884935 ], [ -76.428842430879783, 45.774182604343487 ] ] ] } },
{ "type": "Feature", "properties": { "hex_id": 302873, "centroid_lon": -76.422743634425416, "centroid_lat": 45.787250207127286, "occurrences_today": 11, "datetimes_today": "2026-01-03 09:32:54, 2026-01-03 10:31:59, 2026-01-03 11:39:00, 2026-01-03 12:31:54, 2026-01-03 13:44:56, 2026-01-03 14:26:59, 2026-01-03 15:35:01, 2026-01-03 16:30:53, 2026-01-03 17:34:22, 2026-01-03 18:31:00, 2026-01-03 21:39:56", "cumulative_total": 100 }, "geometry": { "type": "Polygon", "coordinates": [ [ [ -76.422611465323754, 45.782055263526829 ], [ -76.429107890137644, 45.784572472707644 ], [ -76.429240674323808, 45.789767399323573 ], [ -76.422875839745402, 45.792445145686251 ], [ -76.416378763622561, 45.789927592902863 ], [ -76.416247173399356, 45.784732637424504 ], [ -76.422611465323754, 45.782055263526829 ] ] ] } },
{ "type": "Feature", "properties": { "hex_id": 525704, "centroid_lon": -74.075126162974357, "centroid_lat": 45.768981051189449, "occurrences_today": 20, "datetimes_today": "2026-01-03 00:36:49, 2026-01-03 01:48:02, 2026-01-03 02:31:19, 2026-01-03 03:41:02, 2026-01-03 04:33:47, 2026-01-03 05:36:34, 2026-01-03 06:27:49, 2026-01-03 08:00:03, 2026-01-03 08:39:49, 2026-01-03 09:32:54, 2026-01-03 10:31:59, 2026-01-03 11:39:00, 2026-01-03 12:31:54, 2026-01-03 13:44:56, 2026-01-03 14:26:59, 2026-01-03 15:35:01, 2026-01-03 16:30:53, 2026-01-03 17:34:22, 2026-01-03 18:31:00, 2026-01-03 21:39:56", "cumulative_total": 220 }, "geometry": { "type": "Polygon", "coordinates": [ [ [ -74.075212031664705, 45.763785164494649 ], [ -74.08159851433156, 45.76643497329264 ], [ -74.081513230712119, 45.771630866899443 ], [ -74.075040270754485, 45.774176933012619 ], [ -74.068653226550211, 45.771526756711424 ], [ -74.068739703833018, 45.766330881865457 ], [ -74.075212031664705, 45.763785164494649 ] ] ] } },
{ "type": "Feature", "properties": { "hex_id": 526315, "centroid_lon": -74.06856672557042, "centroid_lat": 45.776722626684027, "occurrences_today": 20, "datetimes_today": "2026-01-03 00:36:49, 2026-01-03 01:48:02, 2026-01-03 02:31:19, 2026-01-03 03:41:02, 2026-01-03 04:33:47, 2026-01-03 05:36:34, 2026-01-03 06:27:49, 2026-01-03 08:00:03, 2026-01-03 08:39:49, 2026-01-03 09:32:54, 2026-01-03 10:31:59, 2026-01-03 11:39:00, 2026-01-03 12:31:54, 2026-01-03 13:44:56, 2026-01-03 14:26:59, 2026-01-03 15:35:01, 2026-01-03 16:30:53, 2026-01-03 17:34:22, 2026-01-03 18:31:00, 2026-01-03 21:39:56", "cumulative_total": 203 }, "geometry": { "type": "Polygon", "coordinates": [ [ [ -74.068653226550211, 45.771526756711424 ], [ -74.075040270754485, 45.774176933012619 ], [ -74.074954354997175, 45.779372809964137 ], [ -74.068480200885659, 45.781918491783252 ], [ -74.062092595167897, 45.779267947817232 ], [ -74.062179705067123, 45.774072089762136 ], [ -74.068653226550211, 45.771526756711424 ] ] ] } },
{ "type": "Feature", "properties": { "hex_id": 526925, "centroid_lon": -74.062266791101848, "centroid_lat": 45.768876226831907, "occurrences_today": 20, "datetimes_today": "2026-01-03 00:36:49, 2026-01-03 01:48:02, 2026-01-03 02:31:19, 2026-01-03 03:41:02, 2026-01-03 04:33:47, 2026-01-03 05:36:34, 2026-01-03 06:27:49, 2026-01-03 08:00:03, 2026-01-03 08:39:49, 2026-01-03 09:32:54, 2026-01-03 10:31:59, 2026-01-03 11:39:00, 2026-01-03 12:31:54, 2026-01-03 13:44:56, 2026-01-03 14:26:59, 2026-01-03 15:35:01, 2026-01-03 16:30:53, 2026-01-03 17:34:22, 2026-01-03 18:31:00, 2026-01-03 21:39:56", "cumulative_total": 220 }, "geometry": { "type": "Polygon", "coordinates": [ [ [ -74.062353853280158, 45.763680359026573 ], [ -74.068739703833018, 45.766330881865457 ], [ -74.068653226550211, 45.771526756711424 ], [ -74.062179705067123, 45.774072089762136 ], [ -74.055793293479212, 45.771421199297521 ], [ -74.055880964401368, 45.766225343473117 ], [ -74.062353853280158, 45.763680359026573 ] ] ] } },
{ "type": "Feature", "properties": { "hex_id": 527536, "centroid_lon": -74.055705598533109, "centroid_lat": 45.776617050245058, "occurrences_today": 20, "datetimes_today": "2026-01-03 00:36:49, 2026-01-03 01:48:02, 2026-01-03 02:31:19, 2026-01-03 03:41:02, 2026-01-03 04:33:47, 2026-01-03 05:36:34, 2026-01-03 06:27:49, 2026-01-03 08:00:03, 2026-01-03 08:39:49, 2026-01-03 09:32:54, 2026-01-03 10:31:59, 2026-01-03 11:39:00, 2026-01-03 12:31:54, 2026-01-03 13:44:56, 2026-01-03 14:26:59, 2026-01-03 15:35:01, 2026-01-03 16:30:53, 2026-01-03 17:34:22, 2026-01-03 18:31:00, 2026-01-03 21:39:56", "cumulative_total": 209 }, "geometry": { "type": "Polygon", "coordinates": [ [ [ -74.055793293479212, 45.771421199297521 ], [ -74.062179705067123, 45.774072089762136 ], [ -74.062092595167897, 45.779267947817232 ], [ -74.055617879554958, 45.781812896315699 ], [ -74.049230906956282, 45.779161638063762 ], [ -74.049319210973209, 45.773965799165879 ], [ -74.055793293479212, 45.771421199297521 ] ] ] } },
{ "type": "Feature", "properties": { "hex_id": 570867, "centroid_lon": -73.604814549221018, "centroid_lat": 45.545944045912073, "occurrences_today": 12, "datetimes_today": "2026-01-03 08:39:49, 2026-01-03 09:32:54, 2026-01-03 10:31:59, 2026-01-03 11:39:00, 2026-01-03 12:31:54, 2026-01-03 13:44:56, 2026-01-03 14:26:59, 2026-01-03 15:35:01, 2026-01-03 16:30:53, 2026-01-03 17:34:22, 2026-01-03 18:31:00, 2026-01-03 21:39:56", "cumulative_total": 111 }, "geometry": { "type": "Polygon", "coordinates": [ [ [ -73.604943073184458, 45.540748820403948 ], [ -73.611281695920525, 45.54342446673698 ], [ -73.611153743875846, 45.548619703790514 ], [ -73.604685990141363, 45.551139266391189 ], [ -73.598346830608662, 45.548463250926488 ], [ -73.598475961595298, 45.543268042057356 ], [ -73.604943073184458, 45.540748820403948 ] ] ] } },
{ "type": "Feature", "properties": { "hex_id": 790832, "centroid_lon": -71.098483744954251, "centroid_lat": 48.371739145252114, "occurrences_today": 20, "datetimes_today": "2026-01-03 00:36:49, 2026-01-03 01:48:02, 2026-01-03 02:31:19, 2026-01-03 03:41:02, 2026-01-03 04:33:47, 2026-01-03 05:36:34, 2026-01-03 06:27:49, 2026-01-03 08:00:03, 2026-01-03 08:39:49, 2026-01-03 09:32:54, 2026-01-03 10:31:59, 2026-01-03 11:39:00, 2026-01-03 12:31:54, 2026-01-03 13:44:56, 2026-01-03 14:26:59, 2026-01-03 15:35:01, 2026-01-03 16:30:53, 2026-01-03 17:34:22, 2026-01-03 18:31:00, 2026-01-03 21:39:56", "cumulative_total": 47 }, "geometry": { "type": "Polygon", "coordinates": [ [ [ -71.098880183824477, 48.366557004168421 ], [ -71.105417475923375, 48.369376638660171 ], [ -71.10502166120034, 48.374558817537967 ], [ -71.098087193750146, 48.376921279201831 ], [ -71.091549389858216, 48.374101215095656 ], [ -71.091946565168953, 48.368919119010684 ], [ -71.098880183824477, 48.366557004168421 ] ] ] } },
{ "type": "Feature", "properties": { "hex_id": 791443, "centroid_lon": -71.091152102001843, "centroid_lat": 48.379283304037891, "occurrences_today": 20, "datetimes_today": "2026-01-03 00:36:49, 2026-01-03 01:48:02, 2026-01-03 02:31:19, 2026-01-03 03:41:02, 2026-01-03 04:33:47, 2026-01-03 05:36:34, 2026-01-03 06:27:49, 2026-01-03 08:00:03, 2026-01-03 08:39:49, 2026-01-03 09:32:54, 2026-01-03 10:31:59, 2026-01-03 11:39:00, 2026-01-03 12:31:54, 2026-01-03 13:44:56, 2026-01-03 14:26:59, 2026-01-03 15:35:01, 2026-01-03 16:30:53, 2026-01-03 17:34:22, 2026-01-03 18:31:00, 2026-01-03 21:39:56", "cumulative_total": 41 }, "geometry": { "type": "Polygon", "coordinates": [ [ [ -71.091549389858216, 48.374101215095656 ], [ -71.098087193750146, 48.376921279201831 ], [ -71.09769053017159, 48.382103406016746 ], [ -71.090754701559177, 48.384465385836592 ], [ -71.084216385996072, 48.381644891945761 ], [ -71.084614410675883, 48.376462848090398 ], [ -71.091549389858216, 48.374101215095656 ] ] ] } },
{ "type": "Feature", "properties": { "hex_id": 792053, "centroid_lon": -71.085012322598232, "centroid_lat": 48.371280797083536, "occurrences_today": 20, "datetimes_today": "2026-01-03 00:36:49, 2026-01-03 01:48:02, 2026-01-03 02:31:19, 2026-01-03 03:41:02, 2026-01-03 04:33:47, 2026-01-03 05:36:34, 2026-01-03 06:27:49, 2026-01-03 08:00:03, 2026-01-03 08:39:49, 2026-01-03 09:32:54, 2026-01-03 10:31:59, 2026-01-03 11:39:00, 2026-01-03 12:31:54, 2026-01-03 13:44:56, 2026-01-03 14:26:59, 2026-01-03 15:35:01, 2026-01-03 16:30:53, 2026-01-03 17:34:22, 2026-01-03 18:31:00, 2026-01-03 21:39:56", "cumulative_total": 45 }, "geometry": { "type": "Polygon", "coordinates": [ [ [ -71.085410121803832, 48.366098738925999 ], [ -71.091946565168953, 48.368919119010684 ], [ -71.091549389858216, 48.374101215095656 ], [ -71.084614410675883, 48.376462848090398 ], [ -71.078077456152982, 48.37364203828664 ], [ -71.078475991929508, 48.368460025277841 ], [ -71.085410121803832, 48.366098738925999 ] ] ] } },
{ "type": "Feature", "properties": { "hex_id": 511642, "centroid_lon": -74.227413975132976, "centroid_lat": 45.450514281925408, "occurrences_today": 20, "datetimes_today": "2026-01-03 00:36:49, 2026-01-03 01:48:02, 2026-01-03 02:31:19, 2026-01-03 03:41:02, 2026-01-03 04:33:47, 2026-01-03 05:36:34, 2026-01-03 06:27:49, 2026-01-03 08:00:03, 2026-01-03 08:39:49, 2026-01-03 09:32:54, 2026-01-03 10:31:59, 2026-01-03 11:39:00, 2026-01-03 12:31:54, 2026-01-03 13:44:56, 2026-01-03 14:26:59, 2026-01-03 15:35:01, 2026-01-03 16:30:53, 2026-01-03 17:34:22, 2026-01-03 18:31:00, 2026-01-03 21:39:56", "cumulative_total": 97 }, "geometry": { "type": "Polygon", "coordinates": [ [ [ -74.227484913993578, 45.445317899397594 ], [ -74.233842832062663, 45.447959155399033 ], [ -74.233772470527967, 45.453155543270078 ], [ -74.227343016908208, 45.455710659618639 ], [ -74.220984540880636, 45.453069041606163 ], [ -74.221056076424844, 45.447872669320631 ], [ -74.227484913993578, 45.445317899397594 ] ] ] } },
{ "type": "Feature", "properties": { "hex_id": 512252, "centroid_lon": -74.221127592447985, "centroid_lat": 45.442676292199096, "occurrences_today": 20, "datetimes_today": "2026-01-03 00:36:49, 2026-01-03 01:48:02, 2026-01-03 02:31:19, 2026-01-03 03:41:02, 2026-01-03 04:33:47, 2026-01-03 05:36:34, 2026-01-03 06:27:49, 2026-01-03 08:00:03, 2026-01-03 08:39:49, 2026-01-03 09:32:54, 2026-01-03 10:31:59, 2026-01-03 11:39:00, 2026-01-03 12:31:54, 2026-01-03 13:44:56, 2026-01-03 14:26:59, 2026-01-03 15:35:01, 2026-01-03 16:30:53, 2026-01-03 17:34:22, 2026-01-03 18:31:00, 2026-01-03 21:39:56", "cumulative_total": 93 }, "geometry": { "type": "Polygon", "coordinates": [ [ [ -74.221199088956581, 45.437479910241592 ], [ -74.22755583349651, 45.440121512035212 ], [ -74.227484913993578, 45.445317899397594 ], [ -74.221056076424844, 45.447872669320631 ], [ -74.21469877439705, 45.445230705553513 ], [ -74.214770867419318, 45.440034333901295 ], [ -74.221199088956581, 45.437479910241592 ] ] ] } },
{ "type": "Feature", "properties": { "hex_id": 512862, "centroid_lon": -74.214842940770254, "centroid_lat": 45.434837957411652, "occurrences_today": 20, "datetimes_today": "2026-01-03 00:36:49, 2026-01-03 01:48:02, 2026-01-03 02:31:19, 2026-01-03 03:41:02, 2026-01-03 04:33:47, 2026-01-03 05:36:34, 2026-01-03 06:27:49, 2026-01-03 08:00:03, 2026-01-03 08:39:49, 2026-01-03 09:32:54, 2026-01-03 10:31:59, 2026-01-03 11:39:00, 2026-01-03 12:31:54, 2026-01-03 13:44:56, 2026-01-03 14:26:59, 2026-01-03 15:35:01, 2026-01-03 16:30:53, 2026-01-03 17:34:22, 2026-01-03 18:31:00, 2026-01-03 21:39:56", "cumulative_total": 130 }, "geometry": { "type": "Polygon", "coordinates": [ [ [ -74.21491499445645, 45.429641576084606 ], [ -74.22127056595717, 45.432283523448092 ], [ -74.221199088956581, 45.437479910241592 ], [ -74.214770867419318, 45.440034333901295 ], [ -74.208414738901041, 45.437392024601941 ], [ -74.20848738893099, 45.432195653643177 ], [ -74.21491499445645, 45.429641576084606 ] ] ] } },
{ "type": "Feature", "properties": { "hex_id": 512863, "centroid_lon": -74.21462666169684, "centroid_lat": 45.450427072368328, "occurrences_today": 20, "datetimes_today": "2026-01-03 00:36:49, 2026-01-03 01:48:02, 2026-01-03 02:31:19, 2026-01-03 03:41:02, 2026-01-03 04:33:47, 2026-01-03 05:36:34, 2026-01-03 06:27:49, 2026-01-03 08:00:03, 2026-01-03 08:39:49, 2026-01-03 09:32:54, 2026-01-03 10:31:59, 2026-01-03 11:39:00, 2026-01-03 12:31:54, 2026-01-03 13:44:56, 2026-01-03 14:26:59, 2026-01-03 15:35:01, 2026-01-03 16:30:53, 2026-01-03 17:34:22, 2026-01-03 18:31:00, 2026-01-03 21:39:56", "cumulative_total": 121 }, "geometry": { "type": "Polygon", "coordinates": [ [ [ -74.21469877439705, 45.445230705553513 ], [ -74.221056076424844, 45.447872669320631 ], [ -74.220984540880636, 45.453069041606163 ], [ -74.214554529312124, 45.455623434345675 ], [ -74.208196669816161, 45.452981108445044 ], [ -74.208269379350256, 45.447784752002889 ], [ -74.21469877439705, 45.445230705553513 ] ] ] } },
{ "type": "Feature", "properties": { "hex_id": 535479, "centroid_lon": -73.970243459961594, "centroid_lat": 45.877211100908298, "occurrences_today": 20, "datetimes_today": "2026-01-03 00:36:49, 2026-01-03 01:48:02, 2026-01-03 02:31:19, 2026-01-03 03:41:02, 2026-01-03 04:33:47, 2026-01-03 05:36:34, 2026-01-03 06:27:49, 2026-01-03 08:00:03, 2026-01-03 08:39:49, 2026-01-03 09:32:54, 2026-01-03 10:31:59, 2026-01-03 11:39:00, 2026-01-03 12:31:54, 2026-01-03 13:44:56, 2026-01-03 14:26:59, 2026-01-03 15:35:01, 2026-01-03 16:30:53, 2026-01-03 17:34:22, 2026-01-03 18:31:00, 2026-01-03 21:39:56", "cumulative_total": 126 }, "geometry": { "type": "Polygon", "coordinates": [ [ [ -73.97033942675634, 45.872015475550832 ], [ -73.976733129523424, 45.874671159869791 ], [ -73.976637749742494, 45.879866793207569 ], [ -73.97014746683584, 45.882406721364426 ], [ -73.963753203390382, 45.879750667153964 ], [ -73.963849783521042, 45.874555054743567 ], [ -73.97033942675634, 45.872015475550832 ] ] ] } },
{ "type": "Feature", "properties": { "hex_id": 536089, "centroid_lon": -73.963946337160607, "centroid_lat": 45.869359437429857, "occurrences_today": 20, "datetimes_today": "2026-01-03 00:36:49, 2026-01-03 01:48:02, 2026-01-03 02:31:19, 2026-01-03 03:41:02, 2026-01-03 04:33:47, 2026-01-03 05:36:34, 2026-01-03 06:27:49, 2026-01-03 08:00:03, 2026-01-03 08:39:49, 2026-01-03 09:32:54, 2026-01-03 10:31:59, 2026-01-03 11:39:00, 2026-01-03 12:31:54, 2026-01-03 13:44:56, 2026-01-03 14:26:59, 2026-01-03 15:35:01, 2026-01-03 16:30:53, 2026-01-03 17:34:22, 2026-01-03 18:31:00, 2026-01-03 21:39:56", "cumulative_total": 126 }, "geometry": { "type": "Polygon", "coordinates": [ [ [ -73.964042864318088, 45.864163815212905 ], [ -73.97043536722903, 45.866819845292014 ], [ -73.97033942675634, 45.872015475550832 ], [ -73.963849783521042, 45.874555054743567 ], [ -73.957456720411912, 45.871898654812931 ], [ -73.957553860727288, 45.866703045606485 ], [ -73.964042864318088, 45.864163815212905 ] ] ] } },
{ "type": "Feature", "properties": { "hex_id": 742505, "centroid_lon": -71.727075931491214, "centroid_lat": 46.871640176637761, "occurrences_today": 20, "datetimes_today": "2026-01-03 00:36:49, 2026-01-03 01:48:02, 2026-01-03 02:31:19, 2026-01-03 03:41:02, 2026-01-03 04:33:47, 2026-01-03 05:36:34, 2026-01-03 06:27:49, 2026-01-03 08:00:03, 2026-01-03 08:39:49, 2026-01-03 09:32:54, 2026-01-03 10:31:59, 2026-01-03 11:39:00, 2026-01-03 12:31:54, 2026-01-03 13:44:56, 2026-01-03 14:26:59, 2026-01-03 15:35:01, 2026-01-03 16:30:53, 2026-01-03 17:34:22, 2026-01-03 18:31:00, 2026-01-03 21:39:56", "cumulative_total": 103 }, "geometry": { "type": "Polygon", "coordinates": [ [ [ -71.727391561219747, 46.866453104539374 ], [ -71.733783795800008, 46.869233919092402 ], [ -71.733468751315655, 46.874421021771191 ], [ -71.726760214166092, 46.876827242382085 ], [ -71.72036748195346, 46.874046024558915 ], [ -71.720683784492337, 46.868858989462076 ], [ -71.727391561219747, 46.866453104539374 ] ] ] } },
{ "type": "Feature", "properties": { "hex_id": 743115, "centroid_lon": -71.720999999276117, "centroid_lat": 46.863671948004949, "occurrences_today": 20, "datetimes_today": "2026-01-03 00:36:49, 2026-01-03 01:48:02, 2026-01-03 02:31:19, 2026-01-03 03:41:02, 2026-01-03 04:33:47, 2026-01-03 05:36:34, 2026-01-03 06:27:49, 2026-01-03 08:00:03, 2026-01-03 08:39:49, 2026-01-03 09:32:54, 2026-01-03 10:31:59, 2026-01-03 11:39:00, 2026-01-03 12:31:54, 2026-01-03 13:44:56, 2026-01-03 14:26:59, 2026-01-03 15:35:01, 2026-01-03 16:30:53, 2026-01-03 17:34:22, 2026-01-03 18:31:00, 2026-01-03 21:39:56", "cumulative_total": 186 }, "geometry": { "type": "Polygon", "coordinates": [ [ [ -71.721316126335253, 46.858484900188124 ], [ -71.727707103382087, 46.861266026087428 ], [ -71.727391561219747, 46.866453104539374 ], [ -71.720683784492337, 46.868858989462076 ], [ -71.714292310288599, 46.866077460349771 ], [ -71.714609109938706, 46.860890449594812 ], [ -71.721316126335253, 46.858484900188124 ] ] ] } },
{ "type": "Feature", "properties": { "hex_id": 693575, "centroid_lon": -72.320323159613153, "centroid_lat": 45.484046915428465, "occurrences_today": 20, "datetimes_today": "2026-01-03 00:36:49, 2026-01-03 01:48:02, 2026-01-03 02:31:19, 2026-01-03 03:41:02, 2026-01-03 04:33:47, 2026-01-03 05:36:34, 2026-01-03 06:27:49, 2026-01-03 08:00:03, 2026-01-03 08:39:49, 2026-01-03 09:32:54, 2026-01-03 10:31:59, 2026-01-03 11:39:00, 2026-01-03 12:31:54, 2026-01-03 13:44:56, 2026-01-03 14:26:59, 2026-01-03 15:35:01, 2026-01-03 16:30:53, 2026-01-03 17:34:22, 2026-01-03 18:31:00, 2026-01-03 21:39:56", "cumulative_total": 81 }, "geometry": { "type": "Polygon", "coordinates": [ [ [ -72.320569413398331, 45.478855781716106 ], [ -72.326837065675434, 45.481601192682405 ], [ -72.326591363993927, 45.486792350480663 ], [ -72.320076838648603, 45.489238043359876 ], [ -72.313808701458484, 45.486492252527761 ], [ -72.314055574504195, 45.481301148746319 ], [ -72.320569413398331, 45.478855781716106 ] ] ] } },
{ "type": "Feature", "properties": { "hex_id": 694186, "centroid_lon": -72.313561761062829, "centroid_lat": 45.491683350523154, "occurrences_today": 20, "datetimes_today": "2026-01-03 00:36:49, 2026-01-03 01:48:02, 2026-01-03 02:31:19, 2026-01-03 03:41:02, 2026-01-03 04:33:47, 2026-01-03 05:36:34, 2026-01-03 06:27:49, 2026-01-03 08:00:03, 2026-01-03 08:39:49, 2026-01-03 09:32:54, 2026-01-03 10:31:59, 2026-01-03 11:39:00, 2026-01-03 12:31:54, 2026-01-03 13:44:56, 2026-01-03 14:26:59, 2026-01-03 15:35:01, 2026-01-03 16:30:53, 2026-01-03 17:34:22, 2026-01-03 18:31:00, 2026-01-03 21:39:56", "cumulative_total": 109 }, "geometry": { "type": "Polygon", "coordinates": [ [ [ -72.313808701458484, 45.486492252527761 ], [ -72.320076838648603, 45.489238043359876 ], [ -72.319830450482172, 45.494429165509963 ], [ -72.313314753294677, 45.496874442732114 ], [ -72.307046131259114, 45.494128271877926 ], [ -72.307293691233923, 45.488937203887751 ], [ -72.313808701458484, 45.486492252527761 ] ] ] } },
{ "type": "Feature", "properties": { "hex_id": 552559, "centroid_lon": -73.794586095235729, "centroid_lat": 45.657236002800474, "occurrences_today": 20, "datetimes_today": "2026-01-03 00:36:49, 2026-01-03 01:48:02, 2026-01-03 02:31:19, 2026-01-03 03:41:02, 2026-01-03 04:33:47, 2026-01-03 05:36:34, 2026-01-03 06:27:49, 2026-01-03 08:00:03, 2026-01-03 08:39:49, 2026-01-03 09:32:54, 2026-01-03 10:31:59, 2026-01-03 11:39:00, 2026-01-03 12:31:54, 2026-01-03 13:44:56, 2026-01-03 14:26:59, 2026-01-03 15:35:01, 2026-01-03 16:30:53, 2026-01-03 17:34:22, 2026-01-03 18:31:00, 2026-01-03 21:39:56", "cumulative_total": 176 }, "geometry": { "type": "Polygon", "coordinates": [ [ [ -73.794697571859814, 45.652040487750192 ], [ -73.80105786960435, 45.654705768770796 ], [ -73.80094697084607, 45.659901293509868 ], [ -73.794474588109722, 45.662431512892553 ], [ -73.78811374300642, 45.659765863110707 ], [ -73.788225827987972, 45.65457036277229 ], [ -73.794697571859814, 45.652040487750192 ] ] ] } },
{ "type": "Feature", "properties": { "hex_id": 561703, "centroid_lon": -73.703192789190396, "centroid_lat": 45.445765190727599, "occurrences_today": 20, "datetimes_today": "2026-01-03 00:36:49, 2026-01-03 01:48:02, 2026-01-03 02:31:19, 2026-01-03 03:41:02, 2026-01-03 04:33:47, 2026-01-03 05:36:34, 2026-01-03 06:27:49, 2026-01-03 08:00:03, 2026-01-03 08:39:49, 2026-01-03 09:32:54, 2026-01-03 10:31:59, 2026-01-03 11:39:00, 2026-01-03 12:31:54, 2026-01-03 13:44:56, 2026-01-03 14:26:59, 2026-01-03 15:35:01, 2026-01-03 16:30:53, 2026-01-03 17:34:22, 2026-01-03 18:31:00, 2026-01-03 21:39:56", "cumulative_total": 60 }, "geometry": { "type": "Polygon", "coordinates": [ [ [ -73.703311835820372, 45.440569663798733 ], [ -73.709644112244106, 45.443239823908172 ], [ -73.709525635845566, 45.448435361386025 ], [ -73.703073710071493, 45.450960712666046 ], [ -73.696740895910679, 45.448290185613565 ], [ -73.696860545250132, 45.443094674288503 ], [ -73.703311835820372, 45.440569663798733 ] ] ] } },
{ "type": "Feature", "properties": { "hex_id": 562313, "centroid_lon": -73.696980161946215, "centroid_lat": 45.437899157970683, "occurrences_today": 20, "datetimes_today": "2026-01-03 00:36:49, 2026-01-03 01:48:02, 2026-01-03 02:31:19, 2026-01-03 03:41:02, 2026-01-03 04:33:47, 2026-01-03 05:36:34, 2026-01-03 06:27:49, 2026-01-03 08:00:03, 2026-01-03 08:39:49, 2026-01-03 09:32:54, 2026-01-03 10:31:59, 2026-01-03 11:39:00, 2026-01-03 12:31:54, 2026-01-03 13:44:56, 2026-01-03 14:26:59, 2026-01-03 15:35:01, 2026-01-03 16:30:53, 2026-01-03 17:34:22, 2026-01-03 18:31:00, 2026-01-03 21:39:56", "cumulative_total": 125 }, "geometry": { "type": "Polygon", "coordinates": [ [ [ -73.69709974600984, 45.432703636660186 ], [ -73.703430849972293, 45.43537413187957 ], [ -73.703311835820372, 45.440569663798733 ], [ -73.696860545250132, 45.443094674288503 ], [ -73.690528904013888, 45.44042381216714 ], [ -73.690649090610719, 45.435228306522369 ], [ -73.69709974600984, 45.432703636660186 ] ] ] } },
{ "type": "Feature", "properties": { "hex_id": 562924, "centroid_lon": -73.690408684619271, "centroid_lat": 45.445619312816802, "occurrences_today": 20, "datetimes_today": "2026-01-03 00:36:49, 2026-01-03 01:48:02, 2026-01-03 02:31:19, 2026-01-03 03:41:02, 2026-01-03 04:33:47, 2026-01-03 05:36:34, 2026-01-03 06:27:49, 2026-01-03 08:00:03, 2026-01-03 08:39:49, 2026-01-03 09:32:54, 2026-01-03 10:31:59, 2026-01-03 11:39:00, 2026-01-03 12:31:54, 2026-01-03 13:44:56, 2026-01-03 14:26:59, 2026-01-03 15:35:01, 2026-01-03 16:30:53, 2026-01-03 17:34:22, 2026-01-03 18:31:00, 2026-01-03 21:39:56", "cumulative_total": 183 }, "geometry": { "type": "Polygon", "coordinates": [ [ [ -73.690528904013888, 45.44042381216714 ], [ -73.696860545250132, 45.443094674288503 ], [ -73.696740895910679, 45.448290185613565 ], [ -73.690288432415898, 45.450814808471286 ], [ -73.683956253938746, 45.448143579288889 ], [ -73.684077076186298, 45.442948094374181 ], [ -73.690528904013888, 45.44042381216714 ] ] ] } },
{ "type": "Feature", "properties": { "hex_id": 683181, "centroid_lon": -72.439897924110298, "centroid_lat": 45.245131239940939, "occurrences_today": 20, "datetimes_today": "2026-01-03 00:36:49, 2026-01-03 01:48:02, 2026-01-03 02:31:19, 2026-01-03 03:41:02, 2026-01-03 04:33:47, 2026-01-03 05:36:34, 2026-01-03 06:27:49, 2026-01-03 08:00:03, 2026-01-03 08:39:49, 2026-01-03 09:32:54, 2026-01-03 10:31:59, 2026-01-03 11:39:00, 2026-01-03 12:31:54, 2026-01-03 13:44:56, 2026-01-03 14:26:59, 2026-01-03 15:35:01, 2026-01-03 16:30:53, 2026-01-03 17:34:22, 2026-01-03 18:31:00, 2026-01-03 21:39:56", "cumulative_total": 149 }, "geometry": { "type": "Polygon", "coordinates": [ [ [ -72.440131246048708, 45.239939391754042 ], [ -72.446379129378627, 45.242677888597399 ], [ -72.446146354319652, 45.247869759610452 ], [ -72.439664538694771, 45.250323082443998 ], [ -72.433416171973107, 45.247584209819721 ], [ -72.433650104246937, 45.242392390206398 ], [ -72.440131246048708, 45.239939391754042 ] ] ] } },
{ "type": "Feature", "properties": { "hex_id": 683791, "centroid_lon": -72.433883972897277, "centroid_lat": 45.237200564904761, "occurrences_today": 20, "datetimes_today": "2026-01-03 00:36:49, 2026-01-03 01:48:02, 2026-01-03 02:31:19, 2026-01-03 03:41:02, 2026-01-03 04:33:47, 2026-01-03 05:36:34, 2026-01-03 06:27:49, 2026-01-03 08:00:03, 2026-01-03 08:39:49, 2026-01-03 09:32:54, 2026-01-03 10:31:59, 2026-01-03 11:39:00, 2026-01-03 12:31:54, 2026-01-03 13:44:56, 2026-01-03 14:26:59, 2026-01-03 15:35:01, 2026-01-03 16:30:53, 2026-01-03 17:34:22, 2026-01-03 18:31:00, 2026-01-03 21:39:56", "cumulative_total": 149 }, "geometry": { "type": "Polygon", "coordinates": [ [ [ -72.434117777945275, 45.23200873391513 ], [ -72.440364504531118, 45.234747537883614 ], [ -72.440131246048708, 45.239939391754042 ], [ -72.433650104246937, 45.242392390206398 ], [ -72.427402894708393, 45.239653210505892 ], [ -72.427637309903147, 45.234461408148597 ], [ -72.434117777945275, 45.23200873391513 ] ] ] } },
{ "type": "Feature", "properties": { "hex_id": 684402, "centroid_lon": -72.427168415743836, "centroid_lat": 45.24484500717039, "occurrences_today": 20, "datetimes_today": "2026-01-03 00:36:49, 2026-01-03 01:48:02, 2026-01-03 02:31:19, 2026-01-03 03:41:02, 2026-01-03 04:33:47, 2026-01-03 05:36:34, 2026-01-03 06:27:49, 2026-01-03 08:00:03, 2026-01-03 08:39:49, 2026-01-03 09:32:54, 2026-01-03 10:31:59, 2026-01-03 11:39:00, 2026-01-03 12:31:54, 2026-01-03 13:44:56, 2026-01-03 14:26:59, 2026-01-03 15:35:01, 2026-01-03 16:30:53, 2026-01-03 17:34:22, 2026-01-03 18:31:00, 2026-01-03 21:39:56", "cumulative_total": 149 }, "geometry": { "type": "Polygon", "coordinates": [ [ [ -72.427402894708393, 45.239653210505892 ], [ -72.433650104246937, 45.242392390206398 ], [ -72.433416171973107, 45.247584209819721 ], [ -72.426933872988215, 45.250036798141728 ], [ -72.420686180560594, 45.247297242554019 ], [ -72.420921269985726, 45.242105474595078 ], [ -72.427402894708393, 45.239653210505892 ] ] ] } },
{ "type": "Feature", "properties": { "hex_id": 550717, "centroid_lon": -73.817276254689901, "centroid_lat": 45.493775262779621, "occurrences_today": 13, "datetimes_today": "2026-01-03 08:00:03, 2026-01-03 08:39:49, 2026-01-03 09:32:54, 2026-01-03 10:31:59, 2026-01-03 11:39:00, 2026-01-03 12:31:54, 2026-01-03 13:44:56, 2026-01-03 14:26:59, 2026-01-03 15:35:01, 2026-01-03 16:30:53, 2026-01-03 17:34:22, 2026-01-03 18:31:00, 2026-01-03 21:39:56", "cumulative_total": 112 }, "geometry": { "type": "Polygon", "coordinates": [ [ [ -73.817385011852949, 45.488579555476036 ], [ -73.823728135975642, 45.491243475824646 ], [ -73.823619952020906, 45.496439192557688 ], [ -73.817167467827602, 45.498970965133282 ], [ -73.810823800200808, 45.496306678309082 ], [ -73.810933160261428, 45.491110985449403 ], [ -73.817385011852949, 45.488579555476036 ] ] ] } },
{ "type": "Feature", "properties": { "hex_id": 551938, "centroid_lon": -73.804480735632026, "centroid_lat": 45.493642043968805, "occurrences_today": 13, "datetimes_today": "2026-01-03 08:00:03, 2026-01-03 08:39:49, 2026-01-03 09:32:54, 2026-01-03 10:31:59, 2026-01-03 11:39:00, 2026-01-03 12:31:54, 2026-01-03 13:44:56, 2026-01-03 14:26:59, 2026-01-03 15:35:01, 2026-01-03 16:30:53, 2026-01-03 17:34:22, 2026-01-03 18:31:00, 2026-01-03 21:39:56", "cumulative_total": 122 }, "geometry": { "type": "Polygon", "coordinates": [ [ [ -73.804590668725538, 45.488446360665442 ], [ -73.810933160261428, 45.491110985449403 ], [ -73.810823800200808, 45.496306678309082 ], [ -73.804370772518354, 45.498837722317873 ], [ -73.798027737974778, 45.496172730939158 ], [ -73.798138274111253, 45.490977062210924 ], [ -73.804590668725538, 45.488446360665442 ] ] ] } },
{ "type": "Feature", "properties": { "hex_id": 559241, "centroid_lon": -73.735707358168099, "centroid_lat": 45.134309118448968, "occurrences_today": 12, "datetimes_today": "2026-01-03 08:39:49, 2026-01-03 09:32:54, 2026-01-03 10:31:59, 2026-01-03 11:39:00, 2026-01-03 12:31:54, 2026-01-03 13:44:56, 2026-01-03 14:26:59, 2026-01-03 15:35:01, 2026-01-03 16:30:53, 2026-01-03 17:34:22, 2026-01-03 18:31:00, 2026-01-03 21:39:56", "cumulative_total": 20 }, "geometry": { "type": "Polygon", "coordinates": [ [ [ -73.735822167560315, 45.129113241000987 ], [ -73.742121759013742, 45.131781383056037 ], [ -73.742007511019764, 45.136977270664083 ], [ -73.735592517557919, 45.139504990920145 ], [ -73.72929239592942, 45.13683648613673 ], [ -73.729407797927479, 45.13164062388929 ], [ -73.735822167560315, 45.129113241000987 ] ] ] } },
{ "type": "Feature", "properties": { "hex_id": 582478, "centroid_lon": -73.478315535347122, "centroid_lat": 45.723615646305539, "occurrences_today": 12, "datetimes_today": "2026-01-03 08:39:49, 2026-01-03 09:32:54, 2026-01-03 10:31:59, 2026-01-03 11:39:00, 2026-01-03 12:31:54, 2026-01-03 13:44:56, 2026-01-03 14:26:59, 2026-01-03 15:35:01, 2026-01-03 16:30:53, 2026-01-03 17:34:22, 2026-01-03 18:31:00, 2026-01-03 21:39:56", "cumulative_total": 166 }, "geometry": { "type": "Polygon", "coordinates": [ [ [ -73.478456580495433, 45.718420875502524 ], [ -73.484808846281624, 45.72110363963624 ], [ -73.48466837670685, 45.726298423281662 ], [ -73.478174451580173, 45.728810412025098 ], [ -73.471821648845605, 45.726127275317864 ], [ -73.471963308173059, 45.720932522505699 ], [ -73.478456580495433, 45.718420875502524 ] ] ] } },
{ "type": "Feature", "properties": { "hex_id": 658763, "centroid_lon": -72.69326461596512, "centroid_lat": 45.281715008916812, "occurrences_today": 12, "datetimes_today": "2026-01-03 08:39:49, 2026-01-03 09:32:54, 2026-01-03 10:31:59, 2026-01-03 11:39:00, 2026-01-03 12:31:54, 2026-01-03 13:44:56, 2026-01-03 14:26:59, 2026-01-03 15:35:01, 2026-01-03 16:30:53, 2026-01-03 17:34:22, 2026-01-03 18:31:00, 2026-01-03 21:39:56", "cumulative_total": 12 }, "geometry": { "type": "Polygon", "coordinates": [ [ [ -72.693475127928593, 45.276522216823089 ], [ -72.699739700553323, 45.27924714634166 ], [ -72.699529740100445, 45.284439958825857 ], [ -72.693054046694712, 45.286907795501499 ], [ -72.686788979875885, 45.284182491944733 ], [ -72.687000100637789, 45.27898972581427 ], [ -72.693475127928593, 45.276522216823089 ] ] ] } },
{ "type": "Feature", "properties": { "hex_id": 659373, "centroid_lon": -72.687211163944752, "centroid_lat": 45.27379695417072, "occurrences_today": 12, "datetimes_today": "2026-01-03 08:39:49, 2026-01-03 09:32:54, 2026-01-03 10:31:59, 2026-01-03 11:39:00, 2026-01-03 12:31:54, 2026-01-03 13:44:56, 2026-01-03 14:26:59, 2026-01-03 15:35:01, 2026-01-03 16:30:53, 2026-01-03 17:34:22, 2026-01-03 18:31:00, 2026-01-03 21:39:56", "cumulative_total": 22 }, "geometry": { "type": "Polygon", "coordinates": [ [ [ -72.687422169815932, 45.268604177014339 ], [ -72.693685582604203, 45.271329419220621 ], [ -72.693475127928593, 45.276522216823089 ], [ -72.687000100637789, 45.27898972581427 ], [ -72.68073619409931, 45.276264109617195 ], [ -72.680947808582701, 45.271071358483475 ], [ -72.687422169815932, 45.268604177014339 ] ] ] } },
{ "type": "Feature", "properties": { "hex_id": 659374, "centroid_lon": -72.686577801639899, "centroid_lat": 45.289375252561861, "occurrences_today": 12, "datetimes_today": "2026-01-03 08:39:49, 2026-01-03 09:32:54, 2026-01-03 10:31:59, 2026-01-03 11:39:00, 2026-01-03 12:31:54, 2026-01-03 13:44:56, 2026-01-03 14:26:59, 2026-01-03 15:35:01, 2026-01-03 16:30:53, 2026-01-03 17:34:22, 2026-01-03 18:31:00, 2026-01-03 21:39:56", "cumulative_total": 16 }, "geometry": { "type": "Polygon", "coordinates": [ [ [ -72.686788979875885, 45.284182491944733 ], [ -72.693054046694712, 45.286907795501499 ], [ -72.692843420098257, 45.292100576576907 ], [ -72.686366565910674, 45.294568007665362 ], [ -72.680101004955148, 45.291842329914374 ], [ -72.680312792304747, 45.286649595332918 ], [ -72.686788979875885, 45.284182491944733 ] ] ] } },
{ "type": "Feature", "properties": { "hex_id": 659984, "centroid_lon": -72.680524522013044, "centroid_lat": 45.28145685523377, "occurrences_today": 12, "datetimes_today": "2026-01-03 08:39:49, 2026-01-03 09:32:54, 2026-01-03 10:31:59, 2026-01-03 11:39:00, 2026-01-03 12:31:54, 2026-01-03 13:44:56, 2026-01-03 14:26:59, 2026-01-03 15:35:01, 2026-01-03 16:30:53, 2026-01-03 17:34:22, 2026-01-03 18:31:00, 2026-01-03 21:39:56", "cumulative_total": 16 }, "geometry": { "type": "Polygon", "coordinates": [ [ [ -72.68073619409931, 45.276264109617195 ], [ -72.687000100637789, 45.27898972581427 ], [ -72.686788979875885, 45.284182491944733 ], [ -72.680312792304747, 45.286649595332918 ], [ -72.674048392073558, 45.283923604989035 ], [ -72.674260673087034, 45.278730885467539 ], [ -72.68073619409931, 45.276264109617195 ] ] ] } },
{ "type": "Feature", "properties": { "hex_id": 659985, "centroid_lon": -72.679889159945077, "centroid_lat": 45.297035058977883, "occurrences_today": 12, "datetimes_today": "2026-01-03 08:39:49, 2026-01-03 09:32:54, 2026-01-03 10:31:59, 2026-01-03 11:39:00, 2026-01-03 12:31:54, 2026-01-03 13:44:56, 2026-01-03 14:26:59, 2026-01-03 15:35:01, 2026-01-03 16:30:53, 2026-01-03 17:34:22, 2026-01-03 18:31:00, 2026-01-03 21:39:56", "cumulative_total": 16 }, "geometry": { "type": "Polygon", "coordinates": [ [ [ -72.680101004955148, 45.291842329914374 ], [ -72.686366565910674, 45.294568007665362 ], [ -72.686155272669055, 45.299760757255001 ], [ -72.679677257255278, 45.302227782523161 ], [ -72.673411202220649, 45.299501730421824 ], [ -72.673623656659643, 45.294309027466447 ], [ -72.680101004955148, 45.291842329914374 ] ] ] } },
{ "type": "Feature", "properties": { "hex_id": 660595, "centroid_lon": -72.673836053270861, "centroid_lat": 45.289116318988761, "occurrences_today": 12, "datetimes_today": "2026-01-03 08:39:49, 2026-01-03 09:32:54, 2026-01-03 10:31:59, 2026-01-03 11:39:00, 2026-01-03 12:31:54, 2026-01-03 13:44:56, 2026-01-03 14:26:59, 2026-01-03 15:35:01, 2026-01-03 16:30:53, 2026-01-03 17:34:22, 2026-01-03 18:31:00, 2026-01-03 21:39:56", "cumulative_total": 16 }, "geometry": { "type": "Polygon", "coordinates": [ [ [ -72.674048392073558, 45.283923604989035 ], [ -72.680312792304747, 45.286649595332918 ], [ -72.680101004955148, 45.291842329914374 ], [ -72.673623656659643, 45.294309027466447 ], [ -72.667358762793498, 45.291582662819742 ], [ -72.667571710838558, 45.286389974987543 ], [ -72.674048392073558, 45.283923604989035 ] ] ] } },
{ "type": "Feature", "properties": { "hex_id": 661205, "centroid_lon": -72.667784600927163, "centroid_lat": 45.281197281629204, "occurrences_today": 12, "datetimes_today": "2026-01-03 08:39:49, 2026-01-03 09:32:54, 2026-01-03 10:31:59, 2026-01-03 11:39:00, 2026-01-03 12:31:54, 2026-01-03 13:44:56, 2026-01-03 14:26:59, 2026-01-03 15:35:01, 2026-01-03 16:30:53, 2026-01-03 17:34:22, 2026-01-03 18:31:00, 2026-01-03 21:39:56", "cumulative_total": 16 }, "geometry": { "type": "Polygon", "coordinates": [ [ [ -72.667997433078597, 45.276004582744974 ], [ -72.674260673087034, 45.278730885467539 ], [ -72.674048392073558, 45.283923604989035 ], [ -72.667571710838558, 45.286389974987543 ], [ -72.661307977638955, 45.283663298009657 ], [ -72.661521418846235, 45.278470625352348 ], [ -72.667997433078597, 45.276004582744974 ] ] ] } },
{ "type": "Feature", "properties": { "hex_id": 661206, "centroid_lon": -72.667145756772626, "centroid_lat": 45.296775345125532, "occurrences_today": 12, "datetimes_today": "2026-01-03 08:39:49, 2026-01-03 09:32:54, 2026-01-03 10:31:59, 2026-01-03 11:39:00, 2026-01-03 12:31:54, 2026-01-03 13:44:56, 2026-01-03 14:26:59, 2026-01-03 15:35:01, 2026-01-03 16:30:53, 2026-01-03 17:34:22, 2026-01-03 18:31:00, 2026-01-03 21:39:56", "cumulative_total": 16 }, "geometry": { "type": "Polygon", "coordinates": [ [ [ -72.667358762793498, 45.291582662819742 ], [ -72.673623656659643, 45.294309027466447 ], [ -72.673411202220649, 45.299501730421824 ], [ -72.666932692756646, 45.301968021904649 ], [ -72.66066730531341, 45.299241282799017 ], [ -72.660880920891927, 45.294048626733264 ], [ -72.667358762793498, 45.291582662819742 ] ] ] } },
{ "type": "Feature", "properties": { "hex_id": 661816, "centroid_lon": -72.661094478327314, "centroid_lat": 45.288855965136733, "occurrences_today": 12, "datetimes_today": "2026-01-03 08:39:49, 2026-01-03 09:32:54, 2026-01-03 10:31:59, 2026-01-03 11:39:00, 2026-01-03 12:31:54, 2026-01-03 13:44:56, 2026-01-03 14:26:59, 2026-01-03 15:35:01, 2026-01-03 16:30:53, 2026-01-03 17:34:22, 2026-01-03 18:31:00, 2026-01-03 21:39:56", "cumulative_total": 16 }, "geometry": { "type": "Polygon", "coordinates": [ [ [ -72.661307977638955, 45.283663298009657 ], [ -72.667571710838558, 45.286389974987543 ], [ -72.667358762793498, 45.291582662819742 ], [ -72.660880920891927, 45.294048626733264 ], [ -72.654616694559209, 45.291321575344071 ], [ -72.654830803241794, 45.28612893451642 ], [ -72.661307977638955, 45.283663298009657 ] ] ] } },
{ "type": "Feature", "properties": { "hex_id": 662427, "centroid_lon": -72.654402527585532, "centroid_lat": 45.296514210636815, "occurrences_today": 12, "datetimes_today": "2026-01-03 08:39:49, 2026-01-03 09:32:54, 2026-01-03 10:31:59, 2026-01-03 11:39:00, 2026-01-03 12:31:54, 2026-01-03 13:44:56, 2026-01-03 14:26:59, 2026-01-03 15:35:01, 2026-01-03 16:30:53, 2026-01-03 17:34:22, 2026-01-03 18:31:00, 2026-01-03 21:39:56", "cumulative_total": 16 }, "geometry": { "type": "Polygon", "coordinates": [ [ [ -72.654616694559209, 45.291321575344071 ], [ -72.660880920891927, 45.294048626733264 ], [ -72.66066730531341, 45.299241282799017 ], [ -72.654188302301378, 45.30170684039436 ], [ -72.647923582893739, 45.298979414437802 ], [ -72.648138359553585, 45.293786805517016 ], [ -72.654616694559209, 45.291321575344071 ] ] ] } },
{ "type": "Feature", "properties": { "hex_id": 302871, "centroid_lon": -76.42195116266204, "centroid_lat": 45.756080469904774, "occurrences_today": 11, "datetimes_today": "2026-01-03 09:32:54, 2026-01-03 10:31:59, 2026-01-03 11:39:00, 2026-01-03 12:31:54, 2026-01-03 13:44:56, 2026-01-03 14:26:59, 2026-01-03 15:35:01, 2026-01-03 16:30:53, 2026-01-03 17:34:22, 2026-01-03 18:31:00, 2026-01-03 21:39:56", "cumulative_total": 60 }, "geometry": { "type": "Polygon", "coordinates": [ [ [ -76.421819210613435, 45.750885496056981 ], [ -76.428311948478125, 45.753402807088243 ], [ -76.428444514594972, 45.758597763967728 ], [ -76.422083150855585, 45.76127543871155 ], [ -76.415589762771589, 45.758757784452129 ], [ -76.415458388658493, 45.753562798742081 ], [ -76.421819210613435, 45.750885496056981 ] ] ] } },
{ "type": "Feature", "properties": { "hex_id": 303482, "centroid_lon": -76.415721172872608, "centroid_lat": 45.763952765123754, "occurrences_today": 11, "datetimes_today": "2026-01-03 09:32:54, 2026-01-03 10:31:59, 2026-01-03 11:39:00, 2026-01-03 12:31:54, 2026-01-03 13:44:56, 2026-01-03 14:26:59, 2026-01-03 15:35:01, 2026-01-03 16:30:53, 2026-01-03 17:34:22, 2026-01-03 18:31:00, 2026-01-03 21:39:56", "cumulative_total": 62 }, "geometry": { "type": "Polygon", "coordinates": [ [ [ -76.415589762771589, 45.758757784452129 ], [ -76.422083150855585, 45.76127543871155 ], [ -76.422215175206318, 45.766470402477218 ], [ -76.41585261897373, 45.769147740756878 ], [ -76.409358580633835, 45.766629743104652 ], [ -76.409227748794578, 45.761434750630663 ], [ -76.415589762771589, 45.758757784452129 ] ] ] } },
{ "type": "Feature", "properties": { "hex_id": 304703, "centroid_lon": -76.4028651207189, "centroid_lat": 45.764111368340757, "occurrences_today": 11, "datetimes_today": "2026-01-03 09:32:54, 2026-01-03 10:31:59, 2026-01-03 11:39:00, 2026-01-03 12:31:54, 2026-01-03 13:44:56, 2026-01-03 14:26:59, 2026-01-03 15:35:01, 2026-01-03 16:30:53, 2026-01-03 17:34:22, 2026-01-03 18:31:00, 2026-01-03 21:39:56", "cumulative_total": 44 }, "geometry": { "type": "Polygon", "coordinates": [ [ [ -76.402734902984378, 45.758916359093639 ], [ -76.409227748794578, 45.761434750630663 ], [ -76.409358580633835, 45.766629743104652 ], [ -76.40299537412713, 45.769306372554631 ], [ -76.396501878532462, 45.766787637482757 ], [ -76.396372239241003, 45.761592616560854 ], [ -76.402734902984378, 45.758916359093639 ] ] ] } },
{ "type": "Feature", "properties": { "hex_id": 739559, "centroid_lon": -71.655378719505677, "centroid_lat": 48.529569510040275, "occurrences_today": 11, "datetimes_today": "2026-01-03 09:32:54, 2026-01-03 10:31:59, 2026-01-03 11:39:00, 2026-01-03 12:31:54, 2026-01-03 13:44:56, 2026-01-03 14:26:59, 2026-01-03 15:35:01, 2026-01-03 16:30:53, 2026-01-03 17:34:22, 2026-01-03 18:31:00, 2026-01-03 21:39:56", "cumulative_total": 12 }, "geometry": { "type": "Polygon", "coordinates": [ [ [ -71.655720529178694, 48.524384317581706 ], [ -71.662310196341224, 48.52717333753548 ], [ -71.661969026007228, 48.532358562334146 ], [ -71.65503681268585, 48.534754695999226 ], [ -71.648446603348731, 48.531965248845232 ], [ -71.648789149472307, 48.526780095297767 ], [ -71.655720529178694, 48.524384317581706 ] ] ] } },
{ "type": "Feature", "properties": { "hex_id": 740780, "centroid_lon": -71.641857130656646, "centroid_lat": 48.529175439290668, "occurrences_today": 11, "datetimes_today": "2026-01-03 09:32:54, 2026-01-03 10:31:59, 2026-01-03 11:39:00, 2026-01-03 12:31:54, 2026-01-03 13:44:56, 2026-01-03 14:26:59, 2026-01-03 15:35:01, 2026-01-03 16:30:53, 2026-01-03 17:34:22, 2026-01-03 18:31:00, 2026-01-03 21:39:56", "cumulative_total": 12 }, "geometry": { "type": "Polygon", "coordinates": [ [ [ -71.642200315871818, 48.523990318219163 ], [ -71.648789149472307, 48.526780095297767 ], [ -71.648446603348731, 48.531965248845232 ], [ -71.641513847905685, 48.534360553848082 ], [ -71.634924472767111, 48.5315703494582 ], [ -71.635268394574268, 48.526385267448134 ], [ -71.642200315871818, 48.523990318219163 ] ] ] } },
{ "type": "Feature", "properties": { "hex_id": 749732, "centroid_lon": -71.740649137452337, "centroid_lat": 45.328644615399561, "occurrences_today": 11, "datetimes_today": "2026-01-03 09:32:54, 2026-01-03 10:31:59, 2026-01-03 11:39:00, 2026-01-03 12:31:54, 2026-01-03 13:44:56, 2026-01-03 14:26:59, 2026-01-03 15:35:01, 2026-01-03 16:30:53, 2026-01-03 17:34:22, 2026-01-03 18:31:00, 2026-01-03 21:39:56", "cumulative_total": 22 }, "geometry": { "type": "Polygon", "coordinates": [ [ [ -71.740946991885508, 45.323456067985802 ], [ -71.74716800427133, 45.326232126238232 ], [ -71.746870689022089, 45.331420703225994 ], [ -71.740351201955974, 45.333833156545744 ], [ -71.734129731462943, 45.331056715538722 ], [ -71.734428206116206, 45.325868204030016 ], [ -71.740946991885508, 45.323456067985802 ] ] ] } },
{ "type": "Feature", "properties": { "hex_id": 750343, "centroid_lon": -71.733831175575887, "centroid_lat": 45.336245220773677, "occurrences_today": 11, "datetimes_today": "2026-01-03 09:32:54, 2026-01-03 10:31:59, 2026-01-03 11:39:00, 2026-01-03 12:31:54, 2026-01-03 13:44:56, 2026-01-03 14:26:59, 2026-01-03 15:35:01, 2026-01-03 16:30:53, 2026-01-03 17:34:22, 2026-01-03 18:31:00, 2026-01-03 21:39:56", "cumulative_total": 22 }, "geometry": { "type": "Polygon", "coordinates": [ [ [ -71.734129731462943, 45.331056715538722 ], [ -71.740351201955974, 45.333833156545744 ], [ -71.740053185369391, 45.339021691423852 ], [ -71.733532538427951, 45.34143371973434 ], [ -71.727310609908841, 45.338656895818794 ], [ -71.727609786330163, 45.333468426564764 ], [ -71.734129731462943, 45.331056715538722 ] ] ] } },
{ "type": "Feature", "properties": { "hex_id": 750953, "centroid_lon": -71.727908881347062, "centroid_lat": 45.328279951030773, "occurrences_today": 11, "datetimes_today": "2026-01-03 09:32:54, 2026-01-03 10:31:59, 2026-01-03 11:39:00, 2026-01-03 12:31:54, 2026-01-03 13:44:56, 2026-01-03 14:26:59, 2026-01-03 15:35:01, 2026-01-03 16:30:53, 2026-01-03 17:34:22, 2026-01-03 18:31:00, 2026-01-03 21:39:56", "cumulative_total": 22 }, "geometry": { "type": "Polygon", "coordinates": [ [ [ -71.728207894986653, 45.323091469217353 ], [ -71.734428206116206, 45.325868204030016 ], [ -71.734129731462943, 45.331056715538722 ], [ -71.727609786330163, 45.333468426564764 ], [ -71.721389017605148, 45.330691308897123 ], [ -71.721688651581246, 45.325502863121883 ], [ -71.728207894986653, 45.323091469217353 ] ] ] } },
{ "type": "Feature", "properties": { "hex_id": 785239, "centroid_lon": -71.269800411983795, "centroid_lat": 46.842046477619455, "occurrences_today": 11, "datetimes_today": "2026-01-03 09:32:54, 2026-01-03 10:31:59, 2026-01-03 11:39:00, 2026-01-03 12:31:54, 2026-01-03 13:44:56, 2026-01-03 14:26:59, 2026-01-03 15:35:01, 2026-01-03 16:30:53, 2026-01-03 17:34:22, 2026-01-03 18:31:00, 2026-01-03 21:39:56", "cumulative_total": 133 }, "geometry": { "type": "Polygon", "coordinates": [ [ [ -71.270159710116872, 46.836861914639286 ], [ -71.276523318834251, 46.839667529888708 ], [ -71.276164597706938, 46.844852127884273 ], [ -71.269441014223403, 46.847231033764842 ], [ -71.263076928144827, 46.844425011850596 ], [ -71.263436902876464, 46.839240490787361 ], [ -71.270159710116872, 46.836861914639286 ] ] ] } },
{ "type": "Feature", "properties": { "hex_id": 785850, "centroid_lon": -71.262716853595848, "centroid_lat": 46.849609526071333, "occurrences_today": 11, "datetimes_today": "2026-01-03 09:32:54, 2026-01-03 10:31:59, 2026-01-03 11:39:00, 2026-01-03 12:31:54, 2026-01-03 13:44:56, 2026-01-03 14:26:59, 2026-01-03 15:35:01, 2026-01-03 16:30:53, 2026-01-03 17:34:22, 2026-01-03 18:31:00, 2026-01-03 21:39:56", "cumulative_total": 327 }, "geometry": { "type": "Polygon", "coordinates": [ [ [ -71.263076928144827, 46.844425011850596 ], [ -71.269441014223403, 46.847231033764842 ], [ -71.269081516801123, 46.852415583074745 ], [ -71.262356679194866, 46.854794033448876 ], [ -71.255992115858859, 46.85198760470864 ], [ -71.25635286735195, 46.846803132487018 ], [ -71.263076928144827, 46.844425011850596 ] ] ] } },
{ "type": "Feature", "properties": { "hex_id": 786460, "centroid_lon": -71.256713518837572, "centroid_lat": 46.841618653415189, "occurrences_today": 11, "datetimes_today": "2026-01-03 09:32:54, 2026-01-03 10:31:59, 2026-01-03 11:39:00, 2026-01-03 12:31:54, 2026-01-03 13:44:56, 2026-01-03 14:26:59, 2026-01-03 15:35:01, 2026-01-03 16:30:53, 2026-01-03 17:34:22, 2026-01-03 18:31:00, 2026-01-03 21:39:56", "cumulative_total": 116 }, "geometry": { "type": "Polygon", "coordinates": [ [ [ -71.257074070350413, 46.836434167493906 ], [ -71.263436902876464, 46.839240490787361 ], [ -71.263076928144827, 46.844425011850596 ], [ -71.25635286735195, 46.846803132487018 ], [ -71.249989558034812, 46.843996402427742 ], [ -71.250350786266964, 46.838811958564605 ], [ -71.257074070350413, 46.836434167493906 ] ] ] } },
{ "type": "Feature", "properties": { "hex_id": 808414, "centroid_lon": -71.048515382103247, "centroid_lat": 46.460464587493355, "occurrences_today": 11, "datetimes_today": "2026-01-03 09:32:54, 2026-01-03 10:31:59, 2026-01-03 11:39:00, 2026-01-03 12:31:54, 2026-01-03 13:44:56, 2026-01-03 14:26:59, 2026-01-03 15:35:01, 2026-01-03 16:30:53, 2026-01-03 17:34:22, 2026-01-03 18:31:00, 2026-01-03 21:39:56", "cumulative_total": 26 }, "geometry": { "type": "Polygon", "coordinates": [ [ [ -71.048890926752264, 46.455281023737761 ], [ -71.055198874262899, 46.458097386820043 ], [ -71.0548238913765, 46.463280987463797 ], [ -71.048139733874933, 46.465648144185728 ], [ -71.041831328198725, 46.46283137783 ], [ -71.04220753815413, 46.457647858091519 ], [ -71.048890926752264, 46.455281023737761 ] ] ] } },
{ "type": "Feature", "properties": { "hex_id": 809024, "centroid_lon": -71.042583644379988, "centroid_lat": 46.452464331282606, "occurrences_today": 11, "datetimes_today": "2026-01-03 09:32:54, 2026-01-03 10:31:59, 2026-01-03 11:39:00, 2026-01-03 12:31:54, 2026-01-03 13:44:56, 2026-01-03 14:26:59, 2026-01-03 15:35:01, 2026-01-03 16:30:53, 2026-01-03 17:34:22, 2026-01-03 18:31:00, 2026-01-03 21:39:56", "cumulative_total": 26 }, "geometry": { "type": "Polygon", "coordinates": [ [ [ -71.042959646911839, 46.447280797404126 ], [ -71.049266367857541, 46.450097452919785 ], [ -71.048890926752264, 46.455281023737761 ], [ -71.04220753815413, 46.457647858091519 ], [ -71.035900359493624, 46.454830799362924 ], [ -71.036277027110501, 46.449647309559204 ], [ -71.042959646911839, 46.447280797404126 ] ] ] } },
{ "type": "Feature", "properties": { "hex_id": 809635, "centroid_lon": -71.035523587996977, "centroid_lat": 46.460014282089041, "occurrences_today": 11, "datetimes_today": "2026-01-03 09:32:54, 2026-01-03 10:31:59, 2026-01-03 11:39:00, 2026-01-03 12:31:54, 2026-01-03 13:44:56, 2026-01-03 14:26:59, 2026-01-03 15:35:01, 2026-01-03 16:30:53, 2026-01-03 17:34:22, 2026-01-03 18:31:00, 2026-01-03 21:39:56", "cumulative_total": 23 }, "geometry": { "type": "Polygon", "coordinates": [ [ [ -71.035900359493624, 46.454830799362924 ], [ -71.04220753815413, 46.457647858091519 ], [ -71.041831328198725, 46.46283137783 ], [ -71.035146712584904, 46.465197757736703 ], [ -71.028839076316387, 46.46238029563704 ], [ -71.029216513234047, 46.457196857067466 ], [ -71.035900359493624, 46.454830799362924 ] ] ] } },
{ "type": "Feature", "properties": { "hex_id": 1141243, "centroid_lon": -67.287688832606761, "centroid_lat": 47.928995938951275, "occurrences_today": 11, "datetimes_today": "2026-01-03 09:32:54, 2026-01-03 10:31:59, 2026-01-03 11:39:00, 2026-01-03 12:31:54, 2026-01-03 13:44:56, 2026-01-03 14:26:59, 2026-01-03 15:35:01, 2026-01-03 16:30:53, 2026-01-03 17:34:22, 2026-01-03 18:31:00, 2026-01-03 21:39:56", "cumulative_total": 20 }, "geometry": { "type": "Polygon", "coordinates": [ [ [ -67.288458696791182, 47.923848390659927 ], [ -67.294706556507961, 47.926870088483298 ], [ -67.293937230878143, 47.932017710155471 ], [ -67.286918753171634, 47.934143473250558 ], [ -67.280670570188974, 47.931121325526057 ], [ -67.281441188102704, 47.925973864673523 ], [ -67.288458696791182, 47.923848390659927 ] ] ] } },
{ "type": "Feature", "properties": { "hex_id": 1141854, "centroid_lon": -67.279899736810648, "centroid_lat": 47.93626877236909, "occurrences_today": 11, "datetimes_today": "2026-01-03 09:32:54, 2026-01-03 10:31:59, 2026-01-03 11:39:00, 2026-01-03 12:31:54, 2026-01-03 13:44:56, 2026-01-03 14:26:59, 2026-01-03 15:35:01, 2026-01-03 16:30:53, 2026-01-03 17:34:22, 2026-01-03 18:31:00, 2026-01-03 21:39:56", "cumulative_total": 20 }, "geometry": { "type": "Polygon", "coordinates": [ [ [ -67.280670570188974, 47.931121325526057 ], [ -67.286918753171634, 47.934143473250558 ], [ -67.286148458409755, 47.939290993554359 ], [ -67.279128687891657, 47.941416205199182 ], [ -67.272880181871301, 47.938393607421972 ], [ -67.273651769330598, 47.933246248118579 ], [ -67.280670570188974, 47.931121325526057 ] ] ] } },
{ "type": "Feature", "properties": { "hex_id": 1142463, "centroid_lon": -67.276735963144276, "centroid_lat": 47.912656670669968, "occurrences_today": 11, "datetimes_today": "2026-01-03 09:32:54, 2026-01-03 10:31:59, 2026-01-03 11:39:00, 2026-01-03 12:31:54, 2026-01-03 13:44:56, 2026-01-03 14:26:59, 2026-01-03 15:35:01, 2026-01-03 16:30:53, 2026-01-03 17:34:22, 2026-01-03 18:31:00, 2026-01-03 21:39:56", "cumulative_total": 20 }, "geometry": { "type": "Polygon", "coordinates": [ [ [ -67.277506472972235, 47.907509241266268 ], [ -67.283751749816915, 47.910531398093369 ], [ -67.282981777840675, 47.915678900953743 ], [ -67.275965237942188, 47.917804086060485 ], [ -67.269719638657946, 47.914781479508676 ], [ -67.270490901635739, 47.909634137640715 ], [ -67.277506472972235, 47.907509241266268 ] ] ] } },
{ "type": "Feature", "properties": { "hex_id": 1144296, "centroid_lon": -67.253365771082201, "centroid_lat": 47.934471120848805, "occurrences_today": 11, "datetimes_today": "2026-01-03 09:32:54, 2026-01-03 10:31:59, 2026-01-03 11:39:00, 2026-01-03 12:31:54, 2026-01-03 13:44:56, 2026-01-03 14:26:59, 2026-01-03 15:35:01, 2026-01-03 16:30:53, 2026-01-03 17:34:22, 2026-01-03 18:31:00, 2026-01-03 21:39:56", "cumulative_total": 33 }, "geometry": { "type": "Polygon", "coordinates": [ [ [ -67.254139189046583, 47.929323996509403 ], [ -67.260385432524984, 47.932347502964888 ], [ -67.259612552596764, 47.937494701000702 ], [ -67.252592136873758, 47.939618231112235 ], [ -67.246345571641442, 47.936594274477784 ], [ -67.247119743809677, 47.931447237976677 ], [ -67.254139189046583, 47.929323996509403 ] ] ] } },
{ "type": "Feature", "properties": { "hex_id": 1144906, "centroid_lon": -67.24789369959629, "centroid_lat": 47.92630018738555, "occurrences_today": 11, "datetimes_today": "2026-01-03 09:32:54, 2026-01-03 10:31:59, 2026-01-03 11:39:00, 2026-01-03 12:31:54, 2026-01-03 13:44:56, 2026-01-03 14:26:59, 2026-01-03 15:35:01, 2026-01-03 16:30:53, 2026-01-03 17:34:22, 2026-01-03 18:31:00, 2026-01-03 21:39:56", "cumulative_total": 20 }, "geometry": { "type": "Polygon", "coordinates": [ [ [ -67.248667439077622, 47.921153122707878 ], [ -67.254912390843231, 47.924176858097518 ], [ -67.254139189046583, 47.929323996509403 ], [ -67.247119743809677, 47.931447237976677 ], [ -67.240874470702821, 47.928423052496505 ], [ -67.241648964097749, 47.923276075705466 ], [ -67.248667439077622, 47.921153122707878 ] ] ] } },
{ "type": "Feature", "properties": { "hex_id": 1144907, "centroid_lon": -67.245571183015159, "centroid_lat": 47.941741296885411, "occurrences_today": 11, "datetimes_today": "2026-01-03 09:32:54, 2026-01-03 10:31:59, 2026-01-03 11:39:00, 2026-01-03 12:31:54, 2026-01-03 13:44:56, 2026-01-03 14:26:59, 2026-01-03 15:35:01, 2026-01-03 16:30:53, 2026-01-03 17:34:22, 2026-01-03 18:31:00, 2026-01-03 21:39:56", "cumulative_total": 30 }, "geometry": { "type": "Polygon", "coordinates": [ [ [ -67.246345571641442, 47.936594274477784 ], [ -67.252592136873758, 47.939618231112235 ], [ -67.251818286344886, 47.944765327296238 ], [ -67.244796577854345, 47.946888305196076 ], [ -67.238549691097361, 47.943863898231214 ], [ -67.239324834279103, 47.93871696376285 ], [ -67.246345571641442, 47.936594274477784 ] ] ] } },
{ "type": "Feature", "properties": { "hex_id": 1145517, "centroid_lon": -67.240099760788752, "centroid_lat": 47.933570015183456, "occurrences_today": 11, "datetimes_today": "2026-01-03 09:32:54, 2026-01-03 10:31:59, 2026-01-03 11:39:00, 2026-01-03 12:31:54, 2026-01-03 13:44:56, 2026-01-03 14:26:59, 2026-01-03 15:35:01, 2026-01-03 16:30:53, 2026-01-03 17:34:22, 2026-01-03 18:31:00, 2026-01-03 21:39:56", "cumulative_total": 30 }, "geometry": { "type": "Polygon", "coordinates": [ [ [ -67.240874470702821, 47.928423052496505 ], [ -67.247119743809677, 47.931447237976677 ], [ -67.246345571641442, 47.936594274477784 ], [ -67.239324834279103, 47.93871696376285 ], [ -67.233079240060249, 47.935692328040787 ], [ -67.233854704239263, 47.930545453341438 ], [ -67.240874470702821, 47.928423052496505 ] ] ] } },
{ "type": "Feature", "properties": { "hex_id": 1147350, "centroid_lon": -67.216704362689967, "centroid_lat": 47.955375570797294, "occurrences_today": 11, "datetimes_today": "2026-01-03 09:32:54, 2026-01-03 10:31:59, 2026-01-03 11:39:00, 2026-01-03 12:31:54, 2026-01-03 13:44:56, 2026-01-03 14:26:59, 2026-01-03 15:35:01, 2026-01-03 16:30:53, 2026-01-03 17:34:22, 2026-01-03 18:31:00, 2026-01-03 21:39:56", "cumulative_total": 20 }, "geometry": { "type": "Polygon", "coordinates": [ [ [ -67.217481987754439, 47.950228914814737 ], [ -67.223728223508147, 47.95325445147467 ], [ -67.222951136372245, 47.958401181511356 ], [ -67.215926520157524, 47.960522212609085 ], [ -67.209679963981657, 47.957496225253159 ], [ -67.210458344365847, 47.95234965756142 ], [ -67.217481987754439, 47.950228914814737 ] ] ] } },
{ "type": "Feature", "properties": { "hex_id": 1147961, "centroid_lon": -67.208901365915125, "centroid_lat": 47.962642778756525, "occurrences_today": 11, "datetimes_today": "2026-01-03 09:32:54, 2026-01-03 10:31:59, 2026-01-03 11:39:00, 2026-01-03 12:31:54, 2026-01-03 13:44:56, 2026-01-03 14:26:59, 2026-01-03 15:35:01, 2026-01-03 16:30:53, 2026-01-03 17:34:22, 2026-01-03 18:31:00, 2026-01-03 21:39:56", "cumulative_total": 20 }, "geometry": { "type": "Polygon", "coordinates": [ [ [ -67.209679963981657, 47.957496225253159 ], [ -67.215926520157524, 47.960522212609085 ], [ -67.215148460080258, 47.965668840246593 ], [ -67.208122550089342, 47.967789318067979 ], [ -67.201875673721958, 47.964762879864722 ], [ -67.20265502746004, 47.959616414753356 ], [ -67.209679963981657, 47.957496225253159 ] ] ] } },
{ "type": "Feature", "properties": { "hex_id": 740169, "centroid_lon": -71.649131598272248, "centroid_lat": 48.521594935243762, "occurrences_today": 10, "datetimes_today": "2026-01-03 10:31:59, 2026-01-03 11:39:00, 2026-01-03 12:31:54, 2026-01-03 13:44:56, 2026-01-03 14:26:59, 2026-01-03 15:35:01, 2026-01-03 16:30:53, 2026-01-03 17:34:22, 2026-01-03 18:31:00, 2026-01-03 21:39:56", "cumulative_total": 10 }, "geometry": { "type": "Polygon", "coordinates": [ [ [ -71.649473949783896, 48.516409768683744 ], [ -71.656062241740187, 48.51919911862408 ], [ -71.655720529178694, 48.524384317581706 ], [ -71.648789149472307, 48.526780095297767 ], [ -71.642200315871818, 48.523990318219163 ], [ -71.642543403586586, 48.518805190634147 ], [ -71.649473949783896, 48.516409768683744 ] ] ] } },
{ "type": "Feature", "properties": { "hex_id": 768649, "centroid_lon": -71.551229542875163, "centroid_lat": 45.190549600797688, "occurrences_today": 7, "datetimes_today": "2026-01-03 13:44:56, 2026-01-03 14:26:59, 2026-01-03 15:35:01, 2026-01-03 16:30:53, 2026-01-03 17:34:22, 2026-01-03 18:31:00, 2026-01-03 21:39:56", "cumulative_total": 25 }, "geometry": { "type": "Polygon", "coordinates": [ [ [ -71.551543174193597, 45.185361934327574 ], [ -71.557739646150623, 45.188147660908641 ], [ -71.557426547320134, 45.193335358677487 ], [ -71.55091582635491, 45.195737260826739 ], [ -71.544718907125912, 45.192951151711434 ], [ -71.545033156105816, 45.18776352304419 ], [ -71.551543174193597, 45.185361934327574 ] ] ] } },
{ "type": "Feature", "properties": { "hex_id": 769259, "centroid_lon": -71.545347319742604, "centroid_lat": 45.182575887929943, "occurrences_today": 7, "datetimes_today": "2026-01-03 13:44:56, 2026-01-03 14:26:59, 2026-01-03 15:35:01, 2026-01-03 16:30:53, 2026-01-03 17:34:22, 2026-01-03 18:31:00, 2026-01-03 21:39:56", "cumulative_total": 25 }, "geometry": { "type": "Polygon", "coordinates": [ [ [ -71.545661398064595, 45.177388246369297 ], [ -71.551856720338463, 45.180174261416965 ], [ -71.551543174193597, 45.185361934327574 ], [ -71.545033156105816, 45.18776352304419 ], [ -71.538837386983758, 45.184977125516632 ], [ -71.539152082769363, 45.179789521815401 ], [ -71.545661398064595, 45.177388246369297 ] ] ] } },
{ "type": "Feature", "properties": { "hex_id": 770480, "centroid_lon": -71.532642235480665, "centroid_lat": 45.182190408314668, "occurrences_today": 7, "datetimes_today": "2026-01-03 13:44:56, 2026-01-03 14:26:59, 2026-01-03 15:35:01, 2026-01-03 16:30:53, 2026-01-03 17:34:22, 2026-01-03 18:31:00, 2026-01-03 21:39:56", "cumulative_total": 25 }, "geometry": { "type": "Polygon", "coordinates": [ [ [ -71.532957463245552, 45.177002836083588 ], [ -71.539152082769363, 45.179789521815401 ], [ -71.538837386983758, 45.184977125516632 ], [ -71.532326922090292, 45.187377974086907 ], [ -71.526131856226897, 45.184590905776993 ], [ -71.526447701568145, 45.179403371537965 ], [ -71.532957463245552, 45.177002836083588 ] ] ] } },
{ "type": "Feature", "properties": { "hex_id": 891551, "centroid_lon": -70.008799982929716, "centroid_lat": 48.119074573292849, "occurrences_today": 1, "datetimes_today": "2026-01-03 23:19:46", "cumulative_total": 42 }, "geometry": { "type": "Polygon", "coordinates": [ [ [ -70.009302425686172, 48.113899871809743 ], [ -70.015743723806935, 48.116778401616337 ], [ -70.015241877261232, 48.121953151341941 ], [ -70.008297398550198, 48.124249266135045 ], [ -70.001855645867082, 48.121370301769439 ], [ -70.002358826406692, 48.116195657238912 ], [ -70.009302425686172, 48.113899871809743 ] ] ] } },
{ "type": "Feature", "properties": { "hex_id": 1009385, "centroid_lon": -68.705006772182827, "centroid_lat": 48.171790286693735, "occurrences_today": 1, "datetimes_today": "2026-01-03 23:19:46", "cumulative_total": 22 }, "geometry": { "type": "Polygon", "coordinates": [ [ [ -68.705641162100633, 48.166627269613876 ], [ -68.712008296440985, 48.169576096130598 ], [ -68.711374480145153, 48.174739173902267 ], [ -68.704372203712396, 48.176953292814446 ], [ -68.69800467433457, 48.174004021674264 ], [ -68.698639816363226, 48.168841076313484 ], [ -68.705641162100633, 48.166627269613876 ] ] ] } },
{ "type": "Feature", "properties": { "hex_id": 1009386, "centroid_lon": -68.703102530858473, "centroid_lat": 48.187279272169349, "occurrences_today": 1, "datetimes_today": "2026-01-03 23:19:46", "cumulative_total": 22 }, "geometry": { "type": "Polygon", "coordinates": [ [ [ -68.703737456625532, 48.182116287973749 ], [ -68.710106312286129, 48.185065296601849 ], [ -68.709471960595465, 48.190228341525206 ], [ -68.702467426347354, 48.192442245398922 ], [ -68.696098175386368, 48.189492791906929 ], [ -68.696733853910018, 48.184329879473296 ], [ -68.703737456625532, 48.182116287973749 ] ] ] } },
{ "type": "Feature", "properties": { "hex_id": 1009996, "centroid_lon": -68.697369353538122, "centroid_lat": 48.179166956061628, "occurrences_today": 1, "datetimes_today": "2026-01-03 23:19:46", "cumulative_total": 127 }, "geometry": { "type": "Polygon", "coordinates": [ [ [ -68.69800467433457, 48.174004021674264 ], [ -68.704372203712396, 48.176953292814446 ], [ -68.703737456625532, 48.182116287973749 ], [ -68.696733853910018, 48.184329879473296 ], [ -68.69036592968618, 48.18138016355001 ], [ -68.691002002960005, 48.176217300978422 ], [ -68.69800467433457, 48.174004021674264 ] ] ] } },
{ "type": "Feature", "properties": { "hex_id": 1009997, "centroid_lon": -68.69546231790325, "centroid_lat": 48.194655693360268, "occurrences_today": 1, "datetimes_today": "2026-01-03 23:19:46", "cumulative_total": 22 }, "geometry": { "type": "Polygon", "coordinates": [ [ [ -68.696098175386368, 48.189492791906929 ], [ -68.702467426347354, 48.192442245398922 ], [ -68.701832143028284, 48.197605207660182 ], [ -68.694826281396701, 48.199818583830996 ], [ -68.688456635327057, 48.19686868531543 ], [ -68.689093245933691, 48.191705855720826 ], [ -68.696098175386368, 48.189492791906929 ] ] ] } },
{ "type": "Feature", "properties": { "hex_id": 1010606, "centroid_lon": -68.691637897250843, "centroid_lat": 48.171054427419136, "occurrences_today": 1, "datetimes_today": "2026-01-03 23:19:46", "cumulative_total": 22 }, "geometry": { "type": "Polygon", "coordinates": [ [ [ -68.692273612622571, 48.165891542874412 ], [ -68.698639816363226, 48.168841076313484 ], [ -68.69800467433457, 48.174004021674264 ], [ -68.691002002960005, 48.176217300978422 ], [ -68.684635404827333, 48.173267322837042 ], [ -68.685271872397337, 48.168104510161925 ], [ -68.692273612622571, 48.165891542874412 ] ] ] } },
{ "type": "Feature", "properties": { "hex_id": 1010607, "centroid_lon": -68.689729677365392, "centroid_lat": 48.186543015131583, "occurrences_today": 1, "datetimes_today": "2026-01-03 23:19:46", "cumulative_total": 22 }, "geometry": { "type": "Polygon", "coordinates": [ [ [ -68.69036592968618, 48.18138016355001 ], [ -68.696733853910018, 48.184329879473296 ], [ -68.696098175386368, 48.189492791906929 ], [ -68.689093245933691, 48.191705855720826 ], [ -68.682724927055631, 48.188755694854798 ], [ -68.683361932220492, 48.183592915185791 ], [ -68.69036592968618, 48.18138016355001 ] ] ] } },
{ "type": "Feature", "properties": { "hex_id": 1010608, "centroid_lon": -68.687819845481471, "centroid_lat": 48.202031503913119, "occurrences_today": 1, "datetimes_today": "2026-01-03 23:19:46", "cumulative_total": 22 }, "geometry": { "type": "Polygon", "coordinates": [ [ [ -68.688456635327057, 48.19686868531543 ], [ -68.694826281396701, 48.199818583830996 ], [ -68.694190065802758, 48.204981463316813 ], [ -68.687182876332869, 48.20719431151155 ], [ -68.680812835346671, 48.204243967812658 ], [ -68.681450378682811, 48.199081221170545 ], [ -68.688456635327057, 48.19686868531543 ] ] ] } },
{ "type": "Feature", "properties": { "hex_id": 1011218, "centroid_lon": -68.682087742564448, "centroid_lat": 48.19391846351715, "occurrences_today": 1, "datetimes_today": "2026-01-03 23:19:46", "cumulative_total": 22 }, "geometry": { "type": "Polygon", "coordinates": [ [ [ -68.682724927055631, 48.188755694854798 ], [ -68.689093245933691, 48.191705855720826 ], [ -68.688456635327057, 48.19686868531543 ], [ -68.681450378682811, 48.199081221170545 ], [ -68.675081665342674, 48.196130615202144 ], [ -68.675719603044769, 48.190967918549184 ], [ -68.682724927055631, 48.188755694854798 ] ] ] } }
]
}
