{
"type": "FeatureCollection",
"name": "daily_2026-01-02",
"crs": { "type": "name", "properties": { "name": "urn:ogc:def:crs:OGC:1.3:CRS84" } },
"features": [
{ "type": "Feature", "properties": { "hex_id": 525704, "centroid_lon": -74.075126162974357, "centroid_lat": 45.768981051189449, "occurrences_today": 22, "datetimes_today": "2026-01-02 00:42:01, 2026-01-02 01:51:15, 2026-01-02 02:36:03, 2026-01-02 03:45:08, 2026-01-02 04:37:43, 2026-01-02 05:37:08, 2026-01-02 06:30:06, 2026-01-02 08:02:51, 2026-01-02 08:44:39, 2026-01-02 09:36:33, 2026-01-02 10:34:37, 2026-01-02 11:40:28, 2026-01-02 12:32:53, 2026-01-02 13:46:02, 2026-01-02 14:24:22, 2026-01-02 15:34:50, 2026-01-02 16:28:03, 2026-01-02 17:36:18, 2026-01-02 18:30:56, 2026-01-02 21:21:43, 2026-01-02 23:02:32, 2026-01-02 23:44:47", "cumulative_total": 220 }, "geometry": { "type": "Polygon", "coordinates": [ [ [ -74.075212031664705, 45.763785164494649 ], [ -74.08159851433156, 45.76643497329264 ], [ -74.081513230712119, 45.771630866899443 ], [ -74.075040270754485, 45.774176933012619 ], [ -74.068653226550211, 45.771526756711424 ], [ -74.068739703833018, 45.766330881865457 ], [ -74.075212031664705, 45.763785164494649 ] ] ] } },
{ "type": "Feature", "properties": { "hex_id": 526315, "centroid_lon": -74.06856672557042, "centroid_lat": 45.776722626684027, "occurrences_today": 22, "datetimes_today": "2026-01-02 00:42:01, 2026-01-02 01:51:15, 2026-01-02 02:36:03, 2026-01-02 03:45:08, 2026-01-02 04:37:43, 2026-01-02 05:37:08, 2026-01-02 06:30:06, 2026-01-02 08:02:51, 2026-01-02 08:44:39, 2026-01-02 09:36:33, 2026-01-02 10:34:37, 2026-01-02 11:40:28, 2026-01-02 12:32:53, 2026-01-02 13:46:02, 2026-01-02 14:24:22, 2026-01-02 15:34:50, 2026-01-02 16:28:03, 2026-01-02 17:36:18, 2026-01-02 18:30:56, 2026-01-02 21:21:43, 2026-01-02 23:02:32, 2026-01-02 23:44:47", "cumulative_total": 203 }, "geometry": { "type": "Polygon", "coordinates": [ [ [ -74.068653226550211, 45.771526756711424 ], [ -74.075040270754485, 45.774176933012619 ], [ -74.074954354997175, 45.779372809964137 ], [ -74.068480200885659, 45.781918491783252 ], [ -74.062092595167897, 45.779267947817232 ], [ -74.062179705067123, 45.774072089762136 ], [ -74.068653226550211, 45.771526756711424 ] ] ] } },
{ "type": "Feature", "properties": { "hex_id": 526925, "centroid_lon": -74.062266791101848, "centroid_lat": 45.768876226831907, "occurrences_today": 22, "datetimes_today": "2026-01-02 00:42:01, 2026-01-02 01:51:15, 2026-01-02 02:36:03, 2026-01-02 03:45:08, 2026-01-02 04:37:43, 2026-01-02 05:37:08, 2026-01-02 06:30:06, 2026-01-02 08:02:51, 2026-01-02 08:44:39, 2026-01-02 09:36:33, 2026-01-02 10:34:37, 2026-01-02 11:40:28, 2026-01-02 12:32:53, 2026-01-02 13:46:02, 2026-01-02 14:24:22, 2026-01-02 15:34:50, 2026-01-02 16:28:03, 2026-01-02 17:36:18, 2026-01-02 18:30:56, 2026-01-02 21:21:43, 2026-01-02 23:02:32, 2026-01-02 23:44:47", "cumulative_total": 220 }, "geometry": { "type": "Polygon", "coordinates": [ [ [ -74.062353853280158, 45.763680359026573 ], [ -74.068739703833018, 45.766330881865457 ], [ -74.068653226550211, 45.771526756711424 ], [ -74.062179705067123, 45.774072089762136 ], [ -74.055793293479212, 45.771421199297521 ], [ -74.055880964401368, 45.766225343473117 ], [ -74.062353853280158, 45.763680359026573 ] ] ] } },
{ "type": "Feature", "properties": { "hex_id": 527536, "centroid_lon": -74.055705598533109, "centroid_lat": 45.776617050245058, "occurrences_today": 22, "datetimes_today": "2026-01-02 00:42:01, 2026-01-02 01:51:15, 2026-01-02 02:36:03, 2026-01-02 03:45:08, 2026-01-02 04:37:43, 2026-01-02 05:37:08, 2026-01-02 06:30:06, 2026-01-02 08:02:51, 2026-01-02 08:44:39, 2026-01-02 09:36:33, 2026-01-02 10:34:37, 2026-01-02 11:40:28, 2026-01-02 12:32:53, 2026-01-02 13:46:02, 2026-01-02 14:24:22, 2026-01-02 15:34:50, 2026-01-02 16:28:03, 2026-01-02 17:36:18, 2026-01-02 18:30:56, 2026-01-02 21:21:43, 2026-01-02 23:02:32, 2026-01-02 23:44:47", "cumulative_total": 209 }, "geometry": { "type": "Polygon", "coordinates": [ [ [ -74.055793293479212, 45.771421199297521 ], [ -74.062179705067123, 45.774072089762136 ], [ -74.062092595167897, 45.779267947817232 ], [ -74.055617879554958, 45.781812896315699 ], [ -74.049230906956282, 45.779161638063762 ], [ -74.049319210973209, 45.773965799165879 ], [ -74.055793293479212, 45.771421199297521 ] ] ] } },
{ "type": "Feature", "properties": { "hex_id": 790832, "centroid_lon": -71.098483744954251, "centroid_lat": 48.371739145252114, "occurrences_today": 14, "datetimes_today": "2026-01-02 08:44:39, 2026-01-02 09:36:33, 2026-01-02 10:34:37, 2026-01-02 11:40:28, 2026-01-02 12:32:53, 2026-01-02 13:46:02, 2026-01-02 14:24:22, 2026-01-02 15:34:50, 2026-01-02 16:28:03, 2026-01-02 17:36:18, 2026-01-02 18:30:56, 2026-01-02 21:21:43, 2026-01-02 23:02:32, 2026-01-02 23:44:47", "cumulative_total": 47 }, "geometry": { "type": "Polygon", "coordinates": [ [ [ -71.098880183824477, 48.366557004168421 ], [ -71.105417475923375, 48.369376638660171 ], [ -71.10502166120034, 48.374558817537967 ], [ -71.098087193750146, 48.376921279201831 ], [ -71.091549389858216, 48.374101215095656 ], [ -71.091946565168953, 48.368919119010684 ], [ -71.098880183824477, 48.366557004168421 ] ] ] } },
{ "type": "Feature", "properties": { "hex_id": 791443, "centroid_lon": -71.091152102001843, "centroid_lat": 48.379283304037891, "occurrences_today": 14, "datetimes_today": "2026-01-02 08:44:39, 2026-01-02 09:36:33, 2026-01-02 10:34:37, 2026-01-02 11:40:28, 2026-01-02 12:32:53, 2026-01-02 13:46:02, 2026-01-02 14:24:22, 2026-01-02 15:34:50, 2026-01-02 16:28:03, 2026-01-02 17:36:18, 2026-01-02 18:30:56, 2026-01-02 21:21:43, 2026-01-02 23:02:32, 2026-01-02 23:44:47", "cumulative_total": 41 }, "geometry": { "type": "Polygon", "coordinates": [ [ [ -71.091549389858216, 48.374101215095656 ], [ -71.098087193750146, 48.376921279201831 ], [ -71.09769053017159, 48.382103406016746 ], [ -71.090754701559177, 48.384465385836592 ], [ -71.084216385996072, 48.381644891945761 ], [ -71.084614410675883, 48.376462848090398 ], [ -71.091549389858216, 48.374101215095656 ] ] ] } },
{ "type": "Feature", "properties": { "hex_id": 792053, "centroid_lon": -71.085012322598232, "centroid_lat": 48.371280797083536, "occurrences_today": 14, "datetimes_today": "2026-01-02 08:44:39, 2026-01-02 09:36:33, 2026-01-02 10:34:37, 2026-01-02 11:40:28, 2026-01-02 12:32:53, 2026-01-02 13:46:02, 2026-01-02 14:24:22, 2026-01-02 15:34:50, 2026-01-02 16:28:03, 2026-01-02 17:36:18, 2026-01-02 18:30:56, 2026-01-02 21:21:43, 2026-01-02 23:02:32, 2026-01-02 23:44:47", "cumulative_total": 45 }, "geometry": { "type": "Polygon", "coordinates": [ [ [ -71.085410121803832, 48.366098738925999 ], [ -71.091946565168953, 48.368919119010684 ], [ -71.091549389858216, 48.374101215095656 ], [ -71.084614410675883, 48.376462848090398 ], [ -71.078077456152982, 48.37364203828664 ], [ -71.078475991929508, 48.368460025277841 ], [ -71.085410121803832, 48.366098738925999 ] ] ] } },
{ "type": "Feature", "properties": { "hex_id": 511642, "centroid_lon": -74.227413975132976, "centroid_lat": 45.450514281925408, "occurrences_today": 22, "datetimes_today": "2026-01-02 00:42:01, 2026-01-02 01:51:15, 2026-01-02 02:36:03, 2026-01-02 03:45:08, 2026-01-02 04:37:43, 2026-01-02 05:37:08, 2026-01-02 06:30:06, 2026-01-02 08:02:51, 2026-01-02 08:44:39, 2026-01-02 09:36:33, 2026-01-02 10:34:37, 2026-01-02 11:40:28, 2026-01-02 12:32:53, 2026-01-02 13:46:02, 2026-01-02 14:24:22, 2026-01-02 15:34:50, 2026-01-02 16:28:03, 2026-01-02 17:36:18, 2026-01-02 18:30:56, 2026-01-02 21:21:43, 2026-01-02 23:02:32, 2026-01-02 23:44:47", "cumulative_total": 97 }, "geometry": { "type": "Polygon", "coordinates": [ [ [ -74.227484913993578, 45.445317899397594 ], [ -74.233842832062663, 45.447959155399033 ], [ -74.233772470527967, 45.453155543270078 ], [ -74.227343016908208, 45.455710659618639 ], [ -74.220984540880636, 45.453069041606163 ], [ -74.221056076424844, 45.447872669320631 ], [ -74.227484913993578, 45.445317899397594 ] ] ] } },
{ "type": "Feature", "properties": { "hex_id": 512252, "centroid_lon": -74.221127592447985, "centroid_lat": 45.442676292199096, "occurrences_today": 22, "datetimes_today": "2026-01-02 00:42:01, 2026-01-02 01:51:15, 2026-01-02 02:36:03, 2026-01-02 03:45:08, 2026-01-02 04:37:43, 2026-01-02 05:37:08, 2026-01-02 06:30:06, 2026-01-02 08:02:51, 2026-01-02 08:44:39, 2026-01-02 09:36:33, 2026-01-02 10:34:37, 2026-01-02 11:40:28, 2026-01-02 12:32:53, 2026-01-02 13:46:02, 2026-01-02 14:24:22, 2026-01-02 15:34:50, 2026-01-02 16:28:03, 2026-01-02 17:36:18, 2026-01-02 18:30:56, 2026-01-02 21:21:43, 2026-01-02 23:02:32, 2026-01-02 23:44:47", "cumulative_total": 93 }, "geometry": { "type": "Polygon", "coordinates": [ [ [ -74.221199088956581, 45.437479910241592 ], [ -74.22755583349651, 45.440121512035212 ], [ -74.227484913993578, 45.445317899397594 ], [ -74.221056076424844, 45.447872669320631 ], [ -74.21469877439705, 45.445230705553513 ], [ -74.214770867419318, 45.440034333901295 ], [ -74.221199088956581, 45.437479910241592 ] ] ] } },
{ "type": "Feature", "properties": { "hex_id": 512862, "centroid_lon": -74.214842940770254, "centroid_lat": 45.434837957411652, "occurrences_today": 22, "datetimes_today": "2026-01-02 00:42:01, 2026-01-02 01:51:15, 2026-01-02 02:36:03, 2026-01-02 03:45:08, 2026-01-02 04:37:43, 2026-01-02 05:37:08, 2026-01-02 06:30:06, 2026-01-02 08:02:51, 2026-01-02 08:44:39, 2026-01-02 09:36:33, 2026-01-02 10:34:37, 2026-01-02 11:40:28, 2026-01-02 12:32:53, 2026-01-02 13:46:02, 2026-01-02 14:24:22, 2026-01-02 15:34:50, 2026-01-02 16:28:03, 2026-01-02 17:36:18, 2026-01-02 18:30:56, 2026-01-02 21:21:43, 2026-01-02 23:02:32, 2026-01-02 23:44:47", "cumulative_total": 130 }, "geometry": { "type": "Polygon", "coordinates": [ [ [ -74.21491499445645, 45.429641576084606 ], [ -74.22127056595717, 45.432283523448092 ], [ -74.221199088956581, 45.437479910241592 ], [ -74.214770867419318, 45.440034333901295 ], [ -74.208414738901041, 45.437392024601941 ], [ -74.20848738893099, 45.432195653643177 ], [ -74.21491499445645, 45.429641576084606 ] ] ] } },
{ "type": "Feature", "properties": { "hex_id": 512863, "centroid_lon": -74.21462666169684, "centroid_lat": 45.450427072368328, "occurrences_today": 22, "datetimes_today": "2026-01-02 00:42:01, 2026-01-02 01:51:15, 2026-01-02 02:36:03, 2026-01-02 03:45:08, 2026-01-02 04:37:43, 2026-01-02 05:37:08, 2026-01-02 06:30:06, 2026-01-02 08:02:51, 2026-01-02 08:44:39, 2026-01-02 09:36:33, 2026-01-02 10:34:37, 2026-01-02 11:40:28, 2026-01-02 12:32:53, 2026-01-02 13:46:02, 2026-01-02 14:24:22, 2026-01-02 15:34:50, 2026-01-02 16:28:03, 2026-01-02 17:36:18, 2026-01-02 18:30:56, 2026-01-02 21:21:43, 2026-01-02 23:02:32, 2026-01-02 23:44:47", "cumulative_total": 121 }, "geometry": { "type": "Polygon", "coordinates": [ [ [ -74.21469877439705, 45.445230705553513 ], [ -74.221056076424844, 45.447872669320631 ], [ -74.220984540880636, 45.453069041606163 ], [ -74.214554529312124, 45.455623434345675 ], [ -74.208196669816161, 45.452981108445044 ], [ -74.208269379350256, 45.447784752002889 ], [ -74.21469877439705, 45.445230705553513 ] ] ] } },
{ "type": "Feature", "properties": { "hex_id": 535479, "centroid_lon": -73.970243459961594, "centroid_lat": 45.877211100908298, "occurrences_today": 22, "datetimes_today": "2026-01-02 00:42:01, 2026-01-02 01:51:15, 2026-01-02 02:36:03, 2026-01-02 03:45:08, 2026-01-02 04:37:43, 2026-01-02 05:37:08, 2026-01-02 06:30:06, 2026-01-02 08:02:51, 2026-01-02 08:44:39, 2026-01-02 09:36:33, 2026-01-02 10:34:37, 2026-01-02 11:40:28, 2026-01-02 12:32:53, 2026-01-02 13:46:02, 2026-01-02 14:24:22, 2026-01-02 15:34:50, 2026-01-02 16:28:03, 2026-01-02 17:36:18, 2026-01-02 18:30:56, 2026-01-02 21:21:43, 2026-01-02 23:02:32, 2026-01-02 23:44:47", "cumulative_total": 126 }, "geometry": { "type": "Polygon", "coordinates": [ [ [ -73.97033942675634, 45.872015475550832 ], [ -73.976733129523424, 45.874671159869791 ], [ -73.976637749742494, 45.879866793207569 ], [ -73.97014746683584, 45.882406721364426 ], [ -73.963753203390382, 45.879750667153964 ], [ -73.963849783521042, 45.874555054743567 ], [ -73.97033942675634, 45.872015475550832 ] ] ] } },
{ "type": "Feature", "properties": { "hex_id": 536089, "centroid_lon": -73.963946337160607, "centroid_lat": 45.869359437429857, "occurrences_today": 22, "datetimes_today": "2026-01-02 00:42:01, 2026-01-02 01:51:15, 2026-01-02 02:36:03, 2026-01-02 03:45:08, 2026-01-02 04:37:43, 2026-01-02 05:37:08, 2026-01-02 06:30:06, 2026-01-02 08:02:51, 2026-01-02 08:44:39, 2026-01-02 09:36:33, 2026-01-02 10:34:37, 2026-01-02 11:40:28, 2026-01-02 12:32:53, 2026-01-02 13:46:02, 2026-01-02 14:24:22, 2026-01-02 15:34:50, 2026-01-02 16:28:03, 2026-01-02 17:36:18, 2026-01-02 18:30:56, 2026-01-02 21:21:43, 2026-01-02 23:02:32, 2026-01-02 23:44:47", "cumulative_total": 126 }, "geometry": { "type": "Polygon", "coordinates": [ [ [ -73.964042864318088, 45.864163815212905 ], [ -73.97043536722903, 45.866819845292014 ], [ -73.97033942675634, 45.872015475550832 ], [ -73.963849783521042, 45.874555054743567 ], [ -73.957456720411912, 45.871898654812931 ], [ -73.957553860727288, 45.866703045606485 ], [ -73.964042864318088, 45.864163815212905 ] ] ] } },
{ "type": "Feature", "properties": { "hex_id": 742505, "centroid_lon": -71.727075931491214, "centroid_lat": 46.871640176637761, "occurrences_today": 22, "datetimes_today": "2026-01-02 00:42:01, 2026-01-02 01:51:15, 2026-01-02 02:36:03, 2026-01-02 03:45:08, 2026-01-02 04:37:43, 2026-01-02 05:37:08, 2026-01-02 06:30:06, 2026-01-02 08:02:51, 2026-01-02 08:44:39, 2026-01-02 09:36:33, 2026-01-02 10:34:37, 2026-01-02 11:40:28, 2026-01-02 12:32:53, 2026-01-02 13:46:02, 2026-01-02 14:24:22, 2026-01-02 15:34:50, 2026-01-02 16:28:03, 2026-01-02 17:36:18, 2026-01-02 18:30:56, 2026-01-02 21:21:43, 2026-01-02 23:02:32, 2026-01-02 23:44:47", "cumulative_total": 103 }, "geometry": { "type": "Polygon", "coordinates": [ [ [ -71.727391561219747, 46.866453104539374 ], [ -71.733783795800008, 46.869233919092402 ], [ -71.733468751315655, 46.874421021771191 ], [ -71.726760214166092, 46.876827242382085 ], [ -71.72036748195346, 46.874046024558915 ], [ -71.720683784492337, 46.868858989462076 ], [ -71.727391561219747, 46.866453104539374 ] ] ] } },
{ "type": "Feature", "properties": { "hex_id": 743115, "centroid_lon": -71.720999999276117, "centroid_lat": 46.863671948004949, "occurrences_today": 22, "datetimes_today": "2026-01-02 00:42:01, 2026-01-02 01:51:15, 2026-01-02 02:36:03, 2026-01-02 03:45:08, 2026-01-02 04:37:43, 2026-01-02 05:37:08, 2026-01-02 06:30:06, 2026-01-02 08:02:51, 2026-01-02 08:44:39, 2026-01-02 09:36:33, 2026-01-02 10:34:37, 2026-01-02 11:40:28, 2026-01-02 12:32:53, 2026-01-02 13:46:02, 2026-01-02 14:24:22, 2026-01-02 15:34:50, 2026-01-02 16:28:03, 2026-01-02 17:36:18, 2026-01-02 18:30:56, 2026-01-02 21:21:43, 2026-01-02 23:02:32, 2026-01-02 23:44:47", "cumulative_total": 186 }, "geometry": { "type": "Polygon", "coordinates": [ [ [ -71.721316126335253, 46.858484900188124 ], [ -71.727707103382087, 46.861266026087428 ], [ -71.727391561219747, 46.866453104539374 ], [ -71.720683784492337, 46.868858989462076 ], [ -71.714292310288599, 46.866077460349771 ], [ -71.714609109938706, 46.860890449594812 ], [ -71.721316126335253, 46.858484900188124 ] ] ] } },
{ "type": "Feature", "properties": { "hex_id": 693575, "centroid_lon": -72.320323159613153, "centroid_lat": 45.484046915428465, "occurrences_today": 16, "datetimes_today": "2026-01-02 06:30:06, 2026-01-02 08:02:51, 2026-01-02 08:44:39, 2026-01-02 09:36:33, 2026-01-02 10:34:37, 2026-01-02 11:40:28, 2026-01-02 12:32:53, 2026-01-02 13:46:02, 2026-01-02 14:24:22, 2026-01-02 15:34:50, 2026-01-02 16:28:03, 2026-01-02 17:36:18, 2026-01-02 18:30:56, 2026-01-02 21:21:43, 2026-01-02 23:02:32, 2026-01-02 23:44:47", "cumulative_total": 81 }, "geometry": { "type": "Polygon", "coordinates": [ [ [ -72.320569413398331, 45.478855781716106 ], [ -72.326837065675434, 45.481601192682405 ], [ -72.326591363993927, 45.486792350480663 ], [ -72.320076838648603, 45.489238043359876 ], [ -72.313808701458484, 45.486492252527761 ], [ -72.314055574504195, 45.481301148746319 ], [ -72.320569413398331, 45.478855781716106 ] ] ] } },
{ "type": "Feature", "properties": { "hex_id": 694186, "centroid_lon": -72.313561761062829, "centroid_lat": 45.491683350523154, "occurrences_today": 16, "datetimes_today": "2026-01-02 06:30:06, 2026-01-02 08:02:51, 2026-01-02 08:44:39, 2026-01-02 09:36:33, 2026-01-02 10:34:37, 2026-01-02 11:40:28, 2026-01-02 12:32:53, 2026-01-02 13:46:02, 2026-01-02 14:24:22, 2026-01-02 15:34:50, 2026-01-02 16:28:03, 2026-01-02 17:36:18, 2026-01-02 18:30:56, 2026-01-02 21:21:43, 2026-01-02 23:02:32, 2026-01-02 23:44:47", "cumulative_total": 109 }, "geometry": { "type": "Polygon", "coordinates": [ [ [ -72.313808701458484, 45.486492252527761 ], [ -72.320076838648603, 45.489238043359876 ], [ -72.319830450482172, 45.494429165509963 ], [ -72.313314753294677, 45.496874442732114 ], [ -72.307046131259114, 45.494128271877926 ], [ -72.307293691233923, 45.488937203887751 ], [ -72.313808701458484, 45.486492252527761 ] ] ] } },
{ "type": "Feature", "properties": { "hex_id": 552559, "centroid_lon": -73.794586095235729, "centroid_lat": 45.657236002800474, "occurrences_today": 14, "datetimes_today": "2026-01-02 08:44:39, 2026-01-02 09:36:33, 2026-01-02 10:34:37, 2026-01-02 11:40:28, 2026-01-02 12:32:53, 2026-01-02 13:46:02, 2026-01-02 14:24:22, 2026-01-02 15:34:50, 2026-01-02 16:28:03, 2026-01-02 17:36:18, 2026-01-02 18:30:56, 2026-01-02 21:21:43, 2026-01-02 23:02:32, 2026-01-02 23:44:47", "cumulative_total": 176 }, "geometry": { "type": "Polygon", "coordinates": [ [ [ -73.794697571859814, 45.652040487750192 ], [ -73.80105786960435, 45.654705768770796 ], [ -73.80094697084607, 45.659901293509868 ], [ -73.794474588109722, 45.662431512892553 ], [ -73.78811374300642, 45.659765863110707 ], [ -73.788225827987972, 45.65457036277229 ], [ -73.794697571859814, 45.652040487750192 ] ] ] } },
{ "type": "Feature", "properties": { "hex_id": 561703, "centroid_lon": -73.703192789190396, "centroid_lat": 45.445765190727599, "occurrences_today": 14, "datetimes_today": "2026-01-02 08:44:39, 2026-01-02 09:36:33, 2026-01-02 10:34:37, 2026-01-02 11:40:28, 2026-01-02 12:32:53, 2026-01-02 13:46:02, 2026-01-02 14:24:22, 2026-01-02 15:34:50, 2026-01-02 16:28:03, 2026-01-02 17:36:18, 2026-01-02 18:30:56, 2026-01-02 21:21:43, 2026-01-02 23:02:32, 2026-01-02 23:44:47", "cumulative_total": 60 }, "geometry": { "type": "Polygon", "coordinates": [ [ [ -73.703311835820372, 45.440569663798733 ], [ -73.709644112244106, 45.443239823908172 ], [ -73.709525635845566, 45.448435361386025 ], [ -73.703073710071493, 45.450960712666046 ], [ -73.696740895910679, 45.448290185613565 ], [ -73.696860545250132, 45.443094674288503 ], [ -73.703311835820372, 45.440569663798733 ] ] ] } },
{ "type": "Feature", "properties": { "hex_id": 562313, "centroid_lon": -73.696980161946215, "centroid_lat": 45.437899157970683, "occurrences_today": 14, "datetimes_today": "2026-01-02 08:44:39, 2026-01-02 09:36:33, 2026-01-02 10:34:37, 2026-01-02 11:40:28, 2026-01-02 12:32:53, 2026-01-02 13:46:02, 2026-01-02 14:24:22, 2026-01-02 15:34:50, 2026-01-02 16:28:03, 2026-01-02 17:36:18, 2026-01-02 18:30:56, 2026-01-02 21:21:43, 2026-01-02 23:02:32, 2026-01-02 23:44:47", "cumulative_total": 125 }, "geometry": { "type": "Polygon", "coordinates": [ [ [ -73.69709974600984, 45.432703636660186 ], [ -73.703430849972293, 45.43537413187957 ], [ -73.703311835820372, 45.440569663798733 ], [ -73.696860545250132, 45.443094674288503 ], [ -73.690528904013888, 45.44042381216714 ], [ -73.690649090610719, 45.435228306522369 ], [ -73.69709974600984, 45.432703636660186 ] ] ] } },
{ "type": "Feature", "properties": { "hex_id": 562924, "centroid_lon": -73.690408684619271, "centroid_lat": 45.445619312816802, "occurrences_today": 13, "datetimes_today": "2026-01-02 09:36:33, 2026-01-02 10:34:37, 2026-01-02 11:40:28, 2026-01-02 12:32:53, 2026-01-02 13:46:02, 2026-01-02 14:24:22, 2026-01-02 15:34:50, 2026-01-02 16:28:03, 2026-01-02 17:36:18, 2026-01-02 18:30:56, 2026-01-02 21:21:43, 2026-01-02 23:02:32, 2026-01-02 23:44:47", "cumulative_total": 183 }, "geometry": { "type": "Polygon", "coordinates": [ [ [ -73.690528904013888, 45.44042381216714 ], [ -73.696860545250132, 45.443094674288503 ], [ -73.696740895910679, 45.448290185613565 ], [ -73.690288432415898, 45.450814808471286 ], [ -73.683956253938746, 45.448143579288889 ], [ -73.684077076186298, 45.442948094374181 ], [ -73.690528904013888, 45.44042381216714 ] ] ] } },
{ "type": "Feature", "properties": { "hex_id": 683181, "centroid_lon": -72.439897924110298, "centroid_lat": 45.245131239940939, "occurrences_today": 13, "datetimes_today": "2026-01-02 09:36:33, 2026-01-02 10:34:37, 2026-01-02 11:40:28, 2026-01-02 12:32:53, 2026-01-02 13:46:02, 2026-01-02 14:24:22, 2026-01-02 15:34:50, 2026-01-02 16:28:03, 2026-01-02 17:36:18, 2026-01-02 18:30:56, 2026-01-02 21:21:43, 2026-01-02 23:02:32, 2026-01-02 23:44:47", "cumulative_total": 149 }, "geometry": { "type": "Polygon", "coordinates": [ [ [ -72.440131246048708, 45.239939391754042 ], [ -72.446379129378627, 45.242677888597399 ], [ -72.446146354319652, 45.247869759610452 ], [ -72.439664538694771, 45.250323082443998 ], [ -72.433416171973107, 45.247584209819721 ], [ -72.433650104246937, 45.242392390206398 ], [ -72.440131246048708, 45.239939391754042 ] ] ] } },
{ "type": "Feature", "properties": { "hex_id": 683791, "centroid_lon": -72.433883972897277, "centroid_lat": 45.237200564904761, "occurrences_today": 13, "datetimes_today": "2026-01-02 09:36:33, 2026-01-02 10:34:37, 2026-01-02 11:40:28, 2026-01-02 12:32:53, 2026-01-02 13:46:02, 2026-01-02 14:24:22, 2026-01-02 15:34:50, 2026-01-02 16:28:03, 2026-01-02 17:36:18, 2026-01-02 18:30:56, 2026-01-02 21:21:43, 2026-01-02 23:02:32, 2026-01-02 23:44:47", "cumulative_total": 149 }, "geometry": { "type": "Polygon", "coordinates": [ [ [ -72.434117777945275, 45.23200873391513 ], [ -72.440364504531118, 45.234747537883614 ], [ -72.440131246048708, 45.239939391754042 ], [ -72.433650104246937, 45.242392390206398 ], [ -72.427402894708393, 45.239653210505892 ], [ -72.427637309903147, 45.234461408148597 ], [ -72.434117777945275, 45.23200873391513 ] ] ] } },
{ "type": "Feature", "properties": { "hex_id": 684402, "centroid_lon": -72.427168415743836, "centroid_lat": 45.24484500717039, "occurrences_today": 13, "datetimes_today": "2026-01-02 09:36:33, 2026-01-02 10:34:37, 2026-01-02 11:40:28, 2026-01-02 12:32:53, 2026-01-02 13:46:02, 2026-01-02 14:24:22, 2026-01-02 15:34:50, 2026-01-02 16:28:03, 2026-01-02 17:36:18, 2026-01-02 18:30:56, 2026-01-02 21:21:43, 2026-01-02 23:02:32, 2026-01-02 23:44:47", "cumulative_total": 149 }, "geometry": { "type": "Polygon", "coordinates": [ [ [ -72.427402894708393, 45.239653210505892 ], [ -72.433650104246937, 45.242392390206398 ], [ -72.433416171973107, 45.247584209819721 ], [ -72.426933872988215, 45.250036798141728 ], [ -72.420686180560594, 45.247297242554019 ], [ -72.420921269985726, 45.242105474595078 ], [ -72.427402894708393, 45.239653210505892 ] ] ] } }
]
}
