{
"type": "FeatureCollection",
"name": "daily_2026-03-10",
"crs": { "type": "name", "properties": { "name": "urn:ogc:def:crs:OGC:1.3:CRS84" } },
"features": [
{ "type": "Feature", "properties": { "hex_id": 570870, "centroid_lon": -73.603656251902478, "centroid_lat": 45.592700849169688, "occurrences_today": 1, "datetimes_today": "2026-03-10 17:31:24", "cumulative_total": 219 }, "geometry": { "type": "Polygon", "coordinates": [ [ [ -73.603785092337247, 45.587505668925651 ], [ -73.610128867927855, 45.590181419258364 ], [ -73.61000060080903, 45.595376611070606 ], [ -73.603527376245083, 45.597896024384013 ], [ -73.597183062567083, 45.595219904315037 ], [ -73.597312511528585, 45.590024740733597 ], [ -73.603785092337247, 45.587505668925651 ] ] ] } },
{ "type": "Feature", "properties": { "hex_id": 694817, "centroid_lon": -72.291816386712853, "centroid_lat": 45.810772453807019, "occurrences_today": 7, "datetimes_today": "2026-03-10 16:16:21, 2026-03-10 16:31:37, 2026-03-10 16:46:38, 2026-03-10 17:01:28, 2026-03-10 17:16:33, 2026-03-10 17:31:24, 2026-03-10 18:01:26", "cumulative_total": 33 }, "geometry": { "type": "Polygon", "coordinates": [ [ [ -72.292068108625983, 45.805581739762509 ], [ -72.298370135794826, 45.808329372514095 ], [ -72.298118975210031, 45.813520111070865 ], [ -72.291564595856187, 45.815963162037903 ], [ -72.285262076314197, 45.813215144952039 ], [ -72.285514428475892, 45.808024461298238 ], [ -72.292068108625983, 45.805581739762509 ] ] ] } },
{ "type": "Feature", "properties": { "hex_id": 694818, "centroid_lon": -72.291060807219068, "centroid_lat": 45.826344561057383, "occurrences_today": 7, "datetimes_today": "2026-03-10 16:16:21, 2026-03-10 16:31:37, 2026-03-10 16:46:38, 2026-03-10 17:01:28, 2026-03-10 17:16:33, 2026-03-10 17:31:24, 2026-03-10 18:01:26", "cumulative_total": 111 }, "geometry": { "type": "Polygon", "coordinates": [ [ [ -72.291312736032694, 45.821153864454807 ], [ -72.29761644763974, 45.823901570757798 ], [ -72.297365080607719, 45.82909229188725 ], [ -72.290808809391976, 45.831535251845224 ], [ -72.284504605028431, 45.82878716099885 ], [ -72.284757164613822, 45.823596494802715 ], [ -72.291312736032694, 45.821153864454807 ] ] ] } },
{ "type": "Feature", "properties": { "hex_id": 695427, "centroid_lon": -72.28576671154309, "centroid_lat": 45.802833771825931, "occurrences_today": 7, "datetimes_today": "2026-03-10 16:16:21, 2026-03-10 16:31:37, 2026-03-10 16:46:38, 2026-03-10 17:01:28, 2026-03-10 17:16:33, 2026-03-10 17:31:24, 2026-03-10 18:01:26", "cumulative_total": 33 }, "geometry": { "type": "Polygon", "coordinates": [ [ [ -72.286018925539111, 45.797643076535508 ], [ -72.29231976161887, 45.800391019904765 ], [ -72.292068108625983, 45.805581739762509 ], [ -72.285514428475892, 45.808024461298238 ], [ -72.279213100475857, 45.805276133645684 ], [ -72.279465944522855, 45.800085468805491 ], [ -72.286018925539111, 45.797643076535508 ] ] ] } },
{ "type": "Feature", "properties": { "hex_id": 695428, "centroid_lon": -72.2850096550346, "centroid_lat": 45.818405822786993, "occurrences_today": 7, "datetimes_today": "2026-03-10 16:16:21, 2026-03-10 16:31:37, 2026-03-10 16:46:38, 2026-03-10 17:01:28, 2026-03-10 17:16:33, 2026-03-10 17:31:24, 2026-03-10 18:01:26", "cumulative_total": 33 }, "geometry": { "type": "Polygon", "coordinates": [ [ [ -72.285262076314197, 45.813215144952039 ], [ -72.291564595856187, 45.815963162037903 ], [ -72.291312736032694, 45.821153864454807 ], [ -72.284757164613822, 45.823596494802715 ], [ -72.278454152768632, 45.820848093224534 ], [ -72.278707204622151, 45.815657445855578 ], [ -72.285262076314197, 45.813215144952039 ] ] ] } },
{ "type": "Feature", "properties": { "hex_id": 696037, "centroid_lon": -72.279718719347784, "centroid_lat": 45.794894798142266, "occurrences_today": 7, "datetimes_today": "2026-03-10 16:16:21, 2026-03-10 16:31:37, 2026-03-10 16:46:38, 2026-03-10 17:01:28, 2026-03-10 17:16:33, 2026-03-10 17:31:24, 2026-03-10 18:01:26", "cumulative_total": 41 }, "geometry": { "type": "Polygon", "coordinates": [ [ [ -72.279971424974022, 45.789704121656399 ], [ -72.28627107048726, 45.79245237542731 ], [ -72.286018925539111, 45.797643076535508 ], [ -72.279465944522855, 45.800085468805491 ], [ -72.273165807541901, 45.797336830802365 ], [ -72.273419143021556, 45.792146184826223 ], [ -72.279971424974022, 45.789704121656399 ] ] ] } },
{ "type": "Feature", "properties": { "hex_id": 696038, "centroid_lon": -72.278960187183415, "centroid_lat": 45.81046679266251, "occurrences_today": 7, "datetimes_today": "2026-03-10 16:16:21, 2026-03-10 16:31:37, 2026-03-10 16:46:38, 2026-03-10 17:01:28, 2026-03-10 17:16:33, 2026-03-10 17:31:24, 2026-03-10 18:01:26", "cumulative_total": 33 }, "geometry": { "type": "Polygon", "coordinates": [ [ [ -72.279213100475857, 45.805276133645684 ], [ -72.285514428475892, 45.808024461298238 ], [ -72.285262076314197, 45.813215144952039 ], [ -72.278707204622151, 45.815657445855578 ], [ -72.272405384771915, 45.812908733761802 ], [ -72.272658928440507, 45.80771810527051 ], [ -72.279213100475857, 45.805276133645684 ] ] ] } },
{ "type": "Feature", "properties": { "hex_id": 696039, "centroid_lon": -72.278201031599451, "centroid_lat": 45.826038734769021, "occurrences_today": 7, "datetimes_today": "2026-03-10 16:16:21, 2026-03-10 16:31:37, 2026-03-10 16:46:38, 2026-03-10 17:01:28, 2026-03-10 17:16:33, 2026-03-10 17:31:24, 2026-03-10 18:01:26", "cumulative_total": 111 }, "geometry": { "type": "Polygon", "coordinates": [ [ [ -72.278454152768632, 45.820848093224534 ], [ -72.284757164613822, 45.823596494802715 ], [ -72.284504605028431, 45.82878716099885 ], [ -72.277947841091191, 45.831229370488643 ], [ -72.271644337013029, 45.828480584260099 ], [ -72.271898089081645, 45.823289973256955 ], [ -72.278454152768632, 45.820848093224534 ] ] ] } },
{ "type": "Feature", "properties": { "hex_id": 696648, "centroid_lon": -72.272912402689357, "centroid_lat": 45.802527470950572, "occurrences_today": 7, "datetimes_today": "2026-03-10 16:16:21, 2026-03-10 16:31:37, 2026-03-10 16:46:38, 2026-03-10 17:01:28, 2026-03-10 17:16:33, 2026-03-10 17:31:24, 2026-03-10 18:01:26", "cumulative_total": 33 }, "geometry": { "type": "Polygon", "coordinates": [ [ [ -72.273165807541901, 45.797336830802365 ], [ -72.279465944522855, 45.800085468805491 ], [ -72.279213100475857, 45.805276133645684 ], [ -72.272658928440507, 45.80771810527051 ], [ -72.266358300062052, 45.804969082877228 ], [ -72.266612335093001, 45.799778473314056 ], [ -72.273165807541901, 45.797336830802365 ] ] ] } },
{ "type": "Feature", "properties": { "hex_id": 696649, "centroid_lon": -72.27215177166012, "centroid_lat": 45.818099356424078, "occurrences_today": 7, "datetimes_today": "2026-03-10 16:16:21, 2026-03-10 16:31:37, 2026-03-10 16:46:38, 2026-03-10 17:01:28, 2026-03-10 17:16:33, 2026-03-10 17:31:24, 2026-03-10 18:01:26", "cumulative_total": 33 }, "geometry": { "type": "Polygon", "coordinates": [ [ [ -72.272405384771915, 45.812908733761802 ], [ -72.278707204622151, 45.815657445855578 ], [ -72.278454152768632, 45.820848093224534 ], [ -72.271898089081645, 45.823289973256955 ], [ -72.265595777451537, 45.820540876563946 ], [ -72.265850021264825, 45.815350284502557 ], [ -72.272405384771915, 45.812908733761802 ] ] ] } },
{ "type": "Feature", "properties": { "hex_id": 697258, "centroid_lon": -72.266866300576822, "centroid_lat": 45.794587857917691, "occurrences_today": 7, "datetimes_today": "2026-03-10 16:16:21, 2026-03-10 16:31:37, 2026-03-10 16:46:38, 2026-03-10 17:01:28, 2026-03-10 17:16:33, 2026-03-10 17:31:24, 2026-03-10 18:01:26", "cumulative_total": 35 }, "geometry": { "type": "Polygon", "coordinates": [ [ [ -72.267120196537036, 45.789397236688508 ], [ -72.273419143021556, 45.792146184826223 ], [ -72.273165807541901, 45.797336830802365 ], [ -72.266612335093001, 45.799778473314056 ], [ -72.260312897663297, 45.797029140837331 ], [ -72.260567423604215, 45.791838550252656 ], [ -72.267120196537036, 45.789397236688508 ] ] ] } },
{ "type": "Feature", "properties": { "hex_id": 697259, "centroid_lon": -72.266104195460485, "centroid_lat": 45.810159686606852, "occurrences_today": 7, "datetimes_today": "2026-03-10 16:16:21, 2026-03-10 16:31:37, 2026-03-10 16:46:38, 2026-03-10 17:01:28, 2026-03-10 17:16:33, 2026-03-10 17:31:24, 2026-03-10 18:01:26", "cumulative_total": 33 }, "geometry": { "type": "Polygon", "coordinates": [ [ [ -72.266358300062052, 45.804969082877228 ], [ -72.272658928440507, 45.80771810527051 ], [ -72.272405384771915, 45.812908733761802 ], [ -72.265850021264825, 45.815350284502557 ], [ -72.259548901559256, 45.812600877561209 ], [ -72.259803636664373, 45.807410304491974 ], [ -72.266358300062052, 45.804969082877228 ] ] ] } },
{ "type": "Feature", "properties": { "hex_id": 697260, "centroid_lon": -72.265341463997117, "centroid_lat": 45.825731462790678, "occurrences_today": 7, "datetimes_today": "2026-03-10 16:16:21, 2026-03-10 16:31:37, 2026-03-10 16:46:38, 2026-03-10 17:01:28, 2026-03-10 17:16:33, 2026-03-10 17:31:24, 2026-03-10 18:01:26", "cumulative_total": 33 }, "geometry": { "type": "Polygon", "coordinates": [ [ [ -72.265595777451537, 45.820540876563946 ], [ -72.271898089081645, 45.823289973256955 ], [ -72.271644337013029, 45.828480584260099 ], [ -72.26508708087799, 45.830922043182362 ], [ -72.258784277538524, 45.828172561732089 ], [ -72.259039222019922, 45.822982006181633 ], [ -72.265595777451537, 45.820540876563946 ] ] ] } },
{ "type": "Feature", "properties": { "hex_id": 697868, "centroid_lon": -72.26082187987079, "centroid_lat": 45.786647953830261, "occurrences_today": 7, "datetimes_today": "2026-03-10 16:16:21, 2026-03-10 16:31:37, 2026-03-10 16:46:38, 2026-03-10 17:01:28, 2026-03-10 17:16:33, 2026-03-10 17:31:24, 2026-03-10 18:01:26", "cumulative_total": 35 }, "geometry": { "type": "Polygon", "coordinates": [ [ [ -72.261076266486569, 45.781457351570495 ], [ -72.267374022997089, 45.784206609626878 ], [ -72.267120196537036, 45.789397236688508 ], [ -72.260567423604215, 45.791838550252656 ], [ -72.254269176600516, 45.789088907908386 ], [ -72.254524192999327, 45.783898336352586 ], [ -72.261076266486569, 45.781457351570495 ] ] ] } },
{ "type": "Feature", "properties": { "hex_id": 697869, "centroid_lon": -72.260058302024532, "centroid_lat": 45.802219725583889, "occurrences_today": 7, "datetimes_today": "2026-03-10 16:16:21, 2026-03-10 16:31:37, 2026-03-10 16:46:38, 2026-03-10 17:01:28, 2026-03-10 17:16:33, 2026-03-10 17:31:24, 2026-03-10 18:01:26", "cumulative_total": 33 }, "geometry": { "type": "Polygon", "coordinates": [ [ [ -72.260312897663297, 45.797029140837331 ], [ -72.266612335093001, 45.799778473314056 ], [ -72.266358300062052, 45.804969082877228 ], [ -72.259803636664373, 45.807410304491974 ], [ -72.253503708360029, 45.804660587518349 ], [ -72.253758934304457, 45.799470033491637 ], [ -72.260312897663297, 45.797029140837331 ] ] ] } },
{ "type": "Feature", "properties": { "hex_id": 697870, "centroid_lon": -72.259294096685636, "centroid_lat": 45.817791444791219, "occurrences_today": 7, "datetimes_today": "2026-03-10 16:16:21, 2026-03-10 16:31:37, 2026-03-10 16:46:38, 2026-03-10 17:01:28, 2026-03-10 17:16:33, 2026-03-10 17:31:24, 2026-03-10 18:01:26", "cumulative_total": 33 }, "geometry": { "type": "Polygon", "coordinates": [ [ [ -72.259548901559256, 45.812600877561209 ], [ -72.265850021264825, 45.815350284502557 ], [ -72.265595777451537, 45.820540876563946 ], [ -72.259039222019922, 45.822982006181633 ], [ -72.252737611057896, 45.820232214534279 ], [ -72.252993046760366, 45.815041678040032 ], [ -72.259548901559256, 45.812600877561209 ] ] ] } },
{ "type": "Feature", "properties": { "hex_id": 698479, "centroid_lon": -72.254014090376756, "centroid_lat": 45.794279473621529, "occurrences_today": 7, "datetimes_today": "2026-03-10 16:16:21, 2026-03-10 16:31:37, 2026-03-10 16:46:38, 2026-03-10 17:01:28, 2026-03-10 17:16:33, 2026-03-10 17:31:24, 2026-03-10 18:01:26", "cumulative_total": 33 }, "geometry": { "type": "Polygon", "coordinates": [ [ [ -72.254269176600516, 45.789088907908386 ], [ -72.260567423604215, 45.791838550252656 ], [ -72.260312897663297, 45.797029140837331 ], [ -72.253758934304457, 45.799470033491637 ], [ -72.247460196878265, 45.796720006701698 ], [ -72.247715913209831, 45.791529471767866 ], [ -72.254269176600516, 45.789088907908386 ] ] ] } },
{ "type": "Feature", "properties": { "hex_id": 698480, "centroid_lon": -72.253248412519866, "centroid_lat": 45.809851135701265, "occurrences_today": 7, "datetimes_today": "2026-03-10 16:16:21, 2026-03-10 16:31:37, 2026-03-10 16:46:38, 2026-03-10 17:01:28, 2026-03-10 17:16:33, 2026-03-10 17:31:24, 2026-03-10 18:01:26", "cumulative_total": 37 }, "geometry": { "type": "Polygon", "coordinates": [ [ [ -72.253503708360029, 45.804660587518349 ], [ -72.259803636664373, 45.807410304491974 ], [ -72.259548901559256, 45.812600877561209 ], [ -72.252993046760366, 45.815041678040032 ], [ -72.246692627652138, 45.812291576411617 ], [ -72.246948554123065, 45.807101059023957 ], [ -72.253503708360029, 45.804660587518349 ] ] ] } },
{ "type": "Feature", "properties": { "hex_id": 699089, "centroid_lon": -72.247971559542222, "centroid_lat": 45.786338930986062, "occurrences_today": 7, "datetimes_today": "2026-03-10 16:16:21, 2026-03-10 16:31:37, 2026-03-10 16:46:38, 2026-03-10 17:01:28, 2026-03-10 17:16:33, 2026-03-10 17:31:24, 2026-03-10 18:01:26", "cumulative_total": 33 }, "geometry": { "type": "Polygon", "coordinates": [ [ [ -72.2482271358991, 45.781148384356648 ], [ -72.254524192999327, 45.783898336352586 ], [ -72.254269176600516, 45.789088907908386 ], [ -72.247715913209831, 45.791529471767866 ], [ -72.241418366138873, 45.788779135377453 ], [ -72.241674572405728, 45.783588619586773 ], [ -72.2482271358991, 45.781148384356648 ] ] ] } },
{ "type": "Feature", "properties": { "hex_id": 699090, "centroid_lon": -72.247204410523892, "centroid_lat": 45.801910535787187, "occurrences_today": 7, "datetimes_today": "2026-03-10 16:16:21, 2026-03-10 16:31:37, 2026-03-10 16:46:38, 2026-03-10 17:01:28, 2026-03-10 17:16:33, 2026-03-10 17:31:24, 2026-03-10 18:01:26", "cumulative_total": 33 }, "geometry": { "type": "Polygon", "coordinates": [ [ [ -72.247460196878265, 45.796720006701698 ], [ -72.253758934304457, 45.799470033491637 ], [ -72.253503708360029, 45.804660587518349 ], [ -72.246948554123065, 45.807101059023957 ], [ -72.240649326345206, 45.804350647630478 ], [ -72.240905743132316, 45.79916014939969 ], [ -72.247460196878265, 45.796720006701698 ] ] ] } },
{ "type": "Feature", "properties": { "hex_id": 699700, "centroid_lon": -72.241162089722309, "centroid_lat": 45.793969645315229, "occurrences_today": 7, "datetimes_today": "2026-03-10 16:16:21, 2026-03-10 16:31:37, 2026-03-10 16:46:38, 2026-03-10 17:01:28, 2026-03-10 17:16:33, 2026-03-10 17:31:24, 2026-03-10 18:01:26", "cumulative_total": 33 }, "geometry": { "type": "Polygon", "coordinates": [ [ [ -72.241418366138873, 45.788779135377453 ], [ -72.247715913209831, 45.791529471767866 ], [ -72.247460196878265, 45.796720006701698 ], [ -72.240905743132316, 45.79916014939969 ], [ -72.234607706161626, 45.796409428457061 ], [ -72.234864612812927, 45.791218949433407 ], [ -72.241418366138873, 45.788779135377453 ] ] ] } },
{ "type": "Feature", "properties": { "hex_id": 1658344, "centroid_lon": -61.71112275513358, "centroid_lat": 47.529619339327525, "occurrences_today": 4, "datetimes_today": "2026-03-10 16:16:21, 2026-03-10 16:31:37, 2026-03-10 16:46:38, 2026-03-10 17:01:28", "cumulative_total": 33 }, "geometry": { "type": "Polygon", "coordinates": [ [ [ -61.712423134387869, 47.524563661577218 ], [ -61.718237375841369, 47.527854094473248 ], [ -61.71693740577058, 47.532909890670098 ], [ -61.7098220208659, 47.534674985532241 ], [ -61.704007725302525, 47.53138408680001 ], [ -61.705308868633196, 47.526328559098019 ], [ -61.712423134387869, 47.524563661577218 ] ] ] } },
{ "type": "Feature", "properties": { "hex_id": 856098, "centroid_lon": -70.457250571963399, "centroid_lat": 47.451804832906923, "occurrences_today": 2, "datetimes_today": "2026-03-10 16:16:21, 2026-03-10 16:31:37", "cumulative_total": 15 }, "geometry": { "type": "Polygon", "coordinates": [ [ [ -70.457697407820064, 47.446626144827675 ], [ -70.464085717934609, 47.449477793021821 ], [ -70.463639464691298, 47.454656524426596 ], [ -70.456803611287697, 47.456983513081255 ], [ -70.450414843400779, 47.454131443299097 ], [ -70.450862386645923, 47.448952806518072 ], [ -70.457697407820064, 47.446626144827675 ] ] ] } },
{ "type": "Feature", "properties": { "hex_id": 564144, "centroid_lon": -73.677988755511919, "centroid_lat": 45.429885567158486, "occurrences_today": 2, "datetimes_today": "2026-03-10 16:16:21, 2026-03-10 16:31:37", "cumulative_total": 12 }, "geometry": { "type": "Polygon", "coordinates": [ [ [ -73.678110048319013, 45.42469007804592 ], [ -73.684439345194164, 45.427361609645004 ], [ -73.684318621802973, 45.432557109552171 ], [ -73.67786742960952, 45.435081051271233 ], [ -73.671537596419313, 45.432409152693488 ], [ -73.671659491726516, 45.427213679439681 ], [ -73.678110048319013, 45.42469007804592 ] ] ] } },
{ "type": "Feature", "properties": { "hex_id": 563534, "centroid_lon": -73.684197865470679, "centroid_lat": 45.437752604461927, "occurrences_today": 2, "datetimes_today": "2026-03-10 16:16:21, 2026-03-10 16:31:37", "cumulative_total": 97 }, "geometry": { "type": "Polygon", "coordinates": [ [ [ -73.684318621802973, 45.432557109552171 ], [ -73.690649090610719, 45.435228306522369 ], [ -73.690528904013888, 45.44042381216714 ], [ -73.684077076186298, 45.442948094374181 ], [ -73.677746070600705, 45.440276530384111 ], [ -73.67786742960952, 45.435081051271233 ], [ -73.684318621802973, 45.432557109552171 ] ] ] } },
{ "type": "Feature", "properties": { "hex_id": 582463, "centroid_lon": -73.484624531323817, "centroid_lat": 45.489845929042708, "occurrences_today": 2, "datetimes_today": "2026-03-10 17:31:24, 2026-03-10 18:01:26", "cumulative_total": 18 }, "geometry": { "type": "Polygon", "coordinates": [ [ [ -73.484763852023903, 45.484650929586017 ], [ -73.491090377848636, 45.48733311867084 ], [ -73.490951625745595, 45.492528130845947 ], [ -73.484485172585281, 45.49504092342039 ], [ -73.478158116208334, 45.492358364797752 ], [ -73.478298043531183, 45.487163383202933 ], [ -73.484763852023903, 45.484650929586017 ] ] ] } },
{ "type": "Feature", "properties": { "hex_id": 586152, "centroid_lon": -73.434983115753852, "centroid_lat": 45.894517234978288, "occurrences_today": 7, "datetimes_today": "2026-03-10 16:16:21, 2026-03-10 16:31:37, 2026-03-10 16:46:38, 2026-03-10 17:01:28, 2026-03-10 17:16:33, 2026-03-10 17:31:24, 2026-03-10 18:01:26", "cumulative_total": 49 }, "geometry": { "type": "Polygon", "coordinates": [ [ [ -73.435129043213095, 45.88932272621139 ], [ -73.44149840776906, 45.89200804696786 ], [ -73.441353060512199, 45.8972025690531 ], [ -73.434837148255468, 45.899711738641201 ], [ -73.428467243543039, 45.897026042715233 ], [ -73.428613791230234, 45.89183155243601 ], [ -73.435129043213095, 45.88932272621139 ] ] ] } },
{ "type": "Feature", "properties": { "hex_id": 587373, "centroid_lon": -73.42209795922308, "centroid_lat": 45.894339998359619, "occurrences_today": 7, "datetimes_today": "2026-03-10 16:16:21, 2026-03-10 16:31:37, 2026-03-10 16:46:38, 2026-03-10 17:01:28, 2026-03-10 17:16:33, 2026-03-10 17:31:24, 2026-03-10 18:01:26", "cumulative_total": 56 }, "geometry": { "type": "Polygon", "coordinates": [ [ [ -73.422245086927759, 45.889145521526558 ], [ -73.428613791230234, 45.89183155243601 ], [ -73.428467243543039, 45.897026042715233 ], [ -73.421950791150252, 45.89953447008282 ], [ -73.41558154720525, 45.896848063886388 ], [ -73.415729295281878, 45.891653605674691 ], [ -73.422245086927759, 45.889145521526558 ] ] ] } },
{ "type": "Feature", "properties": { "hex_id": 523243, "centroid_lon": -74.105567298603376, "centroid_lat": 45.473010944415321, "occurrences_today": 7, "datetimes_today": "2026-03-10 16:16:21, 2026-03-10 16:31:37, 2026-03-10 16:46:38, 2026-03-10 17:01:28, 2026-03-10 17:16:33, 2026-03-10 17:31:24, 2026-03-10 18:01:26", "cumulative_total": 64 }, "geometry": { "type": "Polygon", "coordinates": [ [ [ -74.105649488999575, 45.467814743457787 ], [ -74.112004127601992, 45.470462747168014 ], [ -74.111922513615241, 45.475658954686345 ], [ -74.10548508576629, 45.478207140509106 ], [ -74.099129893199049, 45.475558773331201 ], [ -74.099212682438065, 45.470362583862723 ], [ -74.105649488999575, 45.467814743457787 ] ] ] } },
{ "type": "Feature", "properties": { "hex_id": 568418, "centroid_lon": -73.63306967772111, "centroid_lat": 45.437152090639373, "occurrences_today": 1, "datetimes_today": "2026-03-10 16:16:21", "cumulative_total": 61 }, "geometry": { "type": "Polygon", "coordinates": [ [ [ -73.633195122793779, 45.431956703907211 ], [ -73.639523046355933, 45.434630706446804 ], [ -73.639398170312177, 45.439826104419105 ], [ -73.632944198417832, 45.442347472354356 ], [ -73.626615740063116, 45.43967310232437 ], [ -73.626741788383825, 45.434477731913866 ], [ -73.633195122793779, 45.431956703907211 ] ] ] } },
{ "type": "Feature", "properties": { "hex_id": 782792, "centroid_lon": -71.301316590703621, "centroid_lat": 46.765126187440849, "occurrences_today": 1, "datetimes_today": "2026-03-10 18:01:26", "cumulative_total": 110 }, "geometry": { "type": "Polygon", "coordinates": [ [ [ -71.301671901829451, 46.759941369148542 ], [ -71.30802841836001, 46.762745047173176 ], [ -71.307673682359564, 46.767929900124194 ], [ -71.30096118115425, 46.770310998938321 ], [ -71.294604187938887, 46.767506915555074 ], [ -71.294960172579579, 46.762322138782906 ], [ -71.301671901829451, 46.759941369148542 ] ] ] } },
{ "type": "Feature", "properties": { "hex_id": 777296, "centroid_lon": -71.361702331642235, "centroid_lat": 46.743681098893809, "occurrences_today": 2, "datetimes_today": "2026-03-10 16:46:38, 2026-03-10 17:01:28", "cumulative_total": 10 }, "geometry": { "type": "Polygon", "coordinates": [ [ [ -71.362051588104904, 46.738495910256205 ], [ -71.368408981800613, 46.741296253515273 ], [ -71.368060300766786, 46.746481476212345 ], [ -71.361352978454406, 46.748866280804322 ], [ -71.35499510607174, 46.746065532973013 ], [ -71.355345034654945, 46.740880385188554 ], [ -71.362051588104904, 46.738495910256205 ] ] ] } },
{ "type": "Feature", "properties": { "hex_id": 501294, "centroid_lon": -74.330459362700907, "centroid_lat": 45.926657674654031, "occurrences_today": 7, "datetimes_today": "2026-03-10 16:16:21, 2026-03-10 16:31:37, 2026-03-10 16:46:38, 2026-03-10 17:01:28, 2026-03-10 17:16:33, 2026-03-10 17:31:24, 2026-03-10 18:01:26", "cumulative_total": 58 }, "geometry": { "type": "Polygon", "coordinates": [ [ [ -74.330521869242801, 45.921461609285721 ], [ -74.336938619984053, 45.924097238469706 ], [ -74.336876706832712, 45.929293308209488 ], [ -74.330396838996535, 45.931853735210453 ], [ -74.323979512030107, 45.929217738997558 ], [ -74.324042629119219, 45.924021682878198 ], [ -74.330521869242801, 45.921461609285721 ] ] ] } },
{ "type": "Feature", "properties": { "hex_id": 556215, "centroid_lon": -73.758497741790478, "centroid_lat": 45.547717964862507, "occurrences_today": 5, "datetimes_today": "2026-03-10 16:16:21, 2026-03-10 16:31:37, 2026-03-10 16:46:38, 2026-03-10 17:01:28, 2026-03-10 17:16:33", "cumulative_total": 63 }, "geometry": { "type": "Polygon", "coordinates": [ [ [ -73.758612117927157, 45.5425224197799 ], [ -73.764958409874112, 45.545189614079511 ], [ -73.76484460778768, 45.550385169185816 ], [ -73.75838333440052, 45.552913504974484 ], [ -73.752036499661841, 45.550245942962391 ], [ -73.752151481091545, 45.545050412938728 ], [ -73.758612117927157, 45.5425224197799 ] ] ] } },
{ "type": "Feature", "properties": { "hex_id": 785846, "centroid_lon": -71.267031167841481, "centroid_lat": 46.787394903978516, "occurrences_today": 2, "datetimes_today": "2026-03-10 16:16:21, 2026-03-10 16:31:37", "cumulative_total": 198 }, "geometry": { "type": "Polygon", "coordinates": [ [ [ -71.267390046862019, 46.782210307695962 ], [ -71.273747219533874, 46.785015909084052 ], [ -71.273388915777488, 46.790200540372183 ], [ -71.266672189383257, 46.792579493426565 ], [ -71.260314540902158, 46.789773486096557 ], [ -71.260674094590101, 46.784588931720712 ], [ -71.267390046862019, 46.782210307695962 ] ] ] } },
{ "type": "Feature", "properties": { "hex_id": 519611, "centroid_lon": -74.136532989521655, "centroid_lat": 45.95653541284689, "occurrences_today": 7, "datetimes_today": "2026-03-10 16:16:21, 2026-03-10 16:31:37, 2026-03-10 16:46:38, 2026-03-10 17:01:28, 2026-03-10 17:16:33, 2026-03-10 17:31:24, 2026-03-10 18:01:26", "cumulative_total": 34 }, "geometry": { "type": "Polygon", "coordinates": [ [ [ -74.136613683320348, 45.951339610399096 ], [ -74.143024514487408, 45.953986073562 ], [ -74.142944412421613, 45.959181882336189 ], [ -74.136452273559499, 45.96173121043941 ], [ -74.130040872826754, 45.959084377974953 ], [ -74.130122180514277, 45.953888586774433 ], [ -74.136613683320348, 45.951339610399096 ] ] ] } },
{ "type": "Feature", "properties": { "hex_id": 522665, "centroid_lon": -74.103898890149125, "centroid_lat": 45.97966797146114, "occurrences_today": 6, "datetimes_today": "2026-03-10 16:31:37, 2026-03-10 16:46:38, 2026-03-10 17:01:28, 2026-03-10 17:16:33, 2026-03-10 17:31:24, 2026-03-10 18:01:26", "cumulative_total": 7 }, "geometry": { "type": "Polygon", "coordinates": [ [ [ -74.103982701037566, 45.974472235649699 ], [ -74.110394603264211, 45.977120526970467 ], [ -74.110311384394009, 45.982316269439828 ], [ -74.103815056234623, 45.984863702408994 ], [ -74.097402585019722, 45.982215041174207 ], [ -74.097487010944619, 45.977019316949978 ], [ -74.103982701037566, 45.974472235649699 ] ] ] } },
{ "type": "Feature", "properties": { "hex_id": 338272, "centroid_lon": -76.046809378137638, "centroid_lat": 45.635414446269564, "occurrences_today": 7, "datetimes_today": "2026-03-10 16:16:21, 2026-03-10 16:31:37, 2026-03-10 16:46:38, 2026-03-10 17:01:28, 2026-03-10 17:16:33, 2026-03-10 17:31:24, 2026-03-10 18:01:26", "cumulative_total": 14 }, "geometry": { "type": "Polygon", "coordinates": [ [ [ -76.046712641112208, 45.630218628143922 ], [ -76.053174876267022, 45.632757583552497 ], [ -76.053272219079261, 45.637953388600685 ], [ -76.046906141626394, 45.640610259488689 ], [ -76.040443274216997, 45.638070958286676 ], [ -76.040347116523961, 45.632875132054949 ], [ -76.046712641112208, 45.630218628143922 ] ] ] } },
{ "type": "Feature", "properties": { "hex_id": 338882, "centroid_lon": -76.040250985127813, "centroid_lat": 45.627679300918665, "occurrences_today": 7, "datetimes_today": "2026-03-10 16:16:21, 2026-03-10 16:31:37, 2026-03-10 16:46:38, 2026-03-10 17:01:28, 2026-03-10 17:16:33, 2026-03-10 17:31:24, 2026-03-10 18:01:26", "cumulative_total": 14 }, "geometry": { "type": "Polygon", "coordinates": [ [ [ -76.040154880019699, 45.622483464877888 ], [ -76.046615930541165, 45.625022805111826 ], [ -76.046712641112208, 45.630218628143922 ], [ -76.040347116523961, 45.632875132054949 ], [ -76.033885434247125, 45.630335446052662 ], [ -76.033789908322746, 45.625139601972528 ], [ -76.040154880019699, 45.622483464877888 ] ] ] } },
{ "type": "Feature", "properties": { "hex_id": 339493, "centroid_lon": -76.033980986302012, "centroid_lat": 45.635531285230179, "occurrences_today": 7, "datetimes_today": "2026-03-10 16:16:21, 2026-03-10 16:31:37, 2026-03-10 16:46:38, 2026-03-10 17:01:28, 2026-03-10 17:16:33, 2026-03-10 17:31:24, 2026-03-10 18:01:26", "cumulative_total": 14 }, "geometry": { "type": "Polygon", "coordinates": [ [ [ -76.033885434247125, 45.630335446052662 ], [ -76.040347116523961, 45.632875132054949 ], [ -76.040443274216997, 45.638070958286676 ], [ -76.034076564496189, 45.640727119505065 ], [ -76.027614250437509, 45.638187087570913 ], [ -76.027519277890264, 45.632991240415087 ], [ -76.033885434247125, 45.630335446052662 ] ] ] } },
{ "type": "Feature", "properties": { "hex_id": 340103, "centroid_lon": -76.027424331315942, "centroid_lat": 45.62779538835855, "occurrences_today": 7, "datetimes_today": "2026-03-10 16:16:21, 2026-03-10 16:31:37, 2026-03-10 16:46:38, 2026-03-10 17:01:28, 2026-03-10 17:16:33, 2026-03-10 17:31:24, 2026-03-10 18:01:26", "cumulative_total": 14 }, "geometry": { "type": "Polygon", "coordinates": [ [ [ -76.027329410705789, 45.622599531401363 ], [ -76.033789908322746, 45.625139601972528 ], [ -76.033885434247125, 45.630335446052662 ], [ -76.027519277890264, 45.632991240415087 ], [ -76.021058148990548, 45.630450823937238 ], [ -76.020963807739193, 45.625254959068471 ], [ -76.027329410705789, 45.622599531401363 ] ] ] } },
{ "type": "Feature", "properties": { "hex_id": 340104, "centroid_lon": -76.027709248966417, "centroid_lat": 45.643382929825997, "occurrences_today": 7, "datetimes_today": "2026-03-10 16:16:21, 2026-03-10 16:31:37, 2026-03-10 16:46:38, 2026-03-10 17:01:28, 2026-03-10 17:16:33, 2026-03-10 17:31:24, 2026-03-10 18:01:26", "cumulative_total": 14 }, "geometry": { "type": "Polygon", "coordinates": [ [ [ -76.027614250437509, 45.638187087570913 ], [ -76.034076564496189, 45.640727119505065 ], [ -76.034172168838481, 45.645922948877271 ], [ -76.027804273485728, 45.648578767180304 ], [ -76.021341327618856, 45.646038389150689 ], [ -76.021246908921697, 45.640842538978383 ], [ -76.027614250437509, 45.638187087570913 ] ] ] } },
{ "type": "Feature", "properties": { "hex_id": 340714, "centroid_lon": -76.021152516048488, "centroid_lat": 45.635646683907225, "occurrences_today": 7, "datetimes_today": "2026-03-10 16:16:21, 2026-03-10 16:31:37, 2026-03-10 16:46:38, 2026-03-10 17:01:28, 2026-03-10 17:16:33, 2026-03-10 17:31:24, 2026-03-10 18:01:26", "cumulative_total": 14 }, "geometry": { "type": "Polygon", "coordinates": [ [ [ -76.021058148990548, 45.630450823937238 ], [ -76.027519277890264, 45.632991240415087 ], [ -76.027614250437509, 45.638187087570913 ], [ -76.021246908921697, 45.640842538978383 ], [ -76.014785148713045, 45.638301776430346 ], [ -76.014691361337853, 45.633105908609885 ], [ -76.021058148990548, 45.630450823937238 ] ] ] } },
{ "type": "Feature", "properties": { "hex_id": 341324, "centroid_lon": -76.014597599611562, "centroid_lat": 45.627910035892498, "occurrences_today": 7, "datetimes_today": "2026-03-10 16:16:21, 2026-03-10 16:31:37, 2026-03-10 16:46:38, 2026-03-10 17:01:28, 2026-03-10 17:16:33, 2026-03-10 17:31:24, 2026-03-10 18:01:26", "cumulative_total": 14 }, "geometry": { "type": "Polygon", "coordinates": [ [ [ -76.01450386352559, 45.622714158278221 ], [ -76.020963807739193, 45.625254959068471 ], [ -76.021058148990548, 45.630450823937238 ], [ -76.014691361337853, 45.633105908609885 ], [ -76.008230786314243, 45.630564761774735 ], [ -76.008137629761976, 45.625368876376697 ], [ -76.01450386352559, 45.622714158278221 ] ] ] } },
{ "type": "Feature", "properties": { "hex_id": 495805, "centroid_lon": -74.387550294611458, "centroid_lat": 46.012718323067119, "occurrences_today": 7, "datetimes_today": "2026-03-10 16:16:21, 2026-03-10 16:31:37, 2026-03-10 16:46:38, 2026-03-10 17:01:28, 2026-03-10 17:16:33, 2026-03-10 17:31:24, 2026-03-10 18:01:26", "cumulative_total": 36 }, "geometry": { "type": "Polygon", "coordinates": [ [ [ -74.387607643329943, 46.007522278283155 ], [ -74.394037037369145, 46.010154725174182 ], [ -74.39398028551237, 46.015350773763977 ], [ -74.387492930129511, 46.017914363050302 ], [ -74.381062954994746, 46.015281548593173 ], [ -74.381120916333032, 46.010085512481595 ], [ -74.387607643329943, 46.007522278283155 ] ] ] } },
{ "type": "Feature", "properties": { "hex_id": 495806, "centroid_lon": -74.387378153853774, "centroid_lat": 46.028306428614393, "occurrences_today": 7, "datetimes_today": "2026-03-10 16:16:21, 2026-03-10 16:31:37, 2026-03-10 16:46:38, 2026-03-10 17:01:28, 2026-03-10 17:16:33, 2026-03-10 17:31:24, 2026-03-10 18:01:26", "cumulative_total": 8 }, "geometry": { "type": "Polygon", "coordinates": [ [ [ -74.387435549878745, 46.02311039823271 ], [ -74.393866734993679, 46.025742856544738 ], [ -74.393809936321134, 46.030938890735719 ], [ -74.387320742049255, 46.033502454195329 ], [ -74.38088897536413, 46.030869628116307 ], [ -74.380946984515731, 46.025673606410521 ], [ -74.387435549878745, 46.02311039823271 ] ] ] } },
{ "type": "Feature", "properties": { "hex_id": 496416, "centroid_lon": -74.381004977724132, "centroid_lat": 46.020477579902796, "occurrences_today": 7, "datetimes_today": "2026-03-10 16:16:21, 2026-03-10 16:31:37, 2026-03-10 16:46:38, 2026-03-10 17:01:28, 2026-03-10 17:16:33, 2026-03-10 17:31:24, 2026-03-10 18:01:26", "cumulative_total": 8 }, "geometry": { "type": "Polygon", "coordinates": [ [ [ -74.381062954994746, 46.015281548593173 ], [ -74.387492930129511, 46.017914363050302 ], [ -74.387435549878745, 46.02311039823271 ], [ -74.380946984515731, 46.025673606410521 ], [ -74.37451642830159, 46.023040424223652 ], [ -74.374575018524425, 46.017844401654536 ], [ -74.381062954994746, 46.015281548593173 ] ] ] } },
{ "type": "Feature", "properties": { "hex_id": 496417, "centroid_lon": -74.380830950263913, "centroid_lat": 46.036065645020223, "occurrences_today": 7, "datetimes_today": "2026-03-10 16:16:21, 2026-03-10 16:31:37, 2026-03-10 16:46:38, 2026-03-10 17:01:28, 2026-03-10 17:16:33, 2026-03-10 17:31:24, 2026-03-10 18:01:26", "cumulative_total": 8 }, "geometry": { "type": "Polygon", "coordinates": [ [ [ -74.38088897536413, 46.030869628116307 ], [ -74.387320742049255, 46.033502454195329 ], [ -74.387263314459787, 46.038698474975554 ], [ -74.380772909209654, 46.041261657122242 ], [ -74.374340560970538, 46.038628463112524 ], [ -74.374399199530131, 46.033432454952631 ], [ -74.38088897536413, 46.030869628116307 ] ] ] } },
{ "type": "Feature", "properties": { "hex_id": 497026, "centroid_lon": -74.374633592645978, "centroid_lat": 46.0126483742823, "occurrences_today": 7, "datetimes_today": "2026-03-10 16:16:21, 2026-03-10 16:31:37, 2026-03-10 16:46:38, 2026-03-10 17:01:28, 2026-03-10 17:16:33, 2026-03-10 17:31:24, 2026-03-10 18:01:26", "cumulative_total": 32 }, "geometry": { "type": "Polygon", "coordinates": [ [ [ -74.374692150671706, 46.007452342106937 ], [ -74.381120916333032, 46.010085512481595 ], [ -74.381062954994746, 46.015281548593173 ], [ -74.374575018524425, 46.017844401654536 ], [ -74.368145672274196, 46.015210863587491 ], [ -74.36820484307772, 46.010014840217245 ], [ -74.374692150671706, 46.007452342106937 ] ] ] } },
{ "type": "Feature", "properties": { "hex_id": 497027, "centroid_lon": -74.374457821971987, "centroid_lat": 46.028236441989677, "occurrences_today": 7, "datetimes_today": "2026-03-10 16:16:21, 2026-03-10 16:31:37, 2026-03-10 16:46:38, 2026-03-10 17:01:28, 2026-03-10 17:16:33, 2026-03-10 17:31:24, 2026-03-10 18:01:26", "cumulative_total": 8 }, "geometry": { "type": "Polygon", "coordinates": [ [ [ -74.37451642830159, 46.023040424223652 ], [ -74.380946984515731, 46.025673606410521 ], [ -74.38088897536413, 46.030869628116307 ], [ -74.374399199530131, 46.033432454952631 ], [ -74.367968062252984, 46.030798904872412 ], [ -74.368027281867356, 46.025602895915064 ], [ -74.37451642830159, 46.023040424223652 ] ] ] } },
{ "type": "Feature", "properties": { "hex_id": 497637, "centroid_lon": -74.368086485205922, "centroid_lat": 46.020406882153416, "occurrences_today": 7, "datetimes_today": "2026-03-10 16:16:21, 2026-03-10 16:31:37, 2026-03-10 16:46:38, 2026-03-10 17:01:28, 2026-03-10 17:16:33, 2026-03-10 17:31:24, 2026-03-10 18:01:26", "cumulative_total": 8 }, "geometry": { "type": "Polygon", "coordinates": [ [ [ -74.368145672274196, 46.015210863587491 ], [ -74.374575018524425, 46.017844401654536 ], [ -74.37451642830159, 46.023040424223652 ], [ -74.368027281867356, 46.025602895915064 ], [ -74.361597355044751, 46.02296898999203 ], [ -74.361657155223213, 46.017772980299391 ], [ -74.368145672274196, 46.015210863587491 ] ] ] } },
{ "type": "Feature", "properties": { "hex_id": 497638, "centroid_lon": -74.367908826357223, "centroid_lat": 46.035994909025518, "occurrences_today": 7, "datetimes_today": "2026-03-10 16:16:21, 2026-03-10 16:31:37, 2026-03-10 16:46:38, 2026-03-10 17:01:28, 2026-03-10 17:16:33, 2026-03-10 17:31:24, 2026-03-10 18:01:26", "cumulative_total": 8 }, "geometry": { "type": "Polygon", "coordinates": [ [ [ -74.367968062252984, 46.030798904872412 ], [ -74.374399199530131, 46.033432454952631 ], [ -74.374340560970538, 46.038628463112524 ], [ -74.367849574174585, 46.041190908374354 ], [ -74.361417855850959, 46.038556990237112 ], [ -74.361477705364223, 46.033360994960873 ], [ -74.367968062252984, 46.030798904872412 ] ] ] } },
{ "type": "Feature", "properties": { "hex_id": 498248, "centroid_lon": -74.361537538426958, "centroid_lat": 46.028164994879191, "occurrences_today": 7, "datetimes_today": "2026-03-10 16:16:21, 2026-03-10 16:31:37, 2026-03-10 16:46:38, 2026-03-10 17:01:28, 2026-03-10 17:16:33, 2026-03-10 17:31:24, 2026-03-10 18:01:26", "cumulative_total": 8 }, "geometry": { "type": "Polygon", "coordinates": [ [ [ -74.361597355044751, 46.02296898999203 ], [ -74.368027281867356, 46.025602895915064 ], [ -74.367968062252984, 46.030798904872412 ], [ -74.361477705364223, 46.033360994960873 ], [ -74.355047197985911, 46.030726721018247 ], [ -74.355107628046468, 46.025530725072578 ], [ -74.361597355044751, 46.02296898999203 ] ] ] } },
{ "type": "Feature", "properties": { "hex_id": 498859, "centroid_lon": -74.354986751311273, "centroid_lat": 46.03592271215723, "occurrences_today": 7, "datetimes_today": "2026-03-10 16:16:21, 2026-03-10 16:31:37, 2026-03-10 16:46:38, 2026-03-10 17:01:28, 2026-03-10 17:16:33, 2026-03-10 17:31:24, 2026-03-10 18:01:26", "cumulative_total": 29 }, "geometry": { "type": "Polygon", "coordinates": [ [ [ -74.355047197985911, 46.030726721018247 ], [ -74.361477705364223, 46.033360994960873 ], [ -74.361417855850959, 46.038556990237112 ], [ -74.354926288016884, 46.041118698489527 ], [ -74.348495200099777, 46.038484056363643 ], [ -74.348556260549898, 46.033288074234399 ], [ -74.355047197985911, 46.030726721018247 ] ] ] } },
{ "type": "Feature", "properties": { "hex_id": 499469, "centroid_lon": -74.348617304216702, "centroid_lat": 46.02809208729726, "occurrences_today": 7, "datetimes_today": "2026-03-10 16:16:21, 2026-03-10 16:31:37, 2026-03-10 16:46:38, 2026-03-10 17:01:28, 2026-03-10 17:16:33, 2026-03-10 17:31:24, 2026-03-10 18:01:26", "cumulative_total": 10 }, "geometry": { "type": "Polygon", "coordinates": [ [ [ -74.348678331105916, 46.022896095552198 ], [ -74.355107628046468, 46.025530725072578 ], [ -74.355047197985911, 46.030726721018247 ], [ -74.348556260549898, 46.033288074234399 ], [ -74.342126383561151, 46.030653076568292 ], [ -74.342188024050898, 46.025457093897572 ], [ -74.348678331105916, 46.022896095552198 ] ] ] } },
{ "type": "Feature", "properties": { "hex_id": 499470, "centroid_lon": -74.34843412286061, "centroid_lat": 46.043680033684971, "occurrences_today": 7, "datetimes_today": "2026-03-10 16:16:21, 2026-03-10 16:31:37, 2026-03-10 16:46:38, 2026-03-10 17:01:28, 2026-03-10 17:16:33, 2026-03-10 17:31:24, 2026-03-10 18:01:26", "cumulative_total": 8 }, "geometry": { "type": "Polygon", "coordinates": [ [ [ -74.348495200099777, 46.038484056363643 ], [ -74.354926288016884, 46.041118698489527 ], [ -74.35486580809706, 46.046314680015186 ], [ -74.3483730288267, 46.048876006198441 ], [ -74.341941360387864, 46.046240995725583 ], [ -74.342003051735404, 46.041045027482276 ], [ -74.348495200099777, 46.038484056363643 ] ] ] } },
{ "type": "Feature", "properties": { "hex_id": 500080, "centroid_lon": -74.342064726124562, "centroid_lat": 46.03584905442986, "occurrences_today": 7, "datetimes_today": "2026-03-10 16:16:21, 2026-03-10 16:31:37, 2026-03-10 16:46:38, 2026-03-10 17:01:28, 2026-03-10 17:16:33, 2026-03-10 17:31:24, 2026-03-10 18:01:26", "cumulative_total": 10 }, "geometry": { "type": "Polygon", "coordinates": [ [ [ -74.342126383561151, 46.030653076568292 ], [ -74.348556260549898, 46.033288074234399 ], [ -74.348495200099777, 46.038484056363643 ], [ -74.342003051735404, 46.041045027482276 ], [ -74.335572594715671, 46.03840966150679 ], [ -74.335634866085528, 46.033213692787868 ], [ -74.342126383561151, 46.030653076568292 ] ] ] } },
{ "type": "Feature", "properties": { "hex_id": 520186, "centroid_lon": -74.138615675675922, "centroid_lat": 45.403107178198816, "occurrences_today": 2, "datetimes_today": "2026-03-10 16:16:21, 2026-03-10 16:31:37", "cumulative_total": 32 }, "geometry": { "type": "Polygon", "coordinates": [ [ [ -74.138694636854879, 45.397910867377163 ], [ -74.145043054597963, 45.400557018797905 ], [ -74.144964668145519, 45.405753335840679 ], [ -74.138536692955611, 45.408303484165025 ], [ -74.132187722030949, 45.405656970471952 ], [ -74.132267279470568, 45.400460670791212 ], [ -74.138694636854879, 45.397910867377163 ] ] ] } },
{ "type": "Feature", "properties": { "hex_id": 520796, "centroid_lon": -74.132346815212813, "centroid_lat": 45.395264366253471, "occurrences_today": 2, "datetimes_today": "2026-03-10 16:16:21, 2026-03-10 16:31:37", "cumulative_total": 31 }, "geometry": { "type": "Polygon", "coordinates": [ [ [ -74.132426329264959, 45.39006805685878 ], [ -74.138773576499702, 45.392714551700131 ], [ -74.138694636854879, 45.397910867377163 ], [ -74.132267279470568, 45.400460670791212 ], [ -74.125919479522238, 45.397813813715594 ], [ -74.125999589664545, 45.392617515524528 ], [ -74.132426329264959, 45.39006805685878 ] ] ] } },
{ "type": "Feature", "properties": { "hex_id": 522632, "centroid_lon": -74.112085719311978, "centroid_lat": 45.465266534787546, "occurrences_today": 7, "datetimes_today": "2026-03-10 16:16:21, 2026-03-10 16:31:37, 2026-03-10 16:46:38, 2026-03-10 17:01:28, 2026-03-10 17:16:33, 2026-03-10 17:31:24, 2026-03-10 18:01:26", "cumulative_total": 40 }, "geometry": { "type": "Polygon", "coordinates": [ [ [ -74.112167288752673, 45.460070317544996 ], [ -74.118521373367756, 45.462717957947547 ], [ -74.118440380187408, 45.467914181684776 ], [ -74.112004127601992, 45.470462747168014 ], [ -74.105649488999575, 45.467814743457787 ], [ -74.105731656962448, 45.462618537636487 ], [ -74.112167288752673, 45.460070317544996 ] ] ] } },
{ "type": "Feature", "properties": { "hex_id": 552550, "centroid_lon": -73.79758529147081, "centroid_lat": 45.516955356286196, "occurrences_today": 1, "datetimes_today": "2026-03-10 16:16:21", "cumulative_total": 85 }, "geometry": { "type": "Polygon", "coordinates": [ [ [ -73.797695948410777, 45.511759707384449 ], [ -73.804040702955703, 45.514424727638684 ], [ -73.803930619660662, 45.519620386169976 ], [ -73.797474604304611, 45.52215100023119 ], [ -73.791129306346065, 45.519485613022425 ], [ -73.791240567147042, 45.514289978771529 ], [ -73.797695948410777, 45.511759707384449 ] ] ] } },
{ "type": "Feature", "properties": { "hex_id": 556825, "centroid_lon": -73.752266431112233, "centroid_lat": 45.539854877942169, "occurrences_today": 5, "datetimes_today": "2026-03-10 16:16:21, 2026-03-10 16:31:37, 2026-03-10 16:46:38, 2026-03-10 17:01:28, 2026-03-10 17:16:33", "cumulative_total": 99 }, "geometry": { "type": "Polygon", "coordinates": [ [ [ -73.752381349734492, 45.534659337972791 ], [ -73.758726462821059, 45.537326869726741 ], [ -73.758612117927157, 45.5425224197799 ], [ -73.752151481091545, 45.545050412938728 ], [ -73.745805825680335, 45.542382513513175 ], [ -73.745921349418822, 45.537186988665013 ], [ -73.752381349734492, 45.534659337972791 ] ] ] } },
{ "type": "Feature", "properties": { "hex_id": 586762, "centroid_lon": -73.428760298720604, "centroid_lat": 45.886637057049924, "occurrences_today": 7, "datetimes_today": "2026-03-10 16:16:21, 2026-03-10 16:31:37, 2026-03-10 16:46:38, 2026-03-10 17:01:28, 2026-03-10 17:16:33, 2026-03-10 17:31:24, 2026-03-10 18:01:26", "cumulative_total": 41 }, "geometry": { "type": "Polygon", "coordinates": [ [ [ -73.428906766027765, 45.881442556557033 ], [ -73.43527493064677, 45.884128212340599 ], [ -73.435129043213095, 45.88932272621139 ], [ -73.428613791230234, 45.89183155243601 ], [ -73.422245086927759, 45.889145521526558 ], [ -73.422392174278002, 45.883951039583678 ], [ -73.428906766027765, 45.881442556557033 ] ] ] } },
{ "type": "Feature", "properties": { "hex_id": 632559, "centroid_lon": -72.940250073369214, "centroid_lat": 46.026973554439373, "occurrences_today": 6, "datetimes_today": "2026-03-10 16:16:21, 2026-03-10 16:31:37, 2026-03-10 16:46:38, 2026-03-10 17:01:28, 2026-03-10 17:16:33, 2026-03-10 17:31:24", "cumulative_total": 179 }, "geometry": { "type": "Polygon", "coordinates": [ [ [ -72.940443002946452, 46.021780587720016 ], [ -72.946802474565089, 46.02449328019496 ], [ -72.946610122263763, 46.029686265169595 ], [ -72.940057090783128, 46.032166515791204 ], [ -72.933697094906435, 46.029453441897118 ], [ -72.9338906547504, 46.024260498866063 ], [ -72.940443002946452, 46.021780587720016 ] ] ] } },
{ "type": "Feature", "properties": { "hex_id": 633170, "centroid_lon": -72.933503481879015, "centroid_lat": 46.034646379556619, "occurrences_today": 6, "datetimes_today": "2026-03-10 16:16:21, 2026-03-10 16:31:37, 2026-03-10 16:46:38, 2026-03-10 17:01:28, 2026-03-10 17:16:33, 2026-03-10 17:31:24", "cumulative_total": 243 }, "geometry": { "type": "Polygon", "coordinates": [ [ [ -72.933697094906435, 46.029453441897118 ], [ -72.940057090783128, 46.032166515791204 ], [ -72.939864055170176, 46.037359471775289 ], [ -72.933309815650034, 46.039839311844368 ], [ -72.926949295569472, 46.037125856370345 ], [ -72.92714353919483, 46.031932942472714 ], [ -72.933697094906435, 46.029453441897118 ] ] ] } },
{ "type": "Feature", "properties": { "hex_id": 633780, "centroid_lon": -72.927337729462053, "centroid_lat": 46.02674002319953, "occurrences_today": 6, "datetimes_today": "2026-03-10 16:16:21, 2026-03-10 16:31:37, 2026-03-10 16:46:38, 2026-03-10 17:01:28, 2026-03-10 17:16:33, 2026-03-10 17:31:24", "cumulative_total": 273 }, "geometry": { "type": "Polygon", "coordinates": [ [ [ -72.927531866389302, 46.021547098550997 ], [ -72.9338906547504, 46.024260498866063 ], [ -72.933697094906435, 46.029453441897118 ], [ -72.92714353919483, 46.031932942472714 ], [ -72.920784227099489, 46.029219160624933 ], [ -72.920978994431863, 46.024026259799776 ], [ -72.927531866389302, 46.021547098550997 ] ] ] } },
{ "type": "Feature", "properties": { "hex_id": 634390, "centroid_lon": -72.921173708267787, "centroid_lat": 46.018833353595447, "occurrences_today": 3, "datetimes_today": "2026-03-10 16:16:21, 2026-03-10 16:31:37, 2026-03-10 16:46:38", "cumulative_total": 240 }, "geometry": { "type": "Polygon", "coordinates": [ [ [ -72.921368368625437, 46.013640442012111 ], [ -72.927725949994695, 46.016354168527293 ], [ -72.927531866389302, 46.021547098550997 ], [ -72.920978994431863, 46.024026259799776 ], [ -72.914620889797703, 46.021312151799179 ], [ -72.914816180367723, 46.016119264100716 ], [ -72.921368368625437, 46.013640442012111 ] ] ] } },
{ "type": "Feature", "properties": { "hex_id": 634391, "centroid_lon": -72.920589406252489, "centroid_lat": 46.034412056070707, "occurrences_today": 6, "datetimes_today": "2026-03-10 16:16:21, 2026-03-10 16:31:37, 2026-03-10 16:46:38, 2026-03-10 17:01:28, 2026-03-10 17:16:33, 2026-03-10 17:31:24", "cumulative_total": 243 }, "geometry": { "type": "Polygon", "coordinates": [ [ [ -72.920784227099489, 46.029219160624933 ], [ -72.92714353919483, 46.031932942472714 ], [ -72.926949295569472, 46.037125856370345 ], [ -72.920394531872617, 46.039604946136883 ], [ -72.914034696097588, 46.036890782595613 ], [ -72.914230147680897, 46.031697911046813 ], [ -72.920784227099489, 46.029219160624933 ] ] ] } },
{ "type": "Feature", "properties": { "hex_id": 635001, "centroid_lon": -72.914425545574858, "centroid_lat": 46.026505034114599, "occurrences_today": 3, "datetimes_today": "2026-03-10 16:16:21, 2026-03-10 16:31:37, 2026-03-10 16:46:38", "cumulative_total": 270 }, "geometry": { "type": "Polygon", "coordinates": [ [ [ -72.914620889797703, 46.021312151799179 ], [ -72.920978994431863, 46.024026259799776 ], [ -72.920784227099489, 46.029219160624933 ], [ -72.914230147680897, 46.031697911046813 ], [ -72.907871519836476, 46.028983421400056 ], [ -72.908067494602662, 46.023790563043072 ], [ -72.914620889797703, 46.021312151799179 ] ] ] } },
{ "type": "Feature", "properties": { "hex_id": 732626, "centroid_lon": -71.929127948040602, "centroid_lat": 45.146777253175237, "occurrences_today": 7, "datetimes_today": "2026-03-10 16:16:21, 2026-03-10 16:31:37, 2026-03-10 16:46:38, 2026-03-10 17:01:28, 2026-03-10 17:16:33, 2026-03-10 17:31:24, 2026-03-10 18:01:26", "cumulative_total": 7 }, "geometry": { "type": "Polygon", "coordinates": [ [ [ -71.929406822316295, 45.1415875945724 ], [ -71.935618193182449, 45.144353164072513 ], [ -71.93533985566873, 45.149542850356376 ], [ -71.928848998015468, 45.151966905689001 ], [ -71.922637166149372, 45.149200957324503 ], [ -71.922916652911354, 45.144011332554918 ], [ -71.929406822316295, 45.1415875945724 ] ] ] } },
{ "type": "Feature", "properties": { "hex_id": 760745, "centroid_lon": -71.603577015388055, "centroid_lat": 45.698827019122298, "occurrences_today": 7, "datetimes_today": "2026-03-10 16:16:21, 2026-03-10 16:31:37, 2026-03-10 16:46:38, 2026-03-10 17:01:28, 2026-03-10 17:16:33, 2026-03-10 17:31:24, 2026-03-10 18:01:26", "cumulative_total": 20 }, "geometry": { "type": "Polygon", "coordinates": [ [ [ -71.603891411961257, 45.693639531820992 ], [ -71.610145158484585, 45.696423896099901 ], [ -71.609831309720633, 45.701611414490955 ], [ -71.603262532879199, 45.704014500005719 ], [ -71.597008324496713, 45.701229747051691 ], [ -71.597323354785942, 45.696042297322251 ], [ -71.603891411961257, 45.693639531820992 ] ] ] } },
{ "type": "Feature", "properties": { "hex_id": 808358, "centroid_lon": -71.110181396070715, "centroid_lat": 45.589527429546273, "occurrences_today": 2, "datetimes_today": "2026-03-10 16:16:21, 2026-03-10 16:31:37", "cumulative_total": 9 }, "geometry": { "type": "Polygon", "coordinates": [ [ [ -71.110540030525428, 45.584342690543536 ], [ -71.116755697957998, 45.587152956366481 ], [ -71.116397600678951, 45.592337731086658 ], [ -71.109822663772832, 45.594712161619299 ], [ -71.103606557024193, 45.591901504566167 ], [ -71.103965826464929, 45.586716808274332 ], [ -71.110540030525428, 45.584342690543536 ] ] ] } },
{ "type": "Feature", "properties": { "hex_id": 831003, "centroid_lon": -70.807621010728411, "centroid_lat": 46.459668697429315, "occurrences_today": 7, "datetimes_today": "2026-03-10 16:16:21, 2026-03-10 16:31:37, 2026-03-10 16:46:38, 2026-03-10 17:01:28, 2026-03-10 17:16:33, 2026-03-10 17:31:24, 2026-03-10 18:01:26", "cumulative_total": 11 }, "geometry": { "type": "Polygon", "coordinates": [ [ [ -70.808019399146104, 46.454486686393466 ], [ -70.814313886723852, 46.45731594887318 ], [ -70.813916056172843, 46.462497999100151 ], [ -70.807222512464961, 46.464850701110919 ], [ -70.80092757688513, 46.462021033462278 ], [ -70.801326632977592, 46.456839069037358 ], [ -70.808019399146104, 46.454486686393466 ] ] ] } },
{ "type": "Feature", "properties": { "hex_id": 831588, "centroid_lon": -70.831335785486061, "centroid_lat": 46.062988299256808, "occurrences_today": 7, "datetimes_today": "2026-03-10 16:16:21, 2026-03-10 16:31:37, 2026-03-10 16:46:38, 2026-03-10 17:01:28, 2026-03-10 17:16:33, 2026-03-10 17:31:24, 2026-03-10 18:01:26", "cumulative_total": 9 }, "geometry": { "type": "Polygon", "coordinates": [ [ [ -70.831726481002235, 46.057805770655165 ], [ -70.837978349204519, 46.060632398896395 ], [ -70.837588200196805, 46.065814966177612 ], [ -70.830944982789802, 46.068170820566081 ], [ -70.824692675277333, 46.06534379266219 ], [ -70.825084024445673, 46.060161310097136 ], [ -70.831726481002235, 46.057805770655165 ] ] ] } },
{ "type": "Feature", "properties": { "hex_id": 831613, "centroid_lon": -70.80172557907548, "centroid_lat": 46.451657097250582, "occurrences_today": 7, "datetimes_today": "2026-03-10 16:16:21, 2026-03-10 16:31:37, 2026-03-10 16:46:38, 2026-03-10 17:01:28, 2026-03-10 17:16:33, 2026-03-10 17:31:24, 2026-03-10 18:01:26", "cumulative_total": 11 }, "geometry": { "type": "Polygon", "coordinates": [ [ [ -70.802124415216497, 46.446475118102875 ], [ -70.808417677755685, 46.449304668004309 ], [ -70.808019399146104, 46.454486686393466 ], [ -70.801326632977592, 46.456839069037358 ], [ -70.795032922882697, 46.454009114029063 ], [ -70.795432426474335, 46.448827181549305 ], [ -70.802124415216497, 46.446475118102875 ] ] ] } },
{ "type": "Feature", "properties": { "hex_id": 832224, "centroid_lon": -70.794633309147741, "centroid_lat": 46.459191039139363, "occurrences_today": 7, "datetimes_today": "2026-03-10 16:16:21, 2026-03-10 16:31:37, 2026-03-10 16:46:38, 2026-03-10 17:01:28, 2026-03-10 17:16:33, 2026-03-10 17:31:24, 2026-03-10 18:01:26", "cumulative_total": 11 }, "geometry": { "type": "Polygon", "coordinates": [ [ [ -70.795032922882697, 46.454009114029063 ], [ -70.801326632977592, 46.456839069037358 ], [ -70.80092757688513, 46.462021033462278 ], [ -70.79423358523168, 46.464372956879281 ], [ -70.787939427694283, 46.461542596606741 ], [ -70.788339709215037, 46.456360718247005 ], [ -70.795032922882697, 46.454009114029063 ] ] ] } },
{ "type": "Feature", "properties": { "hex_id": 994099, "centroid_lon": -68.91529526241888, "centroid_lat": 47.816724193815745, "occurrences_today": 7, "datetimes_today": "2026-03-10 16:16:21, 2026-03-10 16:31:37, 2026-03-10 16:46:38, 2026-03-10 17:01:28, 2026-03-10 17:16:33, 2026-03-10 17:31:24, 2026-03-10 18:01:26", "cumulative_total": 13 }, "geometry": { "type": "Polygon", "coordinates": [ [ [ -68.915900958587599, 47.811558798889727 ], [ -68.922239383893412, 47.814494631073252 ], [ -68.921634254169561, 47.819660084318834 ], [ -68.914689396594142, 47.821889578257334 ], [ -68.908350574529507, 47.818953308047739 ], [ -68.908957006739087, 47.813787981993137 ], [ -68.915900958587599, 47.811558798889727 ] ] ] } },
{ "type": "Feature", "properties": { "hex_id": 302245, "centroid_lon": -76.422252951773586, "centroid_lat": 45.514429339782005, "occurrences_today": 5, "datetimes_today": "2026-03-10 16:46:38, 2026-03-10 17:01:28, 2026-03-10 17:16:33, 2026-03-10 17:31:24, 2026-03-10 18:01:26", "cumulative_total": 14 }, "geometry": { "type": "Polygon", "coordinates": [ [ [ -76.422122078691274, 45.509234145940276 ], [ -76.428586715620568, 45.511751877497545 ], [ -76.428718195036652, 45.516947054429622 ], [ -76.422383860599965, 45.519624528583918 ], [ -76.415918581586837, 45.517106456757176 ], [ -76.415788279106238, 45.511911251110128 ], [ -76.422122078691274, 45.509234145940276 ] ] ] } },
{ "type": "Feature", "properties": { "hex_id": 302856, "centroid_lon": -76.416048919656916, "centroid_lat": 45.522301657366988, "occurrences_today": 5, "datetimes_today": "2026-03-10 16:46:38, 2026-03-10 17:01:28, 2026-03-10 17:16:33, 2026-03-10 17:31:24, 2026-03-10 18:01:26", "cumulative_total": 14 }, "geometry": { "type": "Polygon", "coordinates": [ [ [ -76.415918581586837, 45.517106456757176 ], [ -76.422383860599965, 45.519624528583918 ], [ -76.422514805182445, 45.524819712345924 ], [ -76.41617929332844, 45.52749685293945 ], [ -76.409713372195512, 45.524978440680023 ], [ -76.409583605048326, 45.519783228324286 ], [ -76.415918581586837, 45.517106456757176 ] ] ] } },
{ "type": "Feature", "properties": { "hex_id": 805915, "centroid_lon": -71.136831476272221, "centroid_lat": 45.574842239639608, "occurrences_today": 1, "datetimes_today": "2026-03-10 18:01:26", "cumulative_total": 8 }, "geometry": { "type": "Polygon", "coordinates": [ [ [ -71.137187475097505, 45.569657323606798 ], [ -71.1434029949218, 45.572466132371254 ], [ -71.143047533260216, 45.577651083859877 ], [ -71.136475380336989, 45.580027148773468 ], [ -71.130259420475184, 45.577217949181566 ], [ -71.130616053541573, 45.572033075567248 ], [ -71.137187475097505, 45.569657323606798 ] ] ] } },
{ "type": "Feature", "properties": { "hex_id": 806525, "centroid_lon": -71.130972589355579, "centroid_lat": 45.566848195047285, "occurrences_today": 1, "datetimes_today": "2026-03-10 18:01:26", "cumulative_total": 8 }, "geometry": { "type": "Polygon", "coordinates": [ [ [ -71.131329027949803, 45.56166330762246 ], [ -71.137543376845414, 45.564472400675847 ], [ -71.137187475097505, 45.569657323606798 ], [ -71.130616053541573, 45.572033075567248 ], [ -71.124401265035729, 45.569223591744141 ], [ -71.124758337663479, 45.564038746793997 ], [ -71.131329027949803, 45.56166330762246 ] ] ] } }
]
}
